p_name,p_type,menu,,openhours,entryoption,tel_no,guname,address,road_address,lat,long,cate_mix
라코즈,음식점,양식,실내,월   11:30 - 23:00   22:00 라스트오더      화   11:30 - 23:00   22:00 라스트오더      수   11:30 - 23:00   22:00 라스트오더      목   11:30 - 23:00   22:00 라스트오더      금   11:30 - 23:00   22:00 라스트오더      토   12:00 - 23:00   22:00 라스트오더      일   12:00 - 22:00   21:00 라스트오더,"목줄,캐리어,안기",02-423-7846,송파구,"서울특별시 송파구 백제고분로45길 40 a동 2층 201호, 도요스6가 바로 왼쪽에 올라오는 계단 있습니다^^",서울특별시 송파구 백제고분로45길 40,37.5110090071118,127.10749128008,"음식점양식송파구실내목줄,캐리어,안기"
응온람,음식점,면요리,"실외,테라스",매일 10:00 - 22:00    15:00 - 16:00 브레이크타임    21:30 라스트오더,"목줄,캐리어",02-6952-9420,관악구,서울특별시 관악구 승방길 7,서울특별시 관악구 승방길 7,37.4737431316872,126.981425538037,"음식점면요리관악구실외,테라스목줄,캐리어"
부부부엌,음식점,양식,실내,월-토 16:00 - 새벽 01:00    일요일 12:00 - 새벽 00:00    15:00 - 17:00 브레이크타임    정기휴무 (매주 화요일)    재료 소진 시 조기 마감(전화문의요망),"목줄,매너벨트",010-4874-8715,양천구,서울특별시 양천구 목동중앙본로 117 1층,서울특별시 양천구 목동중앙본로 117,37.5460789521861,126.871251230962,"음식점양식양천구실내목줄,매너벨트"
구찌짱,음식점,일식,실내,매일 18:00 - 새벽 04:00,"목줄,매너벨트",02-985-9797,강북구,서울특별시 강북구 도봉로10가길 12 지하1층,서울특별시 강북구 도봉로10가길 12,37.6130130379453,127.031071329746,"음식점일식강북구실내목줄,매너벨트"
전환마을부엌 밥풀꽃,음식점,한식,실내,매일 11:30 - 14:30    14:00 라스트오더,"목줄,매너벨트",02-387-1129,은평구,서울특별시 은평구 연서로15길 8,서울특별시 은평구 연서로15길 8,37.6106907623995,126.916084259002,"음식점한식은평구실내목줄,매너벨트"
올더플레이트,음식점,퓨전,실내,월~금 11:30 - 22:00    토~일 11:30 - 23:00    16:00 - 17:00 브레이크타임    22:00 라스트오더,캐리어,02-333-0525,마포구,서울특별시 마포구 동교로38길 5 2층,서울특별시 마포구 동교로38길 5,37.5618346036558,126.92461570026,음식점퓨전마포구실내캐리어
만포면옥본점,음식점,면요리,실내,"매일 11:00 - 21:00 , 연중무휴","캐리어,안기",02-389-3917,은평구,서울특별시 은평구 연서로 171 백년가게 만포면옥,서울특별시 은평구 연서로 171,37.6141425195587,126.917460367247,"음식점면요리은평구실내캐리어,안기"
사랑봄,음식점,양식,실내,평일 11:00 - 22:00 매주 화요일 휴무   주말 11:00 - 22:00 매주 화요일 휴무   공휴일 11:00 - 22:00 매주 화요일 휴무,없음,010-2020-5882,관악구,서울특별시 관악구 신원로3가길 6,서울특별시 관악구 신원로3가길 6,37.4813715431276,126.927621172856,음식점양식관악구실내없음
1번지남산돈가스커피,음식점,양식,테라스, ,목줄,02-752-5838,중구,서울특별시 중구 소파로 91,서울특별시 중구 소파로 91,37.556731032954,126.98491452474,음식점양식중구테라스목줄
우리식당,음식점,한식,실내,매일 05:00 - 22:00 연중무휴,목줄,02-752-5153,중구,서울특별시 중구 남대문시장길 22-18 우리식당,서울특별시 중구 남대문시장길 22-18,37.5596605342101,126.977072050215,음식점한식중구실내목줄
유로포차,음식점,퓨전,실내,매일 15:00 - 22:00,"목줄,캐리어",02-3444-7270,강남구,서울특별시 강남구 봉은사로1길 39,서울특별시 강남구 봉은사로1길 39,37.5072768673446,127.023887750906,"음식점퓨전강남구실내목줄,캐리어"
미스터에이스,음식점,한식,테라스, ,목줄,070-8615-9558,종로구,서울특별시 종로구 지봉로17길 36,서울특별시 종로구 지봉로17길 36,37.580053493927,127.013531156512,음식점한식종로구테라스목줄
미술관,음식점,퓨전,실내, ,목줄,02-744-7855,종로구,서울특별시 종로구 창경궁로29길 38,서울특별시 종로구 창경궁로29길 38,37.5842726902211,126.997292302646,음식점퓨전종로구실내목줄
스페이스플라토,음식점,퓨전,실내, ,목줄,02-765-1571,종로구,서울특별시 종로구 대명1길 20,서울특별시 종로구 대명1길 20,37.5826930979425,127.000648719603,음식점퓨전종로구실내목줄
샐러드로우&트라타 익선점,음식점,퓨전,실내, ,목줄,070-7543-8125,종로구,서울특별시 종로구 돈화문로 65,서울특별시 종로구 돈화문로 65,37.5742707942486,126.990870271708,음식점퓨전종로구실내목줄
더피자필,음식점,피자,실내,월   11:00 - 22:00   14:00 - 17:00 브레이크타임      화   11:00 - 22:00   14:00 - 17:00 브레이크타임      수   11:00 - 22:00   14:00 - 17:00 브레이크타임      목   11:00 - 22:00   14:00 - 17:00 브레이크타임      금   11:00 - 22:00   14:00 - 17:00 브레이크타임      토   12:00 - 22:00   14:00 - 17:00 브레이크타임      일   정기휴무 (매주 일요일),"목줄,매너벨트",02-795-3283,종로구,서울특별시 종로구 종로10길 21 1층 더피자필,서울특별시 종로구 종로10길 21,37.5689964298084,126.984537832508,"음식점피자종로구실내목줄,매너벨트"
쏘핫마라탕&마라샹궈 1호점,음식점,중식,실내, ,목줄,010-2367-9933,종로구,서울특별시 종로구 삼일대로17길 47-1 지하 1층,서울특별시 종로구 삼일대로17길 47-1,37.5690822569906,126.98494327562,음식점중식종로구실내목줄
인사동 6842 고기밥상,음식점,한식,실내, ,목줄,02-730-1272,종로구,서울특별시 종로구 인사동길 30-14,서울특별시 종로구 인사동길 30-14,37.5736903790428,126.986274723205,음식점한식종로구실내목줄
mishmash,음식점,퓨전,실내, ,목줄,02-6465-2211,종로구,서울특별시 종로구 창덕궁길 47,서울특별시 종로구 창덕궁길 47,37.5796581438292,126.989143953986,음식점퓨전종로구실내목줄
홍대노가리포차 홍노포,음식점,퓨전,"실내,실외",월수목금17:00-22:00 / 토일빨간날 15:00-22:00 (휴무: 화요일),매너벨트,010-2274-0481,마포구,서울특별시 마포구 어울마당로 136-18,서울특별시 마포구 어울마당로 136-18,37.5556973764683,126.925472836126,"음식점퓨전마포구실내,실외매너벨트"
정사장,음식점,퓨전,실내, ,목줄,010-7488-7419,종로구,서울특별시 종로구 북촌로 24 1층,서울특별시 종로구 북촌로 24,37.5788646892515,126.985432518919,음식점퓨전종로구실내목줄
파란대문,음식점,양식,실내, ,목줄,02-395-3858,종로구,서울특별시 종로구 창의문로 168,서울특별시 종로구 창의문로 168,37.5947830419925,126.963894556794,음식점양식종로구실내목줄
베테카텐,음식점,양식,실내, ,목줄,02-723-1477,종로구,서울특별시 종로구 삼청로7길 7,서울특별시 종로구 삼청로7길 7,37.5837464124825,126.981306309614,음식점양식종로구실내목줄
원테이블(WONTABLE),음식점,양식,실내, ,"목줄,매너벨트",02-379-3009,종로구,서울특별시 종로구 자하문로 304,서울특별시 종로구 자하문로 304,37.5996716545027,126.959497111808,"음식점양식종로구실내목줄,매너벨트"
미트볼라운지 삼청점,음식점,양식,테라스, ,목줄,02-722-7702,종로구,서울특별시 종로구 삼청로 89,서울특별시 종로구 삼청로 89,37.583341654716,126.981679682562,음식점양식종로구테라스목줄
본죽&비빔밥 cafe 충정로 브라운스톤점,음식점,한식,테라스, ,목줄,02-364-6282,중구,서울특별시 중구 청파로 464 대로변 1층 110호,서울특별시 중구 청파로 464,37.5608187887289,126.968225883547,음식점한식중구테라스목줄
비스트로 한강쌀롱,음식점,양식,테라스, ,목줄,070-4189-1698,중구,서울특별시 중구 만리재로 207-11,서울특별시 중구 만리재로 207-11,37.5558913169737,126.96786208421,음식점양식중구테라스목줄
히피히피,음식점,퓨전,실내, ,목줄,010-3461-5759,중구,서울특별시 중구 마장로9길 35-1 3층,서울특별시 중구 마장로9길 35-1,37.5700892183569,127.019327114445,음식점퓨전중구실내목줄
다이어트레시피,음식점,퓨전,실내, ,목줄,070-7543-7296,중구,서울특별시 중구 다산로44길 61 1층,서울특별시 중구 다산로44길 61,37.5652215896205,127.020393107804,음식점퓨전중구실내목줄
100코달리,음식점,퓨전,실내, ,목줄,010-2235-6774,중구,서울특별시 중구 다산로38길 11 1층,서울특별시 중구 다산로38길 11,37.563305249712,127.016417406503,음식점퓨전중구실내목줄
누룽지백숙,음식점,한식,실내, ,목줄,02-2232-4388,중구,서울특별시 중구 다산로 151 2층,서울특별시 중구 다산로 151,37.557258585385,127.011751979663,음식점한식중구실내목줄
크레이지 크레이지,음식점,퓨전,실내, ,목줄,02-2233-3440,중구,서울특별시 중구 다산로47길 11 4층,서울특별시 중구 다산로47길 11,37.566567993182,127.015330138534,음식점퓨전중구실내목줄
콘크리트포이트리,음식점,퓨전,실내, ,"목줄,입마개",010-4564-1722,중구,서울특별시 중구 창경궁로5길 18 4층,서울특별시 중구 창경궁로5길 18,37.5671864023794,126.996981079718,"음식점퓨전중구실내목줄,입마개"
드므,음식점,퓨전,실외, ,목줄,010-7931-2229,중구,서울특별시 중구 충무로5길 24 4층 옥탑,서울특별시 중구 충무로5길 24,37.5654747820376,126.991483468848,음식점퓨전중구실외목줄
플레김밥&카페,음식점,분식,실내, ,목줄,02-2266-9230,중구,서울특별시 중구 퇴계로 331,서울특별시 중구 퇴계로 331,37.5645250567384,127.008309177472,음식점분식중구실내목줄
사슴,음식점,퓨전,실내, ,목줄,02-2285-1571,중구,서울특별시 중구 장충단로7길 17 1층,서울특별시 중구 장충단로7길 17,37.5623976107458,127.005442559648,음식점퓨전중구실내목줄
싱싱오징어바다 충무로점,음식점,퓨전,테라스, ,목줄,02-2274-9283,중구,서울특별시 중구 서애로1길 11,서울특별시 중구 서애로1길 11,37.5613425706769,126.998598124335,음식점퓨전중구테라스목줄
을지로 차이,음식점,퓨전,실내, ,"목줄,입마개",070-4154-4374,중구,서울특별시 중구 을지로12길 28 제이매크로타워 203호,서울특별시 중구 을지로12길 28,37.5651799066544,126.990569735043,"음식점퓨전중구실내목줄,입마개"
프렌즈,음식점,퓨전,실내, ,목줄,02-730-6477,중구,서울특별시 중구 세종대로21길 55 3층,서울특별시 중구 세종대로21길 55,37.5690135525009,126.975946526657,음식점퓨전중구실내목줄
식당진,음식점,일식,실내, ,목줄,02-755-7558,중구,서울특별시 중구 퇴계로22길 5,서울특별시 중구 퇴계로22길 5,37.5606353373972,126.986515704364,음식점일식중구실내목줄
한상훈셰프,음식점,양식,실내, ,목줄,010-7274-9443,중구,서울특별시 중구 소공로 29,서울특별시 중구 소공로 29,37.5579597058669,126.982811219104,음식점양식중구실내목줄
다운타우너 안국,음식점,햄버거,실내, ,캐리어,070-8870-3696,종로구,서울특별시 종로구 북촌로 6-4 1층,서울특별시 종로구 북촌로 6-4,37.5774676298082,126.986372066894,음식점햄버거종로구실내캐리어
기러기둥지,음식점,퓨전,실내, ,목줄,02-3673-0070,종로구,서울특별시 종로구 돈화문로11길 28-4,서울특별시 종로구 돈화문로11길 28-4,37.5727948972767,126.990037189592,음식점퓨전종로구실내목줄
보울박스 한남본점,음식점,퓨전,실내, ,캐리어,02-749-2927,용산구,서울특별시 용산구 독서당로 67,서울특별시 용산구 독서당로 67,37.5338383170395,127.008147487881,음식점퓨전용산구실내캐리어
리틀넥 한남,음식점,양식,테라스, ,목줄,070-8869-9499,용산구,서울특별시 용산구 한남대로27길 66 1층,서울특별시 용산구 한남대로27길 66,37.539599647338,127.003000269542,음식점양식용산구테라스목줄
조개일번지,음식점,한식,실외, ,목줄,02-902-2545,도봉구,서울특별시 도봉구 도봉로106길 22 (쌍문역2번 출구에서456m),서울특별시 도봉구 도봉로106길 22,37.6444604697605,127.033580151894,음식점한식도봉구실외목줄
베트남돼지,음식점,퓨전,실내, ,목줄,02-749-9186,용산구,서울특별시 용산구 이태원로20길 21 1층,서울특별시 용산구 이태원로20길 21,37.5334152404016,126.992352297779,음식점퓨전용산구실내목줄
Billionbox,음식점,햄버거,실내, ,목줄,070-8154-1564,용산구,서울특별시 용산구 회나무로 24-1,서울특별시 용산구 회나무로 24-1,37.5392180010491,126.989450003548,음식점햄버거용산구실내목줄
여인숙,음식점,퓨전,실내, ,"목줄,매너벨트",010-4194-4588,용산구,서울특별시 용산구 녹사평대로42길 19,서울특별시 용산구 녹사평대로42길 19,37.5368852340828,126.987719435402,"음식점퓨전용산구실내목줄,매너벨트"
사실주의베이컨,음식점,퓨전,실외, ,목줄,02-797-1775,용산구,서울특별시 용산구 우사단로 31-1,서울특별시 용산구 우사단로 31-1,37.5330532867351,126.995415813282,음식점퓨전용산구실외목줄
코펜바인,음식점,퓨전,실내, ,목줄,02-792-8319,용산구,서울특별시 용산구 이촌로 300 첼리투스상가,서울특별시 용산구 이촌로 300,37.5178439903271,126.980323377172,음식점퓨전용산구실내목줄
이촌바,음식점,퓨전,실내, ,목줄,02-749-2007,용산구,서울특별시 용산구 이촌로88길 16 미학빌딩 4층,서울특별시 용산구 이촌로88길 16,37.5178484697556,126.977647490904,음식점퓨전용산구실내목줄
오썸델리,음식점,한식,실내, ,목줄,070-8118-0009,용산구,서울특별시 용산구 한강대로 95,서울특별시 용산구 한강대로 95,37.5288173852679,126.966653789116,음식점한식용산구실내목줄
도로시락,음식점,퓨전,실내, ,목줄,02-6368-6365,용산구,서울특별시 용산구 한강대로 95 래미안더센트럴 지하2층 242호,서울특별시 용산구 한강대로 95,37.5288173852679,126.966653789116,음식점퓨전용산구실내목줄
산골녹차냉면,음식점,한식,실내, ,목줄,02-716-1988,용산구,서울특별시 용산구 효창원로 147,서울특별시 용산구 효창원로 147,37.5412850612069,126.961852857892,음식점한식용산구실내목줄
로리스피자,음식점,피자,실내, ,목줄,02-792-0770,용산구,서울특별시 용산구 한강대로 95 래미안 용산 더센트럴 상가 A동 지하2층 220호,서울특별시 용산구 한강대로 95,37.5288173852679,126.966653789116,음식점피자용산구실내목줄
유키사키,음식점,일식,실내, ,목줄,010-6203-4748,용산구,서울특별시 용산구 후암로57길 51-3 1층,서울특별시 용산구 후암로57길 51-3,37.5512476802498,126.974168385707,음식점일식용산구실내목줄
줄라이 카레,음식점,퓨전,실내, ,목줄,02-6338-1456,용산구,서울특별시 용산구 한강대로76길 11-42,서울특별시 용산구 한강대로76길 11-42,37.5424837423435,126.973708610845,음식점퓨전용산구실내목줄
진대포,음식점,한식,실내, ,목줄,02-717-0398,용산구,서울특별시 용산구 한강대로77길 11,서울특별시 용산구 한강대로77길 11,37.5417114040155,126.972130856033,음식점한식용산구실내목줄
DONO,음식점,피자,실내, ,목줄,02-3785-0501,용산구,서울특별시 용산구 이태원로54길 63,서울특별시 용산구 이태원로54길 63,37.5357105109191,127.001234056434,음식점피자용산구실내목줄
쏭타이치앙마이,음식점,퓨전,실내, ,목줄,02-749-5170,용산구,서울특별시 용산구 한강대로40길 39-5 1층,서울특별시 용산구 한강대로40길 39-5,37.5303665102131,126.971605603739,음식점퓨전용산구실내목줄
버뮤다삼각지,음식점,퓨전,실내, ,목줄,02-749-6789,용산구,"서울특별시 용산구 한강대로52길 19 1, 2층",서울특별시 용산구 한강대로52길 19,37.5320389253485,126.972264903546,음식점퓨전용산구실내목줄
카페 시바,음식점,퓨전,실내, ,목줄,070-7543-1339,용산구,서울특별시 용산구 한강대로 276-1 1층,서울특별시 용산구 한강대로 276-1,37.5429585485849,126.972821991956,음식점퓨전용산구실내목줄
바리,음식점,퓨전,실내, ,목줄,02-797-7090,용산구,서울특별시 용산구 회나무로 41,서울특별시 용산구 회나무로 41,37.5398352369453,126.991167416752,음식점퓨전용산구실내목줄
Nm,음식점,퓨전,실내, ,목줄,02-6407-4949,용산구,서울특별시 용산구 한강대로62나길 20-32 1층,서울특별시 용산구 한강대로62나길 20-32,37.5338569396831,126.97540252766,음식점퓨전용산구실내목줄
맥파이 이태원점,음식점,피자,실내, ,목줄,02-749-2703,용산구,서울특별시 용산구 녹사평대로 244-1,서울특별시 용산구 녹사평대로 244-1,37.5394493642832,126.98746714482,음식점피자용산구실내목줄
로코스 비비큐 경리단길본점,음식점,퓨전,실내, ,목줄,02-794-3234,용산구,서울특별시 용산구 회나무로 83,서울특별시 용산구 회나무로 83,37.5409871411854,126.995540359983,음식점퓨전용산구실내목줄
소셜해이븐,음식점,퓨전,실내, ,목줄,010-7507-8229,용산구,서울특별시 용산구 신흥로 39,서울특별시 용산구 신흥로 39,37.5421022434963,126.987235189353,음식점퓨전용산구실내목줄
포티파이드,음식점,퓨전,실내, ,목줄,010-5925-4665,용산구,서울특별시 용산구 신흥로 9 1층,서울특별시 용산구 신흥로 9,37.53934960087,126.986445878433,음식점퓨전용산구실내목줄
하늘이네,음식점,한식,테라스, ,목줄,02-318-9933,용산구,서울특별시 용산구 신흥로 96,서울특별시 용산구 신흥로 96,37.5455132334851,126.984834519408,음식점한식용산구테라스목줄
GIL BAR DAK,음식점,퓨전,실내, ,목줄,011-9360-1113,용산구,서울특별시 용산구 소월로20길 26-18,서울특별시 용산구 소월로20길 26-18,37.54504555624,126.985081297785,음식점퓨전용산구실내목줄
서울앤쏘울,음식점,퓨전,실내, ,목줄,010-7705-3644,용산구,서울특별시 용산구 신흥로 97-5 1층,서울특별시 용산구 신흥로 97-5,37.5452279832902,126.984882442988,음식점퓨전용산구실내목줄
해방촌 신코,음식점,일식,실내, ,목줄,010-3439-3544,용산구,서울특별시 용산구 신흥로 99-1,서울특별시 용산구 신흥로 99-1,37.5450858914689,126.984849316478,음식점일식용산구실내목줄
성광대도,음식점,퓨전,실내, ,목줄,070-7720-1396,용산구,서울특별시 용산구 신흥로 63,서울특별시 용산구 신흥로 63,37.5438924246883,126.987098983911,음식점퓨전용산구실내목줄
팟카파우,음식점,퓨전,실내, ,안기,070-8880-2521,용산구,서울특별시 용산구 신흥로 97-6 신흥시장안 2층,서울특별시 용산구 신흥로 97-6,37.5451940137369,126.984867739327,음식점퓨전용산구실내안기
베제투스,음식점,퓨전,테라스, ,목줄,070-8824-5959,용산구,서울특별시 용산구 신흥로 59,서울특별시 용산구 신흥로 59,37.5437080982902,126.987265580732,음식점퓨전용산구테라스목줄
후암동싸이드,음식점,퓨전,실내, ,목줄,070-4139-9291,용산구,서울특별시 용산구 두텁바위로 67-1 1층,서울특별시 용산구 두텁바위로 67-1,37.5462301021302,126.979664686012,음식점퓨전용산구실내목줄
흐이,음식점,퓨전,실내, ,캐리어,02-319-3201,용산구,서울특별시 용산구 두텁바위로 71,서울특별시 용산구 두텁바위로 71,37.5462880194399,126.980094110615,음식점퓨전용산구실내캐리어
후암종점,음식점,퓨전,실내, ,목줄,010-8689-8857,용산구,서울특별시 용산구 두텁바위로 83 1층,서울특별시 용산구 두텁바위로 83,37.546879403161,126.980993465401,음식점퓨전용산구실내목줄
쭈꾸미도사 성수점,음식점,한식,실외, ,목줄,02-414-4991,성동구,서울특별시 성동구 아차산로 110 1층,서울특별시 성동구 아차산로 110,37.544187377233,127.056157450059,음식점한식성동구실외목줄
냐항,음식점,퓨전,실내, ,목줄,02-497-5279,성동구,서울특별시 성동구 연무장길 9-6 1층,서울특별시 성동구 연무장길 9-6,37.5439522083595,127.051012863932,음식점퓨전성동구실내목줄
피자시즌,음식점,피자,실내, ,목줄,02-466-6904,성동구,서울특별시 성동구 성수이로14길 14 성수연방 1층,서울특별시 성동구 성수이로14길 14,37.5414076146252,127.056908279292,음식점피자성동구실내목줄
굿갓레스토랑 성수역점,음식점,양식,루프탑, ,목줄,010-3748-2497,성동구,서울특별시 성동구 연무장길 41-22 2층 201호,서울특별시 성동구 연무장길 41-22,37.5433352104644,127.05423328844,음식점양식성동구루프탑목줄
봉쥬르,음식점,퓨전,실내, ,목줄,02-6082-7238,성동구,서울특별시 성동구 상원2길 7,서울특별시 성동구 상원2길 7,37.5459651756434,127.049638674662,음식점퓨전성동구실내목줄
정동진,음식점,한식,실외, ,목줄,010-3442-2079,성동구,서울특별시 성동구 한림말1길 15-2,서울특별시 성동구 한림말1길 15-2,37.5426973864701,127.016174357771,음식점한식성동구실외목줄
다락방,음식점,퓨전,실내, ,목줄,010-3342-8169,성동구,서울특별시 성동구 장터길 30-1,서울특별시 성동구 장터길 30-1,37.5482071647268,127.019256055354,음식점퓨전성동구실내목줄
브레라,음식점,양식,실내, ,목줄,02-2236-0770,중구,서울특별시 중구 동호로17길 295 대명빌딩 2층,서울특별시 중구 동호로17길 295,37.5483764768575,127.006943208627,음식점양식중구실내목줄
조옥당 약수본점,음식점,한식,테라스, ,목줄,02-2232-8282,중구,서울특별시 중구 동호로12길 39 1층,서울특별시 중구 동호로12길 39,37.5570070668676,127.011343488999,음식점한식중구테라스목줄
버거점프,음식점,햄버거,실외, ,목줄,02-464-5336,성동구,서울특별시 성동구 서울숲2길 32-14 A동 1층 103호,서울특별시 성동구 서울숲2길 32-14,37.5456773286722,127.042914714267,음식점햄버거성동구실외목줄
메시,음식점,일식,실내, ,목줄,02-461-1121,성동구,서울특별시 성동구 상원2길 3,서울특별시 성동구 상원2길 3,37.5460155615366,127.04937595267,음식점일식성동구실내목줄
타이인플레이트,음식점,퓨전,실외, ,목줄,02-2298-0984,성동구,서울특별시 성동구 사근동8길 3 우리빌딩,서울특별시 성동구 사근동8길 3,37.560615412359,127.047194851115,음식점퓨전성동구실외목줄
한우리,음식점,한식,실내, ,목줄,02-2296-0908,성동구,서울특별시 성동구 살곶이길 40 마장동우시장먹자골목,서울특별시 성동구 살곶이길 40,37.5712588467467,127.041265161909,음식점한식성동구실내목줄
73명품도야지,음식점,한식,실내, ,목줄,02-2282-1973,성동구,서울특별시 성동구 마장로 137 텐즈힐몰 1층 147호,서울특별시 성동구 마장로 137,37.5678250213491,127.025053595952,음식점한식성동구실내목줄
금남방,음식점,퓨전,실내, ,목줄,-,성동구,서울특별시 성동구 독서당로 285,서울특별시 성동구 독서당로 285,37.5478663350439,127.020744725563,음식점퓨전성동구실내목줄
삼맛호오떡 왕십리본점,음식점,퓨전,실내, ,목줄,02-2299-3396,성동구,서울특별시 성동구 무학봉16길 26 1층,서울특별시 성동구 무학봉16길 26,37.5597548691758,127.033166229761,음식점퓨전성동구실내목줄
재즈라운지,음식점,퓨전,실내, ,목줄,010-7940-2555,광진구,서울특별시 광진구 능동로19길 7-6,서울특별시 광진구 능동로19길 7-6,37.5467255757234,127.073121382082,음식점퓨전광진구실내목줄
시홍쓰,음식점,퓨전,실내, ,목줄,010-8680-4330,광진구,서울특별시 광진구 능동로17길 5 1층,서울특별시 광진구 능동로17길 5,37.546055025643,127.073018997047,음식점퓨전광진구실내목줄
반둥식당,음식점,퓨전,실내, ,목줄,02-2122-1288,광진구,서울특별시 광진구 아차산로 200 커먼그라운드 3층,서울특별시 광진구 아차산로 200,37.5410566332301,127.065669226745,음식점퓨전광진구실내목줄
도우피는남자,음식점,피자,실내, ,목줄,02-932-6924,광진구,서울특별시 광진구 광장로 66-1,서울특별시 광진구 광장로 66-1,37.5473457375283,127.104603398544,음식점피자광진구실내목줄
건대사시미,음식점,일식,실내, ,캐리어,02-465-3222,광진구,서울특별시 광진구 아차산로33길 23,서울특별시 광진구 아차산로33길 23,37.5413859356175,127.070232599521,음식점일식광진구실내캐리어
미주류,음식점,퓨전,실내, ,목줄,070-8285-4864,광진구,서울특별시 광진구 면목로 31 1층,서울특별시 광진구 면목로 31,37.5569568106573,127.076189609868,음식점퓨전광진구실내목줄
알고,음식점,양식,실내, ,목줄,02-3409-2645,광진구,서울특별시 광진구 광나루로17길 10,서울특별시 광진구 광나루로17길 10,37.5481167883366,127.072861336247,음식점양식광진구실내목줄
식당 사사로운,음식점,양식,실내, ,목줄,010-6216-1062,광진구,서울특별시 광진구 천호대로112길 48-4,서울특별시 광진구 천호대로112길 48-4,37.554235354391,127.080392292093,음식점양식광진구실내목줄
몽우,음식점,퓨전,실내, ,목줄,010-6559-5682,광진구,서울특별시 광진구 면목로7길 13 1층,서울특별시 광진구 면목로7길 13,37.559542413419,127.076866679367,음식점퓨전광진구실내목줄
깡통집,음식점,한식,실내, ,목줄,02-2243-4842,동대문구,서울특별시 동대문구 한천로 264,서울특별시 동대문구 한천로 264,37.5843095358408,127.068314251007,음식점한식동대문구실내목줄
총각회수산,음식점,퓨전,실내, ,목줄,02-960-2323,동대문구,서울특별시 동대문구 홍릉로1길 27,서울특별시 동대문구 홍릉로1길 27,37.5806050942104,127.043382278738,음식점퓨전동대문구실내목줄
청량회관,음식점,퓨전,실내, ,목줄,010-8556-1221,동대문구,서울특별시 동대문구 제기로36길 31 1층,서울특별시 동대문구 제기로36길 31,37.584738865901,127.048661753546,음식점퓨전동대문구실내목줄
장안쭈꾸미,음식점,한식,실내, ,목줄,02-3394-4955,동대문구,서울특별시 동대문구 천호대로85길 26-6 창성빌딩 1층,서울특별시 동대문구 천호대로85길 26-6,37.5627663381237,127.06699295434,음식점한식동대문구실내목줄
차포차,음식점,퓨전,실내, ,목줄,010-4590-5424,동대문구,서울특별시 동대문구 장한로 76 1층,서울특별시 동대문구 장한로 76,37.5675273127626,127.068989164005,음식점퓨전동대문구실내목줄
마코토키친,음식점,일식,실내, ,목줄,02-3394-5450,동대문구,서울특별시 동대문구 장한로31길 30 1층 2호,서울특별시 동대문구 장한로31길 30,37.5755299935205,127.07013933778,음식점일식동대문구실내목줄
착한초밥,음식점,일식,실내, ,목줄,02-957-1219,동대문구,서울특별시 동대문구 왕산로 272,서울특별시 동대문구 왕산로 272,37.584749821264,127.051094242834,음식점일식동대문구실내목줄
발리하이,음식점,퓨전,실내, ,목줄,02-929-8155,동대문구,서울특별시 동대문구 제기로2길 15,서울특별시 동대문구 제기로2길 15,37.5857790569503,127.033380661539,음식점퓨전동대문구실내목줄
TUC,음식점,퓨전,실내, ,목줄,010-9971-3298,동대문구,서울특별시 동대문구 정릉천동로 155,서울특별시 동대문구 정릉천동로 155,37.5860754040707,127.036684544932,음식점퓨전동대문구실내목줄
힘찬풍천장어,음식점,한식,실내, ,목줄,02-2231-9743,동대문구,서울특별시 동대문구 난계로 252,서울특별시 동대문구 난계로 252,37.5741009194382,127.02366773372,음식점한식동대문구실내목줄
방앗간,음식점,한식,실내, ,목줄,010-4304-5521,동대문구,서울특별시 동대문구 고산자로28길 73,서울특별시 동대문구 고산자로28길 73,37.5743715001593,127.042322035066,음식점한식동대문구실내목줄
용마쉼터,음식점,한식,"실내,실외", ,목줄,02-436-4171,중랑구,서울특별시 중랑구 용마산로112나길 69,서울특별시 중랑구 용마산로112나길 69,37.5958841124239,127.10246470507,"음식점한식중랑구실내,실외목줄"
홍자카야&스시,음식점,일식,실내, ,목줄,02-433-0179,중랑구,서울특별시 중랑구 동일로129길 35,서울특별시 중랑구 동일로129길 35,37.5992225724592,127.077505274598,음식점일식중랑구실내목줄
포차다락,음식점,퓨전,실내, ,목줄,010-4165-2314,중랑구,서울특별시 중랑구 면목로 336 2층,서울특별시 중랑구 면목로 336,37.5820122547194,127.088907165024,음식점퓨전중랑구실내목줄
숯불닭갈비에 반하닭,음식점,한식,실내, ,목줄,02-433-9294,중랑구,서울특별시 중랑구 면목로 352 1층,서울특별시 중랑구 면목로 352,37.583335754749,127.088626152995,음식점한식중랑구실내목줄
플렉스빌,음식점,퓨전,실내, ,목줄,010-9003-3103,동대문구,서울특별시 동대문구 회기로21길 6 지하,서울특별시 동대문구 회기로21길 6,37.591681058586,127.053153053639,음식점퓨전동대문구실내목줄
언니네함바그 회기점,음식점,양식,실내, ,목줄,02-966-0110,동대문구,서울특별시 동대문구 회기로25길 59 1층,서울특별시 동대문구 회기로25길 59,37.5924206289819,127.056752233601,음식점양식동대문구실내목줄
인생소곱창 회기본점,음식점,한식,테라스, ,목줄,02-3295-3332,동대문구,서울특별시 동대문구 회기로21길 9 1층,서울특별시 동대문구 회기로21길 9,37.5919115759197,127.053056180724,음식점한식동대문구테라스목줄
dips,음식점,피자,실내, ,목줄,02-943-2782,성북구,서울특별시 성북구 종암로 167 1층 103호,서울특별시 성북구 종암로 167,37.6050587642973,127.030990445726,음식점피자성북구실내목줄
빌라드코스테스,음식점,양식,실내, ,"목줄,매너벨트",02-6956-5532,성북구,서울특별시 성북구 화랑로5길 4,서울특별시 성북구 화랑로5길 4,37.6027130545389,127.039119325234,"음식점양식성북구실내목줄,매너벨트"
와바탭하우스 메죵두피아노정릉점,음식점,퓨전,실내, ,목줄,070-8950-2580,성북구,"서울특별시 성북구 솔샘로 11 1F, 2F",서울특별시 성북구 솔샘로 11,37.6087097695728,127.004608985349,음식점퓨전성북구실내목줄
6일닭강정,음식점,한식,실내, ,목줄,02-747-1361,종로구,서울특별시 종로구 지봉로 96,서울특별시 종로구 지봉로 96,37.5784756006582,127.015581184739,음식점한식종로구실내목줄
오토 성북직영점,음식점,한식, , ,없음,02-926-0111,성북구,서울특별시 성북구 북악산로 855 1층,서울특별시 성북구 북악산로 855,37.59891252892,127.019339776667,음식점한식성북구 없음
반듯한잔,음식점,한식,실내, ,목줄,02-942-5577,성북구,서울특별시 성북구 동소문로22길 80,서울특별시 성북구 동소문로22길 80,37.5896514128417,127.018798768159,음식점한식성북구실내목줄
률,음식점,퓨전,실내, ,목줄,010-4930-5845,종로구,서울특별시 종로구 북촌로5길 45 2층,서울특별시 종로구 북촌로5길 45,37.5793879302799,126.982376437453,음식점퓨전종로구실내목줄
째즈스토리,음식점,퓨전,실내, ,목줄,02-747-6537,성북구,서울특별시 성북구 혜화로 88,서울특별시 성북구 혜화로 88,37.5927509576099,126.998194890127,음식점퓨전성북구실내목줄
문화식당 성북동점,음식점,양식,실내, ,목줄,02-763-4644,성북구,서울특별시 성북구 혜화로 88 2층,서울특별시 성북구 혜화로 88,37.5927509576099,126.998194890127,음식점양식성북구실내목줄
문화식당 성수동점,음식점,퓨전,실내, ,목줄,02-465-9007,성동구,서울특별시 성동구 성수일로4길 45 2층,서울특별시 성동구 성수일로4길 45,37.5423144759191,127.053822480804,음식점퓨전성동구실내목줄
샘터가든,음식점,한식,실내, ,목줄,02-908-4242,강북구,서울특별시 강북구 삼양로179길 121,서울특별시 강북구 삼양로179길 121,37.6679348196087,127.006958071657,음식점한식강북구실내목줄
갈비냉면,음식점,한식,실외, ,목줄,02-928-5344,강북구,서울특별시 강북구 삼양로 541,서울특별시 강북구 삼양로 541,37.6511386967387,127.012643049013,음식점한식강북구실외목줄
북한산 고기농장,음식점,한식,실외, ,목줄,02-990-9365,강북구,서울특별시 강북구 삼양로173길 102,서울특별시 강북구 삼양로173길 102,37.6613056519403,127.007293374461,음식점한식강북구실외목줄
소귀골백운산장,음식점,한식,실내, ,목줄,02-906-8833,강북구,서울특별시 강북구 삼양로181길 206,서울특별시 강북구 삼양로181길 206,37.6719786416586,127.006184608093,음식점한식강북구실내목줄
산이야,음식점,한식,실외, ,목줄,02-900-7557,강북구,서울특별시 강북구 삼양로181길 201-8,서울특별시 강북구 삼양로181길 201-8,37.6718078438145,127.00562679936,음식점한식강북구실외목줄
시골쌈밥,음식점,한식,실외, ,목줄,02-996-1487,강북구,서울특별시 강북구 삼양로173길 21-8,서울특별시 강북구 삼양로173길 21-8,37.6622976050385,127.011109473639,음식점한식강북구실외목줄
동원식당,음식점,한식,실내, ,목줄,02-991-2071,강북구,서울특별시 강북구 도봉로 387 2층,서울특별시 강북구 도봉로 387,37.6415059261581,127.028957387424,음식점한식강북구실내목줄
미아회관,음식점,한식,실외, ,목줄,010-9085-2732,강북구,서울특별시 강북구 도봉로10가길 15 1층,서울특별시 강북구 도봉로10가길 15,37.6130064740091,127.031361727002,음식점한식강북구실외목줄
도봉산해물짬뽕,음식점,중식,실외, ,목줄,02-956-3000,도봉구,서울특별시 도봉구 도봉산4나길 43,서울특별시 도봉구 도봉산4나길 43,37.6888319871843,127.044641471529,음식점중식도봉구실외목줄
호감 감자튀김전문점 Pub,음식점,퓨전,실내, ,목줄,010-4510-1486,도봉구,서울특별시 도봉구 도봉로152길 27 1층,서울특별시 도봉구 도봉로152길 27,37.6695059206659,127.045310084046,음식점퓨전도봉구실내목줄
소통애 창동점,음식점,한식,"실내,실외", ,목줄,010-3724-5170,도봉구,서울특별시 도봉구 도봉로136가길 73 북한산한신휴플러스아파트상가104동104호,서울특별시 도봉구 도봉로136가길 73,37.6556525588698,127.042804882242,"음식점한식도봉구실내,실외목줄"
짝태앤노가리 방학동점,음식점,퓨전,실내, ,목줄,010-7680-0760,도봉구,서울특별시 도봉구 도봉로145길 65 동부센트레빌 상가 102호,서울특별시 도봉구 도봉로145길 65,37.6645353361782,127.038902628504,음식점퓨전도봉구실내목줄
땡불초닭발,음식점,한식,실내, ,목줄,02-977-4447,노원구,서울특별시 노원구 공릉로42길 4,서울특별시 노원구 공릉로42길 4,37.6242817014758,127.079910907771,음식점한식노원구실내목줄
페리도트,음식점,퓨전,실내, ,"캐리어,안기",010-7763-7661,은평구,서울특별시 은평구 응암로11길 6 1층,서울특별시 은평구 응암로11길 6,37.5884785185763,126.916166833221,"음식점퓨전은평구실내캐리어,안기"
좋앗나빙수,음식점,퓨전,실내, ,"캐리어,안기",02-350-9932,은평구,서울특별시 은평구 불광로 20 NC백화점 불광점 9층,서울특별시 은평구 불광로 20,37.6097357749976,126.928938477038,"음식점퓨전은평구실내캐리어,안기"
달빛포차,음식점,퓨전,실내, ,목줄,010-2239-2379,은평구,서울특별시 은평구 연서로29길 21-4,서울특별시 은평구 연서로29길 21-4,37.6191646582323,126.917763362654,음식점퓨전은평구실내목줄
초램 양고기 갈현점,음식점,퓨전,실내, ,목줄,02-385-9989,은평구,서울특별시 은평구 통일로85길 8,서울특별시 은평구 통일로85길 8,37.6222656867977,126.918818837255,음식점퓨전은평구실내목줄
반상 & 술상,음식점,한식,테라스, ,목줄,02-356-8399,은평구,서울특별시 은평구 연서로29길 8-9 2층,서울특별시 은평구 연서로29길 8-9,37.6191839533513,126.919482098417,음식점한식은평구테라스목줄
머스트,음식점,퓨전,실내, ,목줄,02-386-7779,은평구,서울특별시 은평구 연서로29길 17-4 훈빌딩,서울특별시 은평구 연서로29길 17-4,37.6189893908414,126.91824563101,음식점퓨전은평구실내목줄
코스믹버거랩,음식점,햄버거,실내, ,목줄,02-6402-5050,은평구,서울특별시 은평구 통일로85길 6 1층,서울특별시 은평구 통일로85길 6,37.6222304482775,126.919066720164,음식점햄버거은평구실내목줄
32년 전통 시골막국수,음식점,한식,실내, ,목줄,010-3695-8315,은평구,서울특별시 은평구 진흥로19길 2-8,서울특별시 은평구 진흥로19길 2-8,37.6111528251376,126.941898679706,음식점한식은평구실내목줄
복래찬합,음식점,한식,실내, ,목줄,02-354-2005,서대문구,서울특별시 서대문구 통일로 497 1층,서울특별시 서대문구 통일로 497,37.5922608725883,126.940840864192,음식점한식서대문구실내목줄
대성씨,음식점,퓨전,실내, ,목줄,010-9279-5592,서대문구,서울특별시 서대문구 세검정로 47 1층,서울특별시 서대문구 세검정로 47,37.5924786899343,126.946411238491,음식점퓨전서대문구실내목줄
묘한술책,음식점,양식,실내, ,목줄,02-326-0845,서대문구,서울특별시 서대문구 연희맛로 17-18,서울특별시 서대문구 연희맛로 17-18,37.5673852327796,126.928896664947,음식점양식서대문구실내목줄
황씨네,음식점,퓨전,실내, ,목줄,02-323-8253,서대문구,서울특별시 서대문구 홍제천로 116 1층,서울특별시 서대문구 홍제천로 116,37.5751406092104,126.926931783172,음식점퓨전서대문구실내목줄
윈야드,음식점,양식,실내, ,목줄,02-332-8929,서대문구,"서울특별시 서대문구 연희로11다길 9 1, 2층",서울특별시 서대문구 연희로11다길 9,37.5670689633717,126.927677220257,음식점양식서대문구실내목줄
연희단팥죽,음식점,한식,실내, ,목줄,02-6082-2086,서대문구,서울특별시 서대문구 연희로11가길 8-5,서울특별시 서대문구 연희로11가길 8-5,37.5679086137329,126.928884395459,음식점한식서대문구실내목줄
마우디,음식점,양식,실내, ,목줄,02-332-3933,서대문구,서울특별시 서대문구 연희로11길 18,서울특별시 서대문구 연희로11길 18,37.5674892239125,126.930131146368,음식점양식서대문구실내목줄
에어플레인모드,음식점,퓨전,실내, ,목줄,010-9185-6553,서대문구,서울특별시 서대문구 연세로4길 36 2층,서울특별시 서대문구 연세로4길 36,37.5577053629143,126.938669396077,음식점퓨전서대문구실내목줄
타코로코,음식점,퓨전,실내, ,"목줄,입마개",02-333-6469,서대문구,서울특별시 서대문구 연세로7안길 37 1층,서울특별시 서대문구 연세로7안길 37,37.5581149518837,126.93463111797,"음식점퓨전서대문구실내목줄,입마개"
지니네컵밥,음식점,한식,실외, ,목줄,010-9073-8440,서대문구,서울특별시 서대문구 신촌역로 22-5,서울특별시 서대문구 신촌역로 22-5,37.5589063282429,126.943038576035,음식점한식서대문구실외목줄
소버바이데일리샷,음식점,퓨전,실외, ,목줄,010-6270-2697,서대문구,서울특별시 서대문구 신촌역로 22 2층 41,서울특별시 서대문구 신촌역로 22,37.5585525829582,126.943009871743,음식점퓨전서대문구실외목줄
레몬그라스,음식점,퓨전,실내,주중 11:30 ~ 21:00 / 주말 12:00 ~21:30 / break time 15:00 ~ 17:00,"목줄,캐리어",010-4459-7022,성동구,서울특별시 성동구 연무장길 41-26 1층,서울특별시 성동구 연무장길 41-26,37.5434192555875,127.054272727317,"음식점퓨전성동구실내목줄,캐리어"
코쿤캅,음식점,퓨전,실외, ,목줄,010-2298-2834,서대문구,서울특별시 서대문구 신촌역로 22-5,서울특별시 서대문구 신촌역로 22-5,37.5589063282429,126.943038576035,음식점퓨전서대문구실외목줄
이모네,음식점,면요리,실외, ,목줄,010-8776-6317,서대문구,서울특별시 서대문구 신촌역로 22-5,서울특별시 서대문구 신촌역로 22-5,37.5589063282429,126.943038576035,음식점면요리서대문구실외목줄
까미네 닭강정,음식점,한식,실외, ,목줄,010-9162-1487,서대문구,서울특별시 서대문구 신촌역로 22-5 신촌박스퀘어 1층 19호,서울특별시 서대문구 신촌역로 22-5,37.5589063282429,126.943038576035,음식점한식서대문구실외목줄
낮과밤,음식점,퓨전,실내, ,목줄,010-8862-1697,서대문구,서울특별시 서대문구 이화여대길 52-35,서울특별시 서대문구 이화여대길 52-35,37.5594662219774,126.944968311694,음식점퓨전서대문구실내목줄
정선할매곤드레밥,음식점,한식,실내, ,목줄,02-736-1237,종로구,서울특별시 종로구 사직로8길 5-13,서울특별시 종로구 사직로8길 5-13,37.5757252570328,126.969734107697,음식점한식종로구실내목줄
몰림,음식점,퓨전,실내, ,목줄,010-4121-0999,종로구,서울특별시 종로구 사직로10길 5,서울특별시 종로구 사직로10길 5,37.5756712082542,126.970488860338,음식점퓨전종로구실내목줄
취천루,음식점,중식,실내, ,목줄,02-6221-8249,종로구,서울특별시 종로구 자하문로7길 9,서울특별시 종로구 자하문로7길 9,37.5782670173888,126.971032252591,음식점중식종로구실내목줄
MANRI199,음식점,퓨전,실내, ,목줄,02-363-0199,중구,서울특별시 중구 만리재로 199 1층,서울특별시 중구 만리재로 199,37.5554654645357,126.967711859667,음식점퓨전중구실내목줄
십일,음식점,일식,실내, ,목줄,010-9789-6886,서대문구,서울특별시 서대문구 증가로30길 29-5,서울특별시 서대문구 증가로30길 29-5,37.5841229047043,126.913127773019,음식점일식서대문구실내목줄
본태스시,음식점,일식,실내, ,목줄,070-8244-1015,마포구,서울특별시 마포구 성암로3길 8 1층,서울특별시 마포구 성암로3길 8,37.5692473580294,126.911252219333,음식점일식마포구실내목줄
잇다프로젝트,음식점,양식,실내, ,목줄,010-9844-6718,마포구,서울특별시 마포구 성미산로31길 14,서울특별시 마포구 성미산로31길 14,37.5644623885537,126.925656523098,음식점양식마포구실내목줄
이자카야라쿤,음식점,퓨전,실내, ,캐리어,02-336-0849,마포구,서울특별시 마포구 성미산로29안길 29,서울특별시 마포구 성미산로29안길 29,37.5657222278679,126.92350434288,음식점퓨전마포구실내캐리어
하이하우스,음식점,퓨전,실내, ,목줄,02-6014-7638,마포구,서울특별시 마포구 성미산로 161-10 2층,서울특별시 마포구 성미산로 161-10,37.5652518775454,126.923875401887,음식점퓨전마포구실내목줄
리틀파파포 연남점,음식점,퓨전,테라스, ,목줄,02-336-5678,마포구,서울특별시 마포구 동교로38안길 5,서울특별시 마포구 동교로38안길 5,37.5621091724218,126.924670770299,음식점퓨전마포구테라스목줄
수부니흐,음식점,양식,실내, ,목줄,02-335-7472,마포구,서울특별시 마포구 동교로38길 35,서울특별시 마포구 동교로38길 35,37.5613569326774,126.92581263134,음식점양식마포구실내목줄
SAAP 연남,음식점,퓨전,실내, ,목줄,02-6339-5609,마포구,서울특별시 마포구 성미산로 184 1층,서울특별시 마포구 성미산로 184,37.5632142649184,126.925841689141,음식점퓨전마포구실내목줄
연주방,음식점,퓨전,실내, ,목줄,010-4346-4026,마포구,서울특별시 마포구 동교로46길 7,서울특별시 마포구 동교로46길 7,37.5627163457846,126.925367374427,음식점퓨전마포구실내목줄
주방,음식점,퓨전,실내, ,목줄,02-6406-2019,마포구,서울특별시 마포구 월드컵로19길 42 3층,서울특별시 마포구 월드컵로19길 42,37.5556847847376,126.907654104382,음식점퓨전마포구실내목줄
딥,음식점,양식,실내, ,목줄,010-8633-5443,마포구,서울특별시 마포구 월드컵로19길 51,서울특별시 마포구 월드컵로19길 51,37.5551865787201,126.907597114139,음식점양식마포구실내목줄
단,음식점,퓨전,실내, ,목줄,010-9552-4149,마포구,서울특별시 마포구 망원로2길 87,서울특별시 마포구 망원로2길 87,37.5536166042315,126.903778980631,음식점퓨전마포구실내목줄
내고기,음식점,한식,실내, ,목줄,02-323-3280,마포구,서울특별시 마포구 월드컵로25길 99,서울특별시 마포구 월드컵로25길 99,37.5572721236542,126.902343961111,음식점한식마포구실내목줄
포썸,음식점,퓨전,실내, ,목줄,070-4413-0915,마포구,서울특별시 마포구 희우정로 80-1 마포한강아이파크 상가동 106호,서울특별시 마포구 희우정로 80-1,37.5531080507063,126.903741609415,음식점퓨전마포구실내목줄
T P B,음식점,피자,실내, ,목줄,02-322-3131,마포구,서울특별시 마포구 토정로3안길 2 201호,서울특별시 마포구 토정로3안길 2,37.5459359508152,126.91430030084,음식점피자마포구실내목줄
익순,음식점,퓨전,실내, ,목줄,010-3125-9260,마포구,서울특별시 마포구 양화진길 5,서울특별시 마포구 양화진길 5,37.5482111497934,126.913186328313,음식점퓨전마포구실내목줄
달리,음식점,퓨전,실내, ,목줄,02-6401-4123,마포구,서울특별시 마포구 양화로6길 86 2층,서울특별시 마포구 양화로6길 86,37.5482677203435,126.918870639977,음식점퓨전마포구실내목줄
블랑누아,음식점,퓨전,테라스, ,목줄,02-332-6841,마포구,서울특별시 마포구 연희로1길 15,서울특별시 마포구 연희로1길 15,37.5596602534091,126.925649637142,음식점퓨전마포구테라스목줄
파이리퍼블릭,음식점,양식,실내, ,목줄,02-6083-1967,마포구,서울특별시 마포구 양화로23길 10-10 지하 1층,서울특별시 마포구 양화로23길 10-10,37.5593056974052,126.925770977983,음식점양식마포구실내목줄
osteria ora,음식점,양식,실내, ,목줄,010-9163-0415,마포구,서울특별시 마포구 잔다리로 105 1층,서울특별시 마포구 잔다리로 105,37.5563774915325,126.914375602192,음식점양식마포구실내목줄
안티플랜,음식점,퓨전,실내, ,"목줄,매너벨트",010-8708-2722,마포구,서울특별시 마포구 어울마당로2길 13 2층,서울특별시 마포구 어울마당로2길 13,37.5462771915754,126.919996810214,"음식점퓨전마포구실내목줄,매너벨트"
비볼리,음식점,양식,실내, ,목줄,02-3144-6887,마포구,서울특별시 마포구 독막로 31-3,서울특별시 마포구 독막로 31-3,37.5485286651181,126.916949077994,음식점양식마포구실내목줄
고수포차,음식점,퓨전,"실내,테라스", ,목줄,010-8881-3223,마포구,서울특별시 마포구 독막로 76-1 102호,서울특별시 마포구 독막로 76-1,37.5475614039574,126.921909336617,"음식점퓨전마포구실내,테라스목줄"
고고갈비 홍대상수점,음식점,한식,실내, ,목줄,02-6219-9090,마포구,서울특별시 마포구 독막로 77 1층,서울특별시 마포구 독막로 77,37.5479415845899,126.922120439755,음식점한식마포구실내목줄
경양카츠 상수점,음식점,퓨전,실내, ,목줄,02-337-4388,마포구,서울특별시 마포구 와우산로 25,서울특별시 마포구 와우산로 25,37.5467911309246,126.92271697269,음식점퓨전마포구실내목줄
미쁘동,음식점,일식,실내, ,목줄,070-4242-1881,마포구,서울특별시 마포구 동교로38길 33-21 2층,서울특별시 마포구 동교로38길 33-21,37.5621018423944,126.926189359347,음식점일식마포구실내목줄
저스트텐동 연남점,음식점,일식,실내, ,캐리어,02-324-7778,마포구,서울특별시 마포구 동교로46길 3,서울특별시 마포구 동교로46길 3,37.5628146590498,126.925247979915,음식점일식마포구실내캐리어
그놈의집구석,음식점,퓨전,실내, ,목줄,010-5676-7114,마포구,서울특별시 마포구 와우산로 150-2 2층,서울특별시 마포구 와우산로 150-2,37.5543985372498,126.929951203993,음식점퓨전마포구실내목줄
드렁큰비건,음식점,퓨전,"실내,테라스", ,목줄,070-7543-8101,마포구,서울특별시 마포구 와우산로30길 13 1층,서울특별시 마포구 와우산로30길 13,37.5541625691178,126.929956517571,"음식점퓨전마포구실내,테라스목줄"
23플래터,음식점,양식,실내, ,목줄,010-2333-5417,마포구,서울특별시 마포구 잔다리로3안길 36 1층,서울특별시 마포구 잔다리로3안길 36,37.5504731080927,126.919417556433,음식점양식마포구실내목줄
난봉꾼조개찜 홍대점,음식점,한식,실내, ,목줄,02-323-8882,마포구,서울특별시 마포구 잔다리로 20-11,서울특별시 마포구 잔다리로 20-11,37.551310567429,126.920721358012,음식점한식마포구실내목줄
온블랙94,음식점,양식,"실내,루프탑", ,목줄,010-8345-7890,마포구,서울특별시 마포구 와우산로 39-14,서울특별시 마포구 와우산로 39-14,37.5482787310534,126.922383191782,"음식점양식마포구실내,루프탑목줄"
주무대,음식점,한식,실내, ,목줄,02-3141-1217,마포구,서울특별시 마포구 와우산로3길 32,서울특별시 마포구 와우산로3길 32,37.5459467147832,126.921217130207,음식점한식마포구실내목줄
빅타이니,음식점,퓨전,실내, ,목줄,070-8776-6520,마포구,서울특별시 마포구 서강로11길 36-35 1층,서울특별시 마포구 서강로11길 36-35,37.5543147529086,126.9316567788,음식점퓨전마포구실내목줄
하카타분코,음식점,면요리,실내, ,목줄,02-338-5536,마포구,서울특별시 마포구 독막로19길 43,서울특별시 마포구 독막로19길 43,37.5489170939315,126.92377466672,음식점면요리마포구실내목줄
푸른달,음식점,퓨전,실내, ,목줄,010-7318-2227,마포구,서울특별시 마포구 신촌로12다길 6,서울특별시 마포구 신촌로12다길 6,37.5549749714097,126.932856371551,음식점퓨전마포구실내목줄
올터쭈꾸미,음식점,한식,실내, ,목줄,02-3142-1135,마포구,서울특별시 마포구 신촌로14길 29,서울특별시 마포구 신촌로14길 29,37.5547357012565,126.933395059849,음식점한식마포구실내목줄
도화동지니,음식점,퓨전,테라스, ,목줄,02-701-9221,마포구,서울특별시 마포구 삼개로 15-8,서울특별시 마포구 삼개로 15-8,37.5389756039845,126.947903283195,음식점퓨전마포구테라스목줄
소문난집,음식점,한식,실내, ,목줄,02-336-1922,서대문구,서울특별시 서대문구 연세로7길 38 1층,서울특별시 서대문구 연세로7길 38,37.5579288349811,126.934846769743,음식점한식서대문구실내목줄
마포분식,음식점,분식,실내, ,목줄,010-5263-1014,마포구,서울특별시 마포구 굴레방로9길 41 1층,서울특별시 마포구 굴레방로9길 41,37.5566765695453,126.953374754098,음식점분식마포구실내목줄
막걸리싸롱 마곡나루점,음식점,한식,실외, ,목줄,010-8121-3370,강서구,서울특별시 강서구 마곡서로 152 두산더랜드타워 A동 1층 111호,서울특별시 강서구 마곡서로 152,37.5676859104888,126.82597944995,음식점한식강서구실외목줄
육회먹은연어,음식점,한식,실내, ,목줄,02-3665-3560,강서구,서울특별시 강서구 마곡중앙6로 45,서울특별시 강서구 마곡중앙6로 45,37.5606312206415,126.832720625607,음식점한식강서구실내목줄
조개깡패연구소 발산역점,음식점,한식,실내, ,목줄,02-6213-8900,강서구,서울특별시 강서구 공항대로 269-15 힐스테이트 에코 마곡,서울특별시 강서구 공항대로 269-15,37.5596113961056,126.837242277605,음식점한식강서구실내목줄
클럽미식생활,음식점,퓨전,실내, ,목줄,070-7677-1730,강서구,서울특별시 강서구 공항대로 220 우성에스비타워2차 4층 401호,서울특별시 강서구 공항대로 220,37.5587038045971,126.831765636495,음식점퓨전강서구실내목줄
이태리숲,음식점,양식,테라스, ,목줄,02-3661-1461,강서구,서울특별시 강서구 마곡중앙6로 45 리더스퀘어마곡 A동 104호,서울특별시 강서구 마곡중앙6로 45,37.5606312206415,126.832720625607,음식점양식강서구테라스목줄
오남매닭갈비,음식점,한식,실내, ,캐리어,010-8100-3400,강서구,서울특별시 강서구 마곡중앙5로 6 1층 134호,서울특별시 강서구 마곡중앙5로 6,37.5673140391214,126.827554917518,음식점한식강서구실내캐리어
올바른장어,음식점,한식,실내, ,목줄,02-2063-3530,강서구,서울특별시 강서구 공항대로 291 1층 114호,서울특별시 강서구 공항대로 291,37.5588203160036,126.840006908063,음식점한식강서구실내목줄
보드람치킨 독산한신점,음식점,퓨전,실외, ,목줄,02-898-3701,금천구,서울특별시 금천구 한내로 62 독산한신상가 1층,서울특별시 금천구 한내로 62,37.4553907327009,126.888877845611,음식점퓨전금천구실외목줄
텐마루,음식점,퓨전,실내, ,목줄,02-857-0199,금천구,서울특별시 금천구 디지털로12길 21 2층,서울특별시 금천구 디지털로12길 21,37.4777408798821,126.889876396125,음식점퓨전금천구실내목줄
평일주점,음식점,퓨전,실내, ,목줄,1800-2845,금천구,서울특별시 금천구 벚꽃로38길 32-39,서울특별시 금천구 벚꽃로38길 32-39,37.4826829500908,126.885090403065,음식점퓨전금천구실내목줄
로스트피그,음식점,한식,실내, ,목줄,02-332-9279,마포구,서울특별시 마포구 동교로9길 57 1층,서울특별시 마포구 동교로9길 57,37.5560989524232,126.909020059875,음식점한식마포구실내목줄
문화식당,음식점,퓨전,"실내,루프탑",매일 11:30 - 21:00,목줄,02-763-4644,성북구,서울특별시 성북구 혜화로 88,서울특별시 성북구 혜화로 88,37.5927509576099,126.998194890127,"음식점퓨전성북구실내,루프탑목줄"
묘한식탁,음식점,양식,실내, ,목줄,02-6405-6966,마포구,서울특별시 마포구 포은로2나길 44 1층,서울특별시 마포구 포은로2나길 44,37.5504517603956,126.909712822276,음식점양식마포구실내목줄
와이키키마켓,음식점,한식,실외, ,목줄,02-854-8000,마포구,서울특별시 마포구 마포나루길 332,서울특별시 마포구 마포나루길 332,37.558896043136,126.888660482013,음식점한식마포구실외목줄
셰발레리,음식점,양식,실내, ,목줄,02-6013-0269,마포구,서울특별시 마포구 포은로 52,서울특별시 마포구 포은로 52,37.5520664656685,126.906961792317,음식점양식마포구실내목줄
페리도트,음식점,양식,실내, ,목줄,02-322-4303,마포구,서울특별시 마포구 포은로 106-1 1층,서울특별시 마포구 포은로 106-1,37.5565583940086,126.904820595606,음식점양식마포구실내목줄
공작,음식점,퓨전,실내, ,목줄,0507-1422-0227,마포구,서울특별시 마포구 희우정로12길 23,서울특별시 마포구 희우정로12길 23,37.5538931584774,126.904269221211,음식점퓨전마포구실내목줄
어라운드 그린,음식점,한식,실내, ,목줄,02-6080-9797,마포구,서울특별시 마포구 망원로 79 3층,서울특별시 마포구 망원로 79,37.5576361698999,126.905610216206,음식점한식마포구실내목줄
AN'CHILL,음식점,퓨전,실내, ,목줄,02-2671-7089,영등포구,서울특별시 영등포구 선유로53길 24 선유코어빌딩 1F,서울특별시 영등포구 선유로53길 24,37.5380083995307,126.895994050129,음식점퓨전영등포구실내목줄
레드인,음식점,퓨전,실내, ,목줄,070-7757-7276,영등포구,서울특별시 영등포구 선유동2로 73 3층,서울특별시 영등포구 선유동2로 73,37.5351198626312,126.89845517932,음식점퓨전영등포구실내목줄
비스트로406,음식점,양식,실내, ,목줄,02-2644-9406,양천구,서울특별시 양천구 목동동로 226,서울특별시 양천구 목동동로 226,37.5257155026408,126.87196251651,음식점양식양천구실내목줄
크레이지토마토 문래창작촌점,음식점,피자,실내, ,목줄,02-2631-0308,영등포구,서울특별시 영등포구 도림로128가길 9,서울특별시 영등포구 도림로128가길 9,37.5147877840694,126.89661027974,음식점피자영등포구실내목줄
하코야 문래역점,음식점,일식,실내, ,목줄,02-2677-5399,영등포구,서울특별시 영등포구 당산로 34,서울특별시 영등포구 당산로 34,37.5174631210953,126.896493699106,음식점일식영등포구실내목줄
아씨펍크래프트,음식점,피자,실내, ,목줄,010-3362-6800,구로구,서울특별시 구로구 새말로 102 신도림포스빌 147호,서울특별시 구로구 새말로 102,37.5057800099527,126.891405479352,음식점피자구로구실내목줄
디펍문래,음식점,퓨전,실내, ,목줄,070-7717-5551,영등포구,서울특별시 영등포구 도림로 433-2 1층,서울특별시 영등포구 도림로 433-2,37.5141744589903,126.894457380094,음식점퓨전영등포구실내목줄
아리수만찬,음식점,한식,실내, ,캐리어,02-2632-2100,영등포구,서울특별시 영등포구 노들로 111 양화선착장,서울특별시 영등포구 노들로 111,37.5453406558271,126.893682343228,음식점한식영등포구실내캐리어
피맥하우스 당산동3가점,음식점,피자,실내, ,목줄,02-6013-6702,영등포구,서울특별시 영등포구 당산로30길 5 1층,서울특별시 영등포구 당산로30길 5,37.5256680266244,126.897338858482,음식점피자영등포구실내목줄
대구반야월막창 영등포구청점,음식점,한식,실외, ,목줄,010-3723-7839,영등포구,서울특별시 영등포구 국회대로36길 10,서울특별시 영등포구 국회대로36길 10,37.5265335761288,126.897913049587,음식점한식영등포구실외목줄
브루스카,음식점,퓨전,실내, ,목줄,010-9292-4754,영등포구,서울특별시 영등포구 경인로79길 9 2층,서울특별시 영등포구 경인로79길 9,37.5129394438174,126.894346010124,음식점퓨전영등포구실내목줄
작은술집원지,음식점,퓨전,실내, ,목줄,010-4964-7511,영등포구,서울특별시 영등포구 국회대로34길 5-1 101호,서울특별시 영등포구 국회대로34길 5-1,37.5270528293232,126.897711648647,음식점퓨전영등포구실내목줄
무정형,음식점,퓨전,실내, ,목줄,010-5096-4430,영등포구,서울특별시 영등포구 도림로143길 2,서울특별시 영등포구 도림로143길 2,37.5156548084642,126.891573510647,음식점퓨전영등포구실내목줄
찰랑,음식점,퓨전,실내, ,캐리어,010-8922-0302,영등포구,서울특별시 영등포구 도림로 436-3,서울특별시 영등포구 도림로 436-3,37.5147042737485,126.894686929523,음식점퓨전영등포구실내캐리어
로컬비어,음식점,퓨전,실내, ,목줄,010-3200-0829,영등포구,서울특별시 영등포구 영등포로 103 105,서울특별시 영등포구 영등포로 103,37.5220662013046,126.893196256907,음식점퓨전영등포구실내목줄
블랑,음식점,퓨전,실내, ,목줄,010-9150-1753,영등포구,서울특별시 영등포구 양산로23길 6,서울특별시 영등포구 양산로23길 6,37.5243934443461,126.897621497859,음식점퓨전영등포구실내목줄
쏘맥의달인,음식점,퓨전,실내, ,목줄,02-599-9479,동작구,서울특별시 동작구 동작대로27길 16-6,서울특별시 동작구 동작대로27길 16-6,37.4878047826919,126.981192409313,음식점퓨전동작구실내목줄
돈페페,음식점,퓨전,실내, ,목줄,010-8882-8246,동작구,서울특별시 동작구 사당로30길 123-1,서울특별시 동작구 사당로30길 123-1,37.479415163611,126.980834420573,음식점퓨전동작구실내목줄
청춘식당,음식점,한식,실내, ,목줄,02-812-8884,동작구,서울특별시 동작구 서달로13길 11-13 1층,서울특별시 동작구 서달로13길 11-13,37.5078957549215,126.961690136845,음식점한식동작구실내목줄
맥피스,음식점,퓨전,실내, ,목줄,02-6406-6456,동작구,서울특별시 동작구 서달로14길 38,서울특별시 동작구 서달로14길 38,37.5073272169309,126.964865728635,음식점퓨전동작구실내목줄
바야흐로,음식점,퓨전,실내, ,목줄,070-7755-2889,동작구,서울특별시 동작구 현충로 102,서울특별시 동작구 현충로 102,37.5075630796874,126.964797418175,음식점퓨전동작구실내목줄
반할,음식점,퓨전,실내, ,목줄,010-3244-8338,동작구,서울특별시 동작구 서달로14다길 13 1층,서울특별시 동작구 서달로14다길 13,37.5071713754588,126.963779698214,음식점퓨전동작구실내목줄
피맥하우스 상도1동점,음식점,피자,실내, ,목줄,02-6439-1333,동작구,서울특별시 동작구 양녕로 265-1,서울특별시 동작구 양녕로 265-1,37.5038301252504,126.948372631067,음식점피자동작구실내목줄
엉터리생고기 숭실대점,음식점,한식,실내, ,목줄,02-815-5113,동작구,서울특별시 동작구 상도로37길 66,서울특별시 동작구 상도로37길 66,37.4984800075694,126.952363999617,음식점한식동작구실내목줄
서울통닭&닭발,음식점,한식,실내, ,목줄,02-816-5891,동작구,서울특별시 동작구 만양로 89 1층,서울특별시 동작구 만양로 89,37.511399036386,126.944253158202,음식점한식동작구실내목줄
숯총각꼼장어닭발,음식점,한식,실내, ,목줄,010-3228-1566,관악구,서울특별시 관악구 신림로67길 28,서울특별시 관악구 신림로67길 28,37.485932463109,126.927793385814,음식점한식관악구실내목줄
낮부엉이,음식점,분식,실내, ,목줄,070-8845-4133,관악구,서울특별시 관악구 신림로65길 41 1층,서울특별시 관악구 신림로65길 41,37.4847073593542,126.92720130472,음식점분식관악구실내목줄
신사리즉석떡볶이,음식점,분식,실내, ,목줄,010-8414-0147,관악구,서울특별시 관악구 남부순환로176길 20 3층,서울특별시 관악구 남부순환로176길 20,37.483066034579,126.928599351546,음식점분식관악구실내목줄
길회뜨다횟집,음식점,일식,실내, ,캐리어,02-876-8279,관악구,서울특별시 관악구 신림로59길 12 양지순대촌 별동,서울특별시 관악구 신림로59길 12,37.4833603915256,126.929194016907,음식점일식관악구실내캐리어
감성필,음식점,한식,실내, ,목줄,010-7149-4512,동작구,서울특별시 동작구 동작대로9길 7 1층,서울특별시 동작구 동작대로9길 7,37.4805272293731,126.981084112794,음식점한식동작구실내목줄
파고,음식점,퓨전,실내, ,목줄,02-6368-2249,관악구,서울특별시 관악구 행운1길 40 1층 105호,서울특별시 관악구 행운1길 40,37.4806535079797,126.957388192724,음식점퓨전관악구실내목줄
남도반주,음식점,한식,실내, ,캐리어,010-9539-9446,관악구,서울특별시 관악구 관악로14가길 6 지하 1층,서울특별시 관악구 관악로14가길 6,37.4782622357877,126.955931343351,음식점한식관악구실내캐리어
호랑이,음식점,퓨전,실내, ,목줄,02-577-2827,서초구,서울특별시 서초구 청계산로9길 1-3 지하 102호,서울특별시 서초구 청계산로9길 1-3,37.4485371374725,127.055036215823,음식점퓨전서초구실내목줄
양재대가원 양재점,음식점,한식,실내, ,목줄,02-529-5342,서초구,서울특별시 서초구 강남대로6길 4,서울특별시 서초구 강남대로6길 4,37.4675331642522,127.041645774082,음식점한식서초구실내목줄
타이밍 LP music bar,음식점,퓨전,실내, ,안기,02-575-1354,서초구,서울특별시 서초구 양재천로 135-4 솔빌딩 1층,서울특별시 서초구 양재천로 135-4,37.479069595707,127.042188522937,음식점퓨전서초구실내안기
크로스비,음식점,퓨전,테라스, ,목줄,02-576-7754,서초구,서울특별시 서초구 양재천로 115 중앙빌딩,서울특별시 서초구 양재천로 115,37.4775559565574,127.04100397796,음식점퓨전서초구테라스목줄
헝그리홀스,음식점,퓨전,"실내,테라스",매일 18:00 - 03:00,목줄,02-416-3791,송파구,서울특별시 송파구 백제고분로7길 28-14 (잠실새내역4번 출구에서390m) 헝그리홀스,서울특별시 송파구 백제고분로7길 28-14,37.5100879533851,127.082059250136,"음식점퓨전송파구실내,테라스목줄"
도프피자 베이커스,음식점,피자,실내, ,"캐리어,안기",070-4647-2040,서초구,서울특별시 서초구 동산로2길 41,서울특별시 서초구 동산로2길 41,37.4683249016761,127.043100157952,"음식점피자서초구실내캐리어,안기"
라파스타앤모어,음식점,양식,실내, ,목줄,070-4042-3469,서초구,서울특별시 서초구 사평대로57길 86 1층,서울특별시 서초구 사평대로57길 86,37.5079669635251,127.021944997789,음식점양식서초구실내목줄
키친야나,음식점,양식,실내, ,목줄,070-8833-3568,서초구,서울특별시 서초구 서래로6길 10 반포4동근린빌딩 1층,서울특별시 서초구 서래로6길 10,37.4976970813596,126.998888589333,음식점양식서초구실내목줄
크래프트브로스,음식점,퓨전,실내, ,목줄,02-537-7451,서초구,서울특별시 서초구 사평대로22길 18,서울특별시 서초구 사평대로22길 18,37.4987915152569,126.997628775033,음식점퓨전서초구실내목줄
파더스오피스,음식점,퓨전,실내, ,목줄,010-2576-1606,서초구,서울특별시 서초구 강남대로101길 18-6 1층,서울특별시 서초구 강남대로101길 18-6,37.5169826272543,127.01858743622,음식점퓨전서초구실내목줄
J의정원,음식점,퓨전,실내, ,목줄,010-5164-4841,서초구,서울특별시 서초구 신반포로47길 82,서울특별시 서초구 신반포로47길 82,37.5139876364209,127.018929871356,음식점퓨전서초구실내목줄
까사꼬숑,음식점,퓨전,"실내,실외", ,목줄,010-8347-8985,서초구,서울특별시 서초구 효령로34길 23-7 103-A호,서울특별시 서초구 효령로34길 23-7,37.4808181476511,126.999954323475,"음식점퓨전서초구실내,실외목줄"
노스티모,음식점,양식,실내, ,목줄,02-535-5375,서초구,서울특별시 서초구 서초대로 125 2층 201호,서울특별시 서초구 서초대로 125,37.488634596004,126.995922606171,음식점양식서초구실내목줄
남미플랜트랩,음식점,퓨전,실내, ,목줄,02-522-1276,서초구,서울특별시 서초구 방배천로4안길 55 2층,서울특별시 서초구 방배천로4안길 55,37.4806093651187,126.983230430536,음식점퓨전서초구실내목줄
카페슬로우,음식점,퓨전,테라스, ,목줄,02-3482-0111,서초구,서울특별시 서초구 서초대로77길 35,서울특별시 서초구 서초대로77길 35,37.5008470038295,127.025273666946,음식점퓨전서초구테라스목줄
메이민(구. 메이찬),음식점,중식,실내, ,캐리어,02-482-1611,강동구,서울특별시 강동구 명일로 214,서울특별시 강동구 명일로 214,37.5377363405254,127.146230267567,음식점중식강동구실내캐리어
나주곰탕 길동점,음식점,한식,실내, ,목줄,02-470-2966,강동구,서울특별시 강동구 천호대로 1134,서울특별시 강동구 천호대로 1134,37.5340007142139,127.137290503118,음식점한식강동구실내목줄
이자카야 인,음식점,일식,실내, ,목줄,02-474-0644,강동구,서울특별시 강동구 성내로6길 14-16 1층,서울특별시 강동구 성내로6길 14-16,37.5297933743523,127.122139623755,음식점일식강동구실내목줄
버거주의,음식점,햄버거,실내, ,목줄,02-6326-8610,강동구,서울특별시 강동구 천호대로 1065 L층 104호,서울특별시 강동구 천호대로 1065,37.5370371637538,127.130464913259,음식점햄버거강동구실내목줄
만국미식회,음식점,퓨전,실내, ,캐리어,070-8828-9798,강동구,서울특별시 강동구 천호대로157길 18 원방빌딩 지하 1층,서울특별시 강동구 천호대로157길 18,37.5384960736319,127.127484882745,음식점퓨전강동구실내캐리어
뮬바,음식점,퓨전,실내, ,목줄,010-5553-3596,강동구,서울특별시 강동구 양재대로141길 8 B1층,서울특별시 강동구 양재대로141길 8,37.551267793748,127.143450046889,음식점퓨전강동구실내목줄
동촌,음식점,한식,실내, ,목줄,02-3426-9719,강동구,서울특별시 강동구 동남로65길 5,서울특별시 강동구 동남로65길 5,37.5476013852844,127.155599722956,음식점한식강동구실내목줄
닐리 고덕점,음식점,양식,실내, ,목줄,02-427-0054,강동구,서울특별시 강동구 동남로73길 31 2층,서울특별시 강동구 동남로73길 31,37.5526724241,127.154468163027,음식점양식강동구실내목줄
리틀방콕 고덕점,음식점,퓨전,실내, ,목줄,02-426-0662,강동구,서울특별시 강동구 동남로79길 26 고덕아이파크 상가1층,서울특별시 강동구 동남로79길 26,37.5591838811941,127.153744243632,음식점퓨전강동구실내목줄
컵앤곱,음식점,한식,실내, ,목줄,02-415-2770,송파구,서울특별시 송파구 석촌호수로 68,서울특별시 송파구 석촌호수로 68,37.510221595369,127.085706241251,음식점한식송파구실내목줄
라미아파밀리아,음식점,양식,실내, ,캐리어,010-4841-3941,송파구,서울특별시 송파구 백제고분로18길 5,서울특별시 송파구 백제고분로18길 5,37.5045998857116,127.084931097266,음식점양식송파구실내캐리어
규정공,음식점,한식,실내, ,캐리어,02-2622-1346,송파구,서울특별시 송파구 정의로7길 13 힐스테이트에코송파 126호,서울특별시 송파구 정의로7길 13,37.4852878303815,127.115119595215,음식점한식송파구실내캐리어
옐로우팟,음식점,퓨전,실내, ,캐리어,02-2054-8242,송파구,서울특별시 송파구 송파대로 167 문정역테라타워 1차 A동 120호,서울특별시 송파구 송파대로 167,37.4846614982049,127.120933640924,음식점퓨전송파구실내캐리어
인조이더샐러드,음식점,퓨전,테라스, ,목줄,02-2054-8700,송파구,서울특별시 송파구 송파대로 167 A동 G116-1호,서울특별시 송파구 송파대로 167,37.4846614982049,127.120933640924,음식점퓨전송파구테라스목줄
올리브테이블,음식점,양식,실내,월요일 휴무    매일 11:00 - 22:00 (15:00-17:00 브레이크타임)    일요일 11:00 - 21:00 (브레이크타임 없음),목줄,02-6349-2100,송파구,서울특별시 송파구 법원로4길 10 112호,서울특별시 송파구 법원로4길 10,37.4826157890248,127.122826416048,음식점양식송파구실내목줄
놀부수산,음식점,한식,실내, ,목줄,02-408-8372,송파구,서울특별시 송파구 양재대로 932,서울특별시 송파구 양재대로 932,37.4945376921828,127.108713599026,음식점한식송파구실내목줄
토탈포차,음식점,한식,실내, ,목줄,010-7710-9513,송파구,서울특별시 송파구 백제고분로27길 28,서울특별시 송파구 백제고분로27길 28,37.5054957186469,127.093679327944,음식점한식송파구실내목줄
에일크루,음식점,피자,테라스,"평일 15:00 - 00:00 / 토요일 15:00 - 01:00 , 1월1일 휴무","목줄,캐리어",02-332-8663,마포구,서울특별시 마포구 와우산로37길 7,서울특별시 마포구 와우산로37길 7,37.5558959334096,126.930456482443,"음식점피자마포구테라스목줄,캐리어"
매드나이트,음식점,퓨전,실내, ,목줄,010-8824-4741,송파구,서울특별시 송파구 송파대로49길 52 나인파크 A동 2층,서울특별시 송파구 송파대로49길 52,37.5061875220992,127.098968471356,음식점퓨전송파구실내목줄
피피샐러드,음식점,퓨전,실내, ,안기,070-8822-7771,송파구,서울특별시 송파구 송파대로49길 50 B동 203호,서울특별시 송파구 송파대로49길 50,37.5062773604789,127.099387961215,음식점퓨전송파구실내안기
하이윤,음식점,퓨전,실내, ,안기,010-4488-7457,송파구,서울특별시 송파구 송파대로40길 1-26,서울특별시 송파구 송파대로40길 1-26,37.504191134608,127.108837298043,음식점퓨전송파구실내안기
다운타우너 잠실,음식점,햄버거,실내, ,캐리어,070-8868-3696,송파구,서울특별시 송파구 백제고분로45길 3 1층,서울특별시 송파구 백제고분로45길 3,37.5090376521908,127.110665408994,음식점햄버거송파구실내캐리어
골든타이,음식점,퓨전,테라스, ,목줄,02-461-8089,송파구,서울특별시 송파구 위례성대로 66,서울특별시 송파구 위례성대로 66,37.514701752822,127.119422852225,음식점퓨전송파구테라스목줄
김피그 거여점,음식점,한식,실내, ,목줄,02-401-1761,송파구,서울특별시 송파구 거마로3길 4,서울특별시 송파구 거마로3길 4,37.4941351962948,127.14424410398,음식점한식송파구실내목줄
오늘덮밥,음식점,한식,실내, ,목줄,02-402-3229,송파구,서울특별시 송파구 거마로2길 18,서울특별시 송파구 거마로2길 18,37.4932842809866,127.146735642126,음식점한식송파구실내목줄
퀴너스화덕피자앤캠핑,음식점,피자,"실내,루프탑", ,목줄,070-4800-5860,송파구,"서울특별시 송파구 풍성로26길 22 2층, 3층",서울특별시 송파구 풍성로26길 22,37.5318756444275,127.118726261713,"음식점피자송파구실내,루프탑목줄"
세곡포차,음식점,퓨전,실내, ,목줄,02-459-3366,강남구,서울특별시 강남구 헌릉로570길 34,서울특별시 강남구 헌릉로570길 34,37.4631480963128,127.103468343169,음식점퓨전강남구실내목줄
춘천닭갈비,음식점,한식,실내, ,목줄,02-459-9289,강남구,서울특별시 강남구 헌릉로569길 13 라온프라이빗시티 2층,서울특별시 강남구 헌릉로569길 13,37.4668160016853,127.100039368895,음식점한식강남구실내목줄
자주포차,음식점,퓨전,실내, ,목줄,070-4045-4569,강남구,서울특별시 강남구 양재대로35길 5 1층,서울특별시 강남구 양재대로35길 5,37.4900077068273,127.083444378054,음식점퓨전강남구실내목줄
비스트로상수,음식점,퓨전, , ,목줄,02-577-2208,강남구,서울특별시 강남구 논현로 54 1층,서울특별시 강남구 논현로 54,37.4753193087793,127.047453413627,음식점퓨전강남구 목줄
삼곱식당 개포점,음식점,한식,실내, ,목줄,02-573-9293,강남구,서울특별시 강남구 논현로20길 18,서울특별시 강남구 논현로20길 18,37.4781627076566,127.04633651553,음식점한식강남구실내목줄
부타식당,음식점,퓨전,실내, ,"목줄,매너벨트",02-572-8338,강남구,서울특별시 강남구 논현로10길 26,서울특별시 강남구 논현로10길 26,37.4747955827329,127.050634920412,"음식점퓨전강남구실내목줄,매너벨트"
비일비재,음식점,퓨전,실내,"매일 18:00 - 02:00 , 매주 일요일 정기휴무 (사회적거리두기 기간동안은 5pm ~ 9pm 으로 조정하여 운영합니다.)","목줄,매너벨트",010-9938-5154,종로구,서울특별시 종로구 삼일대로15길 21 지하 1층,서울특별시 종로구 삼일대로15길 21,37.5687782396669,126.986244496386,"음식점퓨전종로구실내목줄,매너벨트"
찰미당,음식점,퓨전,테라스, ,목줄,02-529-3859,강남구,서울특별시 강남구 논현로24길 11,서울특별시 강남구 논현로24길 11,37.4816663547086,127.044024752651,음식점퓨전강남구테라스목줄
모터시티바이매니멀 역삼점,음식점,피자,실내, ,캐리어,02-2051-8877,강남구,서울특별시 강남구 테헤란로 142,서울특별시 강남구 테헤란로 142,37.4997440471512,127.034954751198,음식점피자강남구실내캐리어
역삼동 쏭타이,음식점,퓨전,실내, ,"목줄,입마개",02-554-0342,강남구,서울특별시 강남구 테헤란로39길 51 옥산빌딩 1층 102호,서울특별시 강남구 테헤란로39길 51,37.5056843062253,127.040272004532,"음식점퓨전강남구실내목줄,입마개"
모터시티바이매니멀 강남점,음식점,피자,실내, ,캐리어,02-2052-3003,강남구,서울특별시 강남구 강남대로98길 12-3 2층,서울특별시 강남구 강남대로98길 12-3,37.5005572808887,127.02789591085,음식점피자강남구실내캐리어
그릴1492 삼성1호점,음식점,한식,실내, ,목줄,02-555-1492,강남구,서울특별시 강남구 삼성로91길 36 1층,서울특별시 강남구 삼성로91길 36,37.5065769707411,127.053360022611,음식점한식강남구실내목줄
하드워커,음식점,피자,실내, ,목줄,070-4248-7700,강남구,"서울특별시 강남구 삼성로100길 23-30 1, 2층",서울특별시 강남구 삼성로100길 23-30,37.5110992330888,127.056962059672,음식점피자강남구실내목줄
식물원282,음식점,퓨전,실내, ,목줄,02-525-7234,강남구,서울특별시 강남구 테헤란로83길 44-1,서울특별시 강남구 테헤란로83길 44-1,37.5104410918811,127.056873902879,음식점퓨전강남구실내목줄
조인바이트,음식점,양식,실내, ,"목줄,매너벨트",02-3444-3611,강남구,서울특별시 강남구 선릉로112길 13,서울특별시 강남구 선릉로112길 13,37.511528195295,127.04461211913,"음식점양식강남구실내목줄,매너벨트"
엘레나영,음식점,양식,실내, ,목줄,02-511-7433,강남구,서울특별시 강남구 도산대로99길 47,서울특별시 강남구 도산대로99길 47,37.5266513366818,127.049406062989,음식점양식강남구실내목줄
누앙스,음식점,퓨전,실내, ,목줄,02-514-8077,강남구,서울특별시 강남구 압구정로72길 7,서울특별시 강남구 압구정로72길 7,37.5260613876611,127.045293210656,음식점퓨전강남구실내목줄
루카511,음식점,양식,테라스, ,목줄,02-540-6640,강남구,서울특별시 강남구 도산대로81길 40 LUKA빌딩,서울특별시 강남구 도산대로81길 40,37.527016821141,127.046881347002,음식점양식강남구테라스목줄
윌로뜨,음식점,양식,실내, ,목줄,02-722-0689,강남구,서울특별시 강남구 선릉로148길 48 3층 윌로뜨 hulotte,서울특별시 강남구 선릉로148길 48,37.5227679418531,127.043405669306,음식점양식강남구실내목줄
알로하포케 학동점,음식점,퓨전,실내, ,목줄,02-511-9183,강남구,서울특별시 강남구 논현로 705,서울특별시 강남구 논현로 705,37.5148984268352,127.029976515577,음식점퓨전강남구실내목줄
장생건강원,음식점,퓨전,실내, ,목줄,070-7543-1077,강남구,서울특별시 강남구 강남대로124길 23,서울특별시 강남구 강남대로124길 23,37.5093751803268,127.024509019899,음식점퓨전강남구실내목줄
로얄라운지다이닝,음식점,양식,테라스, ,목줄,02-514-1247,강남구,서울특별시 강남구 논현로 709,서울특별시 강남구 논현로 709,37.5152907715759,127.029788000546,음식점양식강남구테라스목줄
후문포차,음식점,퓨전,실내,매일 18:00 - 24:00   명절당일 휴무,목줄,02-3445-0701,강남구,서울특별시 강남구 강남대로120길 28,서울특별시 강남구 강남대로120길 28,37.5073845806985,127.025823165393,음식점퓨전강남구실내목줄
달링키친,음식점,양식,테라스, ,목줄,02-540-3460,강남구,서울특별시 강남구 언주로126길 25,서울특별시 강남구 언주로126길 25,37.5140121138046,127.037528226915,음식점양식강남구테라스목줄
마사 타코,음식점,퓨전,실내, ,목줄,02-545-6915,강남구,서울특별시 강남구 압구정로10길 30-8,서울특별시 강남구 압구정로10길 30-8,37.5219986941728,127.021740621505,음식점퓨전강남구실내목줄
스페인클럽 가로수본점,음식점,퓨전,테라스, ,목줄,02-515-1118,강남구,서울특별시 강남구 압구정로10길 26,서울특별시 강남구 압구정로10길 26,37.5218924440094,127.021859482585,음식점퓨전강남구테라스목줄
보물선,음식점,한식,실내, ,목줄,02-511-9093,강남구,서울특별시 강남구 강남대로152길 20 포토피아,서울특별시 강남구 강남대로152길 20,37.5173922520879,127.021098483702,음식점한식강남구실내목줄
동남방앗간,음식점,퓨전,테라스, ,목줄,0507-1454-1229,강남구,서울특별시 강남구 언주로154길 16 B1,서울특별시 강남구 언주로154길 16,37.5232844070518,127.034648302789,음식점퓨전강남구테라스목줄
까폼,음식점,퓨전,실내, ,캐리어,02-6081-7318,강남구,서울특별시 강남구 선릉로153길 18 지하 1층,서울특별시 강남구 선릉로153길 18,37.5248762621515,127.037988213227,음식점퓨전강남구실내캐리어
미드나잇몰트펍,음식점,퓨전,실내, ,목줄,070-4647-4727,강남구,서울특별시 강남구 선릉로157길 27-3 금봉빌딩 1층 103호,서울특별시 강남구 선릉로157길 27-3,37.5260459183673,127.037502012583,음식점퓨전강남구실내목줄
Ginos NY Pizza 압구정점,음식점,피자,실내, ,목줄,02-3444-2234,강남구,서울특별시 강남구 선릉로155길 15,서울특별시 강남구 선릉로155길 15,37.5253738583777,127.038351492993,음식점피자강남구실내목줄
긴자카레,음식점,퓨전,실내,매일 11:30 - 24:00 (브레이크타임 14:30~16:30) / 공휴일 16:30 - 24:00 / 매주 일요일 휴무,목줄,02-3452-0988,강남구,서울특별시 강남구 역삼로 406,서울특별시 강남구 역삼로 406,37.5006107262726,127.051662924506,음식점퓨전강남구실내목줄
브롱스 선릉점,음식점,양식,실내, ,목줄,02-501-6149,강남구,서울특별시 강남구 선릉로82길 23,서울특별시 강남구 선릉로82길 23,37.5030130568675,127.051916440449,음식점양식강남구실내목줄
칠랑고,음식점,양식,테라스, ,목줄,010-3303-4511,강남구,서울특별시 강남구 역삼로67길 19,서울특별시 강남구 역삼로67길 19,37.5026105921601,127.052697638181,음식점양식강남구테라스목줄
정겨운오뎅집 여의도점,음식점,퓨전,실내, ,목줄,-,영등포구,서울특별시 영등포구 여의대방로67길 22,서울특별시 영등포구 여의대방로67길 22,37.5207013372117,126.929997650238,음식점퓨전영등포구실내목줄
뚜띠쿠치나 공덕점,음식점,양식,테라스, ,목줄,02-717-3356,마포구,서울특별시 마포구 마포대로12길 58 1~2층,서울특별시 마포구 마포대로12길 58,37.5463248380953,126.954339889999,음식점양식마포구테라스목줄
술꼬마,음식점,퓨전,실내, ,목줄,070-8861-6517,용산구,서울특별시 용산구 녹사평대로40길 59-1,서울특별시 용산구 녹사평대로40길 59-1,37.5344770924284,126.989181846842,음식점퓨전용산구실내목줄
Southside Parlor,음식점,양식,실내, ,목줄,02-749-9522,용산구,서울특별시 용산구 녹사평대로 218 4층,서울특별시 용산구 녹사평대로 218,37.5371226680306,126.987065867141,음식점양식용산구실내목줄
피자컴퍼니 이태원,음식점,피자,실내, ,캐리어,02-790-3419,용산구,서울특별시 용산구 녹사평대로32길 3 2층,서울특별시 용산구 녹사평대로32길 3,37.533675727098,126.989018022082,음식점피자용산구실내캐리어
팬케이크샵,음식점,양식,실내, ,목줄,02-6407-3770,용산구,서울특별시 용산구 녹사평대로40다길 2 그린빌라트 3층 오른쪽 매장,서울특별시 용산구 녹사평대로40다길 2,37.5349594195156,126.98845574245,음식점양식용산구실내목줄
MOTHER OFFLINE,음식점,양식,실내, ,목줄,010-4658-0788,용산구,서울특별시 용산구 이태원로55나길 6,서울특별시 용산구 이태원로55나길 6,37.5366661151313,126.99909563226,음식점양식용산구실내목줄
몽크스부처,음식점,양식,"실내,실외", ,목줄,02-790-1108,용산구,서울특별시 용산구 이태원로 228-1 3~4층,서울특별시 용산구 이태원로 228-1,37.5354565227693,126.999230852921,"음식점양식용산구실내,실외목줄"
메종 앙티브,음식점,양식,실내, ,목줄,02-790-3325,용산구,서울특별시 용산구 한남대로27가길 15,서울특별시 용산구 한남대로27가길 15,37.5373857118299,127.002909211408,음식점양식용산구실내목줄
브루독 이태원,음식점,양식,실내, ,목줄,02-797-1240,용산구,서울특별시 용산구 이태원로27나길 40 B104호,서울특별시 용산구 이태원로27나길 40,37.5349413830509,126.996922527709,음식점양식용산구실내목줄
어글리소사이어티,음식점,양식,실내, ,목줄,010-4937-0892,용산구,서울특별시 용산구 보광로59길 40 6층,서울특별시 용산구 보광로59길 40,37.5339605801667,126.991813465214,음식점양식용산구실내목줄
HOMER PIZZA,음식점,피자,실내, ,목줄,02-793-3825,용산구,서울특별시 용산구 이태원로42길 19,서울특별시 용산구 이태원로42길 19,37.5358135016149,126.999826777024,음식점피자용산구실내목줄
더구룸,음식점,양식,실내, ,목줄,02-792-3113,용산구,서울특별시 용산구 이태원로 208 4층,서울특별시 용산구 이태원로 208,37.5345405311963,126.997056164597,음식점양식용산구실내목줄
브라이리퍼블릭푸드,음식점,양식,실내, ,목줄,070-8879-1967,용산구,서울특별시 용산구 이태원로14길 19,서울특별시 용산구 이태원로14길 19,37.5335466747814,126.99078664949,음식점양식용산구실내목줄
더테이블키친,음식점,양식,실내, ,목줄,02-6011-1117,용산구,서울특별시 용산구 이태원로54길 58-7,서울특별시 용산구 이태원로54길 58-7,37.5356663658844,127.000760663474,음식점양식용산구실내목줄
뷰티그로서리,음식점,양식,"실외,테라스","매일 10:30 - 19:00 / OPEN 10:30 (Bread&Drink) / 11:30 LUNCH / Last Order 18:00 , 일요일 휴무",목줄,02-546-7618,강남구,서울특별시 강남구 압구정로46길 77,서울특별시 강남구 압구정로46길 77,37.5236688536685,127.03677116432,"음식점양식강남구실외,테라스목줄"
봉심식당,음식점,양식,"실내,테라스","OPEN 17:00 - CLOSE 03:00 , 월요일 휴무",목줄,070-8844-5772,종로구,서울특별시 종로구 대학로11길 38-23 지하1층,서울특별시 종로구 대학로11길 38-23,37.5825877728003,127.000430894124,"음식점양식종로구실내,테라스목줄"
웨이브스,음식점,양식,실내,12:00 - 24:00,목줄,070-7681-0101,영등포구,서울특별시 영등포구 도림로 434-11,서울특별시 영등포구 도림로 434-11,37.5148578513902,126.895043016478,음식점양식영등포구실내목줄
초원가든,음식점,한식,"실내,실외", ,안기,02-993-3702,강북구,서울특별시 강북구 삼양로181길 251,서울특별시 강북구 삼양로181길 251,37.6737765123069,127.005008268249,"음식점한식강북구실내,실외안기"
CAMPxGRILL,음식점,한식,실내,17:00 - 24:00,목줄,02-6677-0043,중랑구,서울특별시 중랑구 동일로 929,서울특별시 중랑구 동일로 929,37.6133347197629,127.076760276991,음식점한식중랑구실내목줄
인디언소울,음식점,한식,실외,11:00 - 23:00,목줄,02-956-7448,도봉구,서울특별시 도봉구 도봉산길 12-15,서울특별시 도봉구 도봉산길 12-15,37.6881356972293,127.043961259612,음식점한식도봉구실외목줄
다 피타 시그니처,음식점,양식,실내,11:30 - 22:00 Last order 21:10,안기,02-537-1007,서초구,서울특별시 서초구 서초대로 3-4 1층 101-2호,서울특별시 서초구 서초대로 3-4,37.4860317945544,126.983083699338,음식점양식서초구실내안기
홍대씨부엉,음식점,분식,실내,11:00 - 24:00,목줄,02-336-5253,마포구,서울특별시 마포구 와우산로21길 28-6,서울특별시 마포구 와우산로21길 28-6,37.5525831557199,126.922376917358,음식점분식마포구실내목줄
버거드조선,음식점,햄버거,"실내,실외",11:30 - 22:00 ( Break Time 15:00 ~ 17:00 ),목줄,02-723-1016,종로구,서울특별시 종로구 사직로10길 7,서울특별시 종로구 사직로10길 7,37.5755931875674,126.970510626265,"음식점햄버거종로구실내,실외목줄"
양송이식당,음식점,한식,실내,"화-금요일 11:30 - 20:00 (브레이크타임 2:30 ~ 5:00) / 일요일 12:00 - 14:30 (일요일은 런치만 운영) , 월요일 휴무","캐리어,안기",010-9189-2005,마포구,서울특별시 마포구 토정로17안길 9 (신수동 404-2 1층 좌측),서울특별시 마포구 토정로17안길 9,37.5446267566453,126.936143924472,"음식점한식마포구실내캐리어,안기"
포크댄스,음식점,한식,실내,"매일 18:00 - 02:00 , 일요일 휴무","목줄,캐리어",02-2038-7200,강남구,서울특별시 강남구 강남대로118길 31 (논현동 182-19) B1,서울특별시 강남구 강남대로118길 31,37.5071035980329,127.025635887553,"음식점한식강남구실내목줄,캐리어"
초가집 (한정식),음식점,한식,"실내,실외",12:00~08:00 (예약제 운영),"목줄,캐리어",02-993-3758,강북구,서울특별시 강북구 삼양로173길 116-28,서울특별시 강북구 삼양로173길 116-28,37.6624701448466,127.006160472006,"음식점한식강북구실내,실외목줄,캐리어"
엘더버거,음식점,햄버거,테라스,"매일 11:30 - 20:30 , 월요일 휴무",목줄,02-462-5612,성동구,서울특별시 성동구 서울숲2길 40-7,서울특별시 성동구 서울숲2길 40-7,37.5463309801571,127.042978797816,음식점햄버거성동구테라스목줄
무대륙,음식점,퓨전,실내,매일 11:00 - 01:00 BAR (KITCHEN 11am-11:30pm ),목줄,02-332-8333,마포구,서울특별시 마포구 토정로5길 12,서울특별시 마포구 토정로5길 12,37.5460474891746,126.918361906445,음식점퓨전마포구실내목줄
빈티지1981,음식점,피자,실내,"평일 17:00 - 23:00, 주말 12:00 - 15:30",목줄,010-8221-9819,송파구,서울특별시 송파구 석촌호수로 194,서울특별시 송파구 석촌호수로 194,37.5062425402419,127.098577221469,음식점피자송파구실내목줄
더피자보이즈,음식점,피자,실내,"평일 15:00 - 23:00, 토요일,일요일13:00 - 22:00",캐리어,0507-1418-0801,마포구,서울특별시 마포구 와우산로29마길 24-1,서울특별시 마포구 와우산로29마길 24-1,37.555298337451,126.926066373784,음식점피자마포구실내캐리어
희게,음식점,양식,실내,"수~토요일 11:30 - 22:00, 일요일 11;30 - 16:00. 월,화 휴무",목줄,010-8387-4111,서대문구,서울특별시 서대문구 증가로 1,서울특별시 서대문구 증가로 1,37.5686546996,126.931892138111,음식점양식서대문구실내목줄
라운지앤,음식점,분식,실내,"매일 11:30 - 21:00, 월요일 정기휴무",목줄,02-497-4647,광진구,서울특별시 광진구 능동로35길 28-1,서울특별시 광진구 능동로35길 28-1,37.5571966991422,127.077507788377,음식점분식광진구실내목줄
땡초우동IN포차홍대점,음식점,퓨전,실내, ,목줄,02-336-5159,마포구,서울특별시 마포구 어울마당로 151,서울특별시 마포구 어울마당로 151,37.5567800097903,126.926615508,음식점퓨전마포구실내목줄
문어랑 상록점,음식점,한식,"실내,실외","평일 16:00 - 04:00, 주말 17:00 - 02:00(일요일 격주 휴무)",목줄,02-508-7701,강남구,서울특별시 강남구 봉은사로44길 64,서울특별시 강남구 봉은사로44길 64,37.5054354657939,127.042536428357,"음식점한식강남구실내,실외목줄"
팔레드신,음식점,중식,실내,매일 11:30 - 22:00,없음,02-317-4001,중구,서울특별시 중구 퇴계로 67,서울특별시 중구 퇴계로 67,37.5597323437561,126.979523390315,음식점중식중구실내없음
빠리가옥,음식점,퓨전,실내,매일 11:30 - 22:00,목줄,02-6083-1626,종로구,서울특별시 종로구 수표로28길 33-4,서울특별시 종로구 수표로28길 33-4,37.5733245159047,126.99020205203,음식점퓨전종로구실내목줄
술노리아,음식점,퓨전,실내,"매일 18:00 - 03:30, 매주 월요일휴무",목줄,010-6279-2387,송파구,서울특별시 송파구 문정로1길 31,서울특별시 송파구 문정로1길 31,37.4889360390783,127.123564726817,음식점퓨전송파구실내목줄
카키스터프,음식점,양식,"실내,테라스",매일 11:30 - 22:00(월요일 휴무),목줄,02-794-5131,용산구,서울특별시 용산구 회나무로13가길 46-8,서울특별시 용산구 회나무로13가길 46-8,37.5407835102851,126.992024312009,"음식점양식용산구실내,테라스목줄"
노네임드키친,음식점,퓨전,실내,매일 18:00 - 24:00(일요일 휴무),목줄,02-457-0623,광진구,서울특별시 광진구 자양번영로4길 18,서울특별시 광진구 자양번영로4길 18,37.5313204181812,127.076318069709,음식점퓨전광진구실내목줄
베란다,음식점,양식,실내,"매일 11:30 - 22:00, 일요일 휴무",목줄,02-333-0250,마포구,서울특별시 마포구 월드컵로 120,서울특별시 마포구 월드컵로 120,37.5590236737958,126.907736339234,음식점양식마포구실내목줄
다운타우너 한남점,음식점,햄버거,"실내,테라스",매일 11:30 - 21:30,"목줄,캐리어",070-8806-3696,용산구,서울특별시 용산구 대사관로5길 12 1층 다운타우너 한남점,서울특별시 용산구 대사관로5길 12,37.5348433010452,127.000858183704,"음식점햄버거용산구실내,테라스목줄,캐리어"
효뜨,음식점,퓨전,테라스,"평일 11:30 - 15:00, 17:30 - 22:00, 토요일 12:30 - 21:00, 일요일 12:30 - 21:00(2,4주 휴무)",없음,02-794-0526,용산구,서울특별시 용산구 한강대로40가길 6,서울특별시 용산구 한강대로40가길 6,37.5303509410215,126.9713078372,음식점퓨전용산구테라스없음
문화식당 성신여대점,음식점,양식,실내,매일 11:30 - 24:00,목줄,02-6381-4644,성북구,서울특별시 성북구 보문로30나길 37,서울특별시 성북구 보문로30나길 37,37.5910761720367,127.020309125604,음식점양식성북구실내목줄
이런씨불닭발,음식점,한식,실내,"매일 17:00 - 01:00, 일요일 휴무",목줄,070-4078-1858,노원구,서울특별시 노원구 동일로184길 66,서울특별시 노원구 동일로184길 66,37.6245789736128,127.077286006997,음식점한식노원구실내목줄
정거장뒤,음식점,퓨전,실내,"매일 11:00 - 21:00, 일요일 휴무",안기,070-7370-0828,은평구,서울특별시 은평구 가좌로 185,서울특별시 은평구 가좌로 185,37.5873603098915,126.920349022441,음식점퓨전은평구실내안기
72420,음식점,퓨전,"실내,실외",매일 11:30 - 22:00,목줄,02-417-2420,송파구,서울특별시 송파구 백제고분로45길 12,서울특별시 송파구 백제고분로45길 12,37.5096256769585,127.110151992824,"음식점퓨전송파구실내,실외목줄"
지하102호,음식점,퓨전,실내,매일 17:00 - 03:00,없음,010-6315-8648,마포구,서울특별시 마포구 양화로6길 57-22,서울특별시 마포구 양화로6길 57-22,37.5493872950732,126.918079087989,음식점퓨전마포구실내없음
발리인망원,음식점,퓨전,실내,"매일 11:30 - 21:00/라스트 오더 14:30&20:00 / 브레이크타임 15~17시, 일요일 휴무라스트오더 20:00","목줄,캐리어,입마개",02-336-0527,마포구,서울특별시 마포구 포은로 67,서울특별시 마포구 포은로 67,37.5532902785265,126.906035897936,"음식점퓨전마포구실내목줄,캐리어,입마개"
마레스타,음식점,양식,실내,매일 11:30 - 22:0015시30분부터 17시까지 재료준비시간. 매주 일요일 휴무,목줄,02-322-8588,마포구,서울특별시 마포구 월드컵북로4길 15,서울특별시 마포구 월드컵북로4길 15,37.5572057386981,126.920637926827,음식점양식마포구실내목줄
38도씨식당,음식점,양식,실내,매일 16:00 - 02:00 일요일 휴무,없음,070-4045-8387,마포구,서울특별시 마포구 와우산로17길 19-17,서울특별시 마포구 와우산로17길 19-17,37.5494298799352,126.921615197284,음식점양식마포구실내없음
아티초크0125,음식점,양식,테라스,매일 11:30 - 23:00,목줄,02-544-2415,강남구,서울 강남구 압구정로75길 6,서울 강남구 압구정로75길 6,37.5261497386776,127.047002757524,음식점양식강남구테라스목줄
카페 나하,음식점,양식,실내,"화,수,목,금,토 12:00 - 22:00 재료준비 : 15-17시    일요일 12:00 - 15:00 재료소진시까지 운영    월요일 휴무",목줄,070-8834-1632,마포구,서울 마포구 희우정로16길 32,서울 마포구 희우정로16길 32,37.5545465978671,126.903759337898,음식점양식마포구실내목줄
청계산 장수촌,음식점,한식,"실내,실외",매일 10:00 - 21:00,목줄,02-578-5078,서초구,서울 서초구 원터5길 14,서울 서초구 원터5길 14,37.4429444642385,127.057470625712,"음식점한식서초구실내,실외목줄"
바스버거 후암점,음식점,햄버거,테라스,평일 11:00 - 23:00,없음,02-318-6649,용산구,서울특별시 용산구 한강대로104길 32 2층,서울특별시 용산구 한강대로104길 32,37.5502366462959,126.97406020894,음식점햄버거용산구테라스없음
칠사칠,음식점,양식,실내,평일 17:00~24:00 금 16:00-02:00 토 11:00-02:00일11:00-24:00,목줄,02-749-7470,용산구,서울 용산구 이태원로20가길 1,서울 용산구 이태원로20가길 1,37.533634902461,126.992321727443,음식점양식용산구실내목줄
르팔러,음식점,양식,실내,매일 11:00 - 24:00,목줄,02-6013-7649,마포구,서울 마포구 양화로 45,서울 마포구 양화로 45,37.5515008030203,126.91395024016,음식점양식마포구실내목줄
루나씨엘로,음식점,양식,테라스,평일 16:00 - 01:00주말 16:00 - 02:00,"목줄,안기",070-4110-3815,마포구,서울 마포구 동교로34길 21,서울 마포구 동교로34길 21,37.5608539329308,126.925568658019,"음식점양식마포구테라스목줄,안기"
NY BnB,음식점,햄버거,"실내,테라스",일요일 10:00 - 21:00  매일 10:00 - 22:00,목줄,02-553-7792,강남구,서울 강남구 테헤란로6길 30,서울 강남구 테헤란로6길 30,37.4966139485471,127.031096092669,"음식점햄버거강남구실내,테라스목줄"
개편한 포차 탄이네,음식점,퓨전,실내,18:00~05:00,목줄,02-499-0851,광진구,서울 광진구 동일로22길 31,서울 광진구 동일로22길 31,37.5422327632238,127.066054866585,음식점퓨전광진구실내목줄
슬로우캘리,음식점,퓨전,실내,"  11:30~20:30, 월요일 휴무  브레이크 타임 15:00~17:00",목줄,02-336-0688,마포구,서울 마포구 동교로38길 35,서울 마포구 동교로38길 35,37.5613569326774,126.92581263134,음식점퓨전마포구실내목줄
비어바나,음식점,퓨전,"실내,실외",  평일 17:00~01:00  토요일 15:00~01:00  일요일 15:00~24:00,목줄,02-2634-6277,영등포구,서울특별시 영등포구 도림로129길 5-1,서울특별시 영등포구 도림로129길 5-1,37.5133332457584,126.895327925737,"음식점퓨전영등포구실내,실외목줄"
비어포스트 바,음식점,퓨전,실내, ,목줄,02-2068-6277,영등포구,서울 영등포구 도림로131길 15,서울 영등포구 도림로131길 15,37.5137907282909,126.894162815494,음식점퓨전영등포구실내목줄
라샌독오스테리아,음식점,양식,실내,  11:30~21:00  브레이크 타임 14:30~15:30  일요일 19:00 영업종료,목줄,070-8614-9903,용산구,서울 용산구 이태원로54길 62-9,서울 용산구 이태원로54길 62-9,37.5354587754441,127.00074210589,음식점양식용산구실내목줄
훌라훌라,음식점,퓨전,실내,"  화~일요일 11:00~22:00  브레이크 타임 15:00~17:00 (주말 제외)  매주 월요일 휴무, 임시휴무 인스타 공지",목줄,010-6284-5787,마포구,서울 마포구 희우정로10길 4,서울 마포구 희우정로10길 4,37.5526332685366,126.904683899821,음식점퓨전마포구실내목줄
펍피맥 오목교본점,음식점,피자,실내,"  평일 17:00~02:00  주말 16:00~02:00, 연중무휴",목줄,02-2061-2620,양천구,서울 양천구 신목로2길 68,서울 양천구 신목로2길 68,37.5238327188727,126.877348359324,음식점피자양천구실내목줄
파이브테이블즈,음식점,퓨전,실내,"11:00~22:30, 오픈시간 유동적",목줄,02-3141-1555,마포구,서울 마포구 망원로6길 19,서울 마포구 망원로6길 19,37.5561117959526,126.90352079066,음식점퓨전마포구실내목줄
코시나,음식점,양식,실내,  평일 11:00~22:00  주말 12:00~22:00,목줄,070-7622-2176,성동구,서울 성동구 성수일로11길 8,서울 성동구 성수일로11길 8,37.5492195441892,127.050789672956,음식점양식성동구실내목줄
장화신은고양이,음식점,퓨전,"실내,실외","  평일 18:00~24:00, 휴무일 인스타 공지  토요일 12:30~24:00, 재료 소진 시 조기마감  일요일 18:00~18:30, 예약제 비프웰링턴 코스",목줄,02-333-2825,마포구,서울 마포구 월드컵로19길 16,서울 마포구 월드컵로19길 16,37.5567489954078,126.908171133941,"음식점퓨전마포구실내,실외목줄"
인딕 슬로우,음식점,퓨전,테라스,"  11:00~22:00, 브레이크 타임 15시~17시  연중무휴",목줄,02-511-0139,강남구,서울 강남구 압구정로4길 13,서울 강남구 압구정로4길 13,37.5218985731036,127.020333459643,음식점퓨전강남구테라스목줄
얼띵앤키친,음식점,양식,실내,  화~금요일 12:00~21:30  주말 12:00~22:00  월요일 휴무,목줄,070-7766-6028,마포구,서울 마포구 토정로5길 22,서울 마포구 토정로5길 22,37.546414251193,126.918572775584,음식점양식마포구실내목줄
아이노테이블,음식점,한식,실내,"11:00~22:00, 연중무휴",목줄,02-336-0118,마포구,서울 마포구 성지1길 39,서울 마포구 성지1길 39,37.5479807554575,126.915660317632,음식점한식마포구실내목줄
아루감,음식점,퓨전,실내,"18:00~02:00, 연중무휴",목줄,02-322-3213,마포구,서울 마포구 월드컵로19길 8,서울 마포구 월드컵로19길 8,37.5570970046822,126.908460097445,음식점퓨전마포구실내목줄
복덕방 막걸리집,음식점,한식,실내,"  화~금 18:00~02:00, 오더마감 01:00  토요일 17:00~02:00, 오더마감 01:00  일, 월요일 휴무",목줄,070-8864-1414,마포구,서울 마포구 포은로8길 5,서울 마포구 포은로8길 5,37.5564316277058,126.905049369949,음식점한식마포구실내목줄
미자카야,음식점,퓨전,실내,"  월~금 18:00~02:00  토요일 18:00~01:00  매주 일요일, 첫재 셋재 월요일 휴무",안기,010-4800-7637,마포구,서울 마포구 포은로8길 5,서울 마포구 포은로8길 5,37.5564316277058,126.905049369949,음식점퓨전마포구실내안기
무슈,음식점,한식,"실내,실외","11:30~22:00, 연중무휴",목줄,070-8955-2295,마포구,서울 마포구 동교로17길 28,서울 마포구 동교로17길 28,37.5562337311488,126.915681461073,"음식점한식마포구실내,실외목줄"
라오삐약,음식점,퓨전,"실내,실외","  11:00~21:00, 브레이크 타임 15시~17시  주말 11:00~21:00, 브레이크 타임 없음  월요일 휴무",목줄,02-322-7735,마포구,서울 마포구 희우정로10길 5,서울 마포구 희우정로10길 5,37.5527328101125,126.90443785635,"음식점퓨전마포구실내,실외목줄"
라몽림,음식점,퓨전,실내, ,목줄,-,마포구,서울 마포구 포은로 42,서울 마포구 포은로 42,37.5513207328952,126.907220287584,음식점퓨전마포구실내목줄
드렁캔 자양점,음식점,퓨전,"실내,실외","17:00~02:00, 연중무휴",목줄,02-6326-0422,광진구,서울 광진구 뚝섬로52길 30,서울 광진구 뚝섬로52길 30,37.5307024972477,127.078809259039,"음식점퓨전광진구실내,실외목줄"
다운타우너 청담,음식점,햄버거,실내,"11:30~21:30, 휴뮤일 인스타 공지",캐리어,070-8833-3696,강남구,서울 강남구 도산대로53길 14,서울 강남구 도산대로53길 14,37.524064899915,127.038573907268,음식점햄버거강남구실내캐리어
망원 그곳,음식점,퓨전,실내,주말 18:00 - 03:00  평일 18:00 - 02:00,목줄,010-3745-7037,마포구,서울 마포구 월드컵로13길 19-19,서울 마포구 월드컵로13길 19-19,37.5551260432486,126.90935555523,음식점퓨전마포구실내목줄
길모퉁이칠리차차,음식점,양식,실외,"  평일 11:30~22:30, 주말 11:30~22:00  2번째 토, 일 휴무",목줄,02-6014-7770,마포구,서울 마포구 동교로15길 34,서울 마포구 동교로15길 34,37.5562314918474,126.914075064568,음식점양식마포구실외목줄
규스홈,음식점,양식,실내,  평일 11:00~22:00 / 오후 3~5시 브레이크 타임  주말 12:00~22:00 / 브레이크 타임 없음  일요일 휴무,목줄,02-598-5584,서초구,서울 서초구 방배천로 62,서울 서초구 방배천로 62,37.4820810148783,126.982824659131,음식점양식서초구실내목줄
구운,음식점,퓨전,실내,"17:00~02:00, 연중무휴",목줄,02-322-5545,마포구,서울 마포구 포은로 109,서울 마포구 포은로 109,37.5566803113882,126.904501286522,음식점퓨전마포구실내목줄
차고버거(Chag.oB),음식점,햄버거,"실외,테라스","  화~토 11:30~21:30,  브레이크 타임 15:00~17:00",목줄,070-8878-0601,송파구,서울 송파구 오금로11길 61-11,서울 송파구 오금로11길 61-11,37.5155218341412,127.113962951307,"음식점햄버거송파구실외,테라스목줄"
벤조롱,음식점,퓨전,실내,평일)17:30 - 02:00 주말)16:30 - 02:00 (월요일 휴무),목줄,010-3384-2870,은평구,서울 은평구 불광천길 486,서울 은평구 불광천길 486,37.595626786865,126.915758531761,음식점퓨전은평구실내목줄
제니스,음식점,양식,"실내,테라스","11:30~22:00, 연중무휴",목줄,02-3789-7817,서대문구,서울 서대문구 연희맛로 17-49,서울 서대문구 연희맛로 17-49,37.5670133084566,126.928907771602,"음식점양식서대문구실내,테라스목줄"
JULy16th,음식점,퓨전,실내,"매달 2째주4째주 월요일휴무
월~목 15:00 - 01:00
금~일 15:00 - 02:00","목줄,안기",02-336-0716,마포구,서울 마포구 와우산로23길 35-6,서울 마포구 와우산로23길 35-6,37.554576685825,126.923315422304,"음식점퓨전마포구실내목줄,안기"
꾸띠자르당,음식점,양식,실외,평일 10:30 - 01:00 B.T 15시~17시   금~토 12:00 - 06:00 B.T 16시~17시   일요일 12:00 - 24:00 B.T 16시~17시,목줄,02-793-5072,용산구,서울 용산구 보광로 120,서울 용산구 보광로 120,37.5334478009537,126.994607629349,음식점양식용산구실외목줄
아날로그 키친,음식점,양식,"실외,테라스",  11:00 ~ 22:00 주문마감 21:00  명절당일 휴무,목줄,02-2122-1265,광진구,서울 광진구 아차산로 200,서울 광진구 아차산로 200,37.5410566332301,127.065669226745,"음식점양식광진구실외,테라스목줄"
난장캠프 논현점,음식점,한식,실내,"17:00 ~ 24:00, 연중무휴",목줄,02-516-1446,강남구,서울 강남구 강남대로114길 10,서울 강남구 강남대로114길 10,37.5057520040906,127.025199318349,음식점한식강남구실내목줄
김봉남 포장마차 가로수길 근처점,음식점,한식,테라스,"10:00 ~ 22:00, 연중무휴","목줄,안기",02-3217-9292,강남구,서울 강남구 도산대로17길 12,서울 강남구 도산대로17길 12,37.5195131127887,127.024859610937,"음식점한식강남구테라스목줄,안기"
바토스 이태원점,음식점,퓨전,테라스,  일~목 11:30 ~ 23:00 마지막 주문 22:00  금/토 11:30 ~ 24:00 마지막 주문 23:00  연중무휴,목줄,02-797-8226,용산구,서울 용산구 이태원로15길 1,서울 용산구 이태원로15길 1,37.5346187277401,126.990190373063,음식점퓨전용산구테라스목줄
코레아노스키친,음식점,퓨전,테라스,"12:00 ~ 23:00, 연중무휴",목줄,02-795-4427,용산구,서울 용산구 녹사평대로40길 46,서울 용산구 녹사평대로40길 46,37.5343987025279,126.988210990583,음식점퓨전용산구테라스목줄
윤세영 식당,음식점,양식,테라스,"  11:30 ~ 21:30, 마지막 주문 20:30  브레이크 타임 15:00 ~ 17:00",목줄,0507-1431-3376,용산구,서울 용산구 한남대로 164,서울 용산구 한남대로 164,37.5425557498748,127.002476259275,음식점양식용산구테라스목줄
봉쥬르스고이,음식점,퓨전,실내,  평일 17:00 ~ 01:00  주말 13:00 ~ 01:00,목줄,070-8868-1119,용산구,서울 용산구 회나무로 26길 26,서울 용산구 회나무로 26길,37.5392622404216,126.99051529413,음식점퓨전용산구실내목줄
1989 비스트로,음식점,햄버거,실내,"  11:00 ~ 02:00, 마지막 주문 23:00  연중무휴",목줄,070-8778-0025,용산구,서울 용산구 회나무로 13가길 37,서울 용산구 회나무로 13가길,37.5410431516179,0.0,음식점햄버거용산구실내목줄
이어커피로스터스,카페,카페,실내,월(8/15)   광복절11:00 - 19:00      화   08:30 - 21:00   20:30 라스트오더      수   08:30 - 21:00   20:30 라스트오더      목   08:30 - 21:00   20:30 라스트오더      금   08:30 - 21:00   20:30 라스트오더      토   11:00 - 19:00   18:30 라스트오더      일   11:00 - 19:00   18:30 라스트오더,목줄,02-706-9313,마포구,서울특별시 마포구 백범로24길 9 1층 이어커피 로스터스,서울특별시 마포구 백범로24길 9,37.5459656130831,126.945236466602,카페카페마포구실내목줄
코스모스상점,카페,카페,"실내,실외",월   11:00 - 20:00   19:30 라스트오더      화   11:00 - 20:00   19:30 라스트오더      수   11:00 - 22:00   21:30 라스트오더      목   11:00 - 22:00   21:30 라스트오더      금   11:00 - 22:00   21:30 라스트오더      토   11:00 - 22:00   21:30 라스트오더      일   11:00 - 20:00   19:30 라스트오더,"목줄,안기",02-498-7878,성동구,서울특별시 성동구 성수이로7길 27 서울숲코오롱디지탈타워 1층,서울특별시 성동구 성수이로7길 27,37.5415739384899,127.053438588226,"카페카페성동구실내,실외목줄,안기"
옐로우 라인,카페,카페,실내, ,"목줄,안기",010-6837-2626,마포구,서울특별시 마포구 월드컵북로 57 옐로우라인,서울특별시 마포구 월드컵북로 57,37.5591824128186,126.917064694044,"카페카페마포구실내목줄,안기"
88커피,카페,카페,실내,월   08:00 - 20:00   19:30 라스트오더      화   08:00 - 20:00   19:30 라스트오더      수   정기휴무 (매주 수요일)      목   08:00 - 20:00   19:30 라스트오더      금   08:00 - 20:00   19:30 라스트오더      토   09:00 - 19:00   18:30 라스트오더      일   09:00 - 19:00   18:30 라스트오더      - 매주 수요일 휴무,"목줄,안기",010-3263-1492,금천구,서울특별시 금천구 시흥대로88가길 17 1층,서울특별시 금천구 시흥대로88가길 17,37.4617379170757,126.900191087001,"카페카페금천구실내목줄,안기"
스톤앤워터,카페,카페,실내,월   10:00 - 21:00   20:30 라스트오더      화   10:00 - 21:00   20:30 라스트오더      수   10:00 - 21:00   20:30 라스트오더      목   10:00 - 21:00   20:30 라스트오더      금   10:00 - 21:00   20:30 라스트오더      토   10:00 - 21:00   20:30 라스트오더      일   10:00 - 21:00   20:30 라스트오더,목줄,02-6013-9593,송파구,서울특별시 송파구 가락로 283 1층,서울특별시 송파구 가락로 283,37.5131208985041,127.119821871507,카페카페송파구실내목줄
유니버스 스튜디오,카페,카페,실내,매일 11:00 - 22:00    21:30 라스트오더    정기휴무 (매주 화요일),"목줄,매너벨트",070-7563-2071,성동구,서울특별시 성동구 성덕정길 92 지하1층,서울특별시 성동구 성덕정길 92,37.5375125985035,127.053620797092,"카페카페성동구실내목줄,매너벨트"
Cafe4gil25,카페,브런치,"실내,실외",매일 10:00 - 22:00    21:00 라스트오더,"목줄,매너벨트",070-8888-4025,강남구,서울특별시 강남구 압구정로4길 25 Cafe4gil25,서울특별시 강남구 압구정로4길 25,37.5214385302608,127.02079815297,"카페브런치강남구실내,실외목줄,매너벨트"
사이이커피,카페,카페,"실내,실외",11:30 - 21:00    20:30 라스트오더    매주 월요일 휴무,"목줄,매너벨트",010-7643-4220,광진구,서울특별시 광진구 동일로18길 11,서울특별시 광진구 동일로18길 11,37.5400782136005,127.063572602365,"카페카페광진구실내,실외목줄,매너벨트"
타우너스 에스프레소 바,카페,카페,"실외,테라스",평일 08:00 - 22:00    21:30 라스트오더    토요일 09:00 - 22:00    21:30 라스트오더    일요일 09:00 - 20:00    19:30 라스트오더,"목줄,매너벨트",02-2135-1467,강남구,서울특별시 강남구 테헤란로28길 41 타우너스 1층,서울특별시 강남구 테헤란로28길 41,37.4984648733779,127.039841335692,"카페카페강남구실외,테라스목줄,매너벨트"
러프러프,카페,카페,실내,Mon-Fri 11:00 - 22:00    21:30 라스트오더    Sat-Sun 12:00 - 23:00    21:30 라스트오더    매달 2번째 월요일 정기 휴무(추후 변동 가능),"목줄,캐리어",010-4796-8203,성동구,서울특별시 성동구 연무장길 81 401호,서울특별시 성동구 연무장길 81,37.5416962727725,127.058247206574,"카페카페성동구실내목줄,캐리어"
한옥카페 선운각,카페,카페,실외,매일 11:00 - 21:00    20:00 라스트오더,"목줄,캐리어",010-3019-1105,강북구,서울특별시 강북구 삼양로173길 223,서울특별시 강북구 삼양로173길 223,37.655515620157,126.998708547527,"카페카페강북구실외목줄,캐리어"
dooop,카페,브런치,"실내,테라스",Brunch cafe : 12:00pm - 4:00pm    Break time : 4:00pm - 6:00pm    Natural wine bar : 6:00pm - 00:00am,캐리어,02-465-1209,성동구,서울특별시 성동구 서울숲2길 16-8 1층,서울특별시 성동구 서울숲2길 16-8,37.5470516826704,127.040182785435,"카페브런치성동구실내,테라스캐리어"
33Acre,카페,카페,실외,* 월 : 휴무일    * 화 : 10:00am ~ 15:00pm    * 수 - 일 : 10:00am ~ 9:00pm    Break time    * 평일 / 15:00pm - 17:00pm    * 주말 / (브레이크타임 없습니다.),목줄,02-3426-3754,강동구,서울특별시 강동구 아리수로61길 33,서울특별시 강동구 아리수로61길 33,37.5631669001685,127.149830344119,카페카페강동구실외목줄
카페별뜨락,카페,카페,"실외,테라스",매일 11:00~21:00,목줄,010-8446-9832,종로구,서울특별시 종로구 창의문로 119,서울특별시 종로구 창의문로 119,37.592096942441,126.96706863952,"카페카페종로구실외,테라스목줄"
메리푸리데이,카페,카페,"실내,테라스",화요일-일요일 10:00 - 22:00    21:30 라스트오더    월 정기휴무 (매주 월요일),"캐리어,안기",02-352-1227,은평구,서울특별시 은평구 연서로29길 20-25,서울특별시 은평구 연서로29길 20-25,37.6200956882776,126.919255818638,"카페카페은평구실내,테라스캐리어,안기"
클로드커피,카페,카페,실외,월요일-토요일 12:00 - 20:00    정기휴무 매주 일요일 (대관X),목줄,02-701-2608,마포구,서울특별시 마포구 백범로16안길 21,서울특별시 마포구 백범로16안길 21,37.5464369769847,126.943246321233,카페카페마포구실외목줄
테이크어샤워,카페,카페,"실내,실외",매일 12:00 - 22:00,안기,070-4307-0910,송파구,서울특별시 송파구 송파대로47길 1 동보빌딩 1층,서울특별시 송파구 송파대로47길 1,37.507490970007,127.10434926971,"카페카페송파구실내,실외안기"
코너드커피,카페,카페,실내, ,"목줄,매너벨트",070-4184-1186,강남구,서울특별시 강남구 도산대로12길 14,서울특별시 강남구 도산대로12길 14,37.5168838283098,127.023872601331,"카페카페강남구실내목줄,매너벨트"
찰스앤다이애나,카페,카페,실내,매일 11:00 - 새벽 01:00    14:00 - 17:00 브레이크타임    새벽 00:30 라스트오더    정기휴무 (매주 화요일),매너벨트,010-5857-1223,동대문구,서울특별시 동대문구 천호대로91길 57 1층,서울특별시 동대문구 천호대로91길 57,37.5641642987881,127.069835074727,카페카페동대문구실내매너벨트
더숲,카페,브런치,실내,월~금 10:00 - 20:00    토요일 11:00 - 16:00    공식 빨간날 휴무,캐리어,02-6309-9200,강서구,서울특별시 강서구 공항대로 194 1층,서울특별시 강서구 공항대로 194,37.5589809916906,126.829034127455,카페브런치강서구실내캐리어
위드멍,카페,애견카페,"실내,루프탑",매일 11:00 - 22:00   21:00 라스트오더,없음,010-4299-0514,송파구,서울특별시 송파구 가락로 98 4층 루프탑,서울특별시 송파구 가락로 98,37.5008437605004,127.107017444296,"카페애견카페송파구실내,루프탑없음"
개판카페,카페,애견카페,실내,매일 10:00 - 21:00,없음,02-877-3573,관악구,서울특별시 관악구 관악로 133 1층 101호,서울특별시 관악구 관악로 133,37.4769280464726,126.952062711984,카페애견카페관악구실내없음
마리앤독,카페,애견카페,실내,월 : 10:00 - 21:00   화 : 10:00 - 21:00   수 : 10:00 - 21:00   목 : 10:00 - 21:00   금 : 10:00 - 21:00   토 : (12/25)10:00 - 18:00   일 : 11:00 - 20:00,없음,02-487-3424,중랑구,서울특별시 중랑구 중랑역로 122 3층,서울특별시 중랑구 중랑역로 122,37.6042034410394,127.077484395141,카페애견카페중랑구실내없음
어야가자애견카페,카페,애견카페,실내,매일 10:00 - 21:30,없음,070-8830-0808,강남구,서울특별시 강남구 테헤란로39길 66 1층,서울특별시 강남구 테헤란로39길 66,37.5066132309043,127.039774412942,카페애견카페강남구실내없음
런닝독,카페,애견카페,실내,월 : 13:00 - 22:00   화 : 13:00 - 22:00   수 : 정기휴무 (매주 수요일)   목 : 13:00 - 22:00   금 : 13:00 - 22:00   토 : 13:00 - 22:00   일 : 13:00 - 22:00,없음,010-6871-7770,은평구,서울특별시 은평구 가좌로 251 2층,서울특별시 은평구 가좌로 251,37.5914576461333,126.91515406552,카페애견카페은평구실내없음
도그인시티,카페,애견카페,실내,월 : 13:00 - 21:00   화 : 13:00 - 21:00   수 : 13:00 - 21:00   목 : 13:00 - 21:00   금 : 13:00 - 21:00   토 : (12/25)(성탄절)13:00 - 19:00   일 : 13:00 - 21:00,없음,02-6408-0995,관악구,서울특별시 관악구 신림로 286 2층,서울특별시 관악구 신림로 286,37.4801025635954,126.930935156348,카페애견카페관악구실내없음
오늘도댕댕,카페,애견카페,"실내,루프탑",매일 00:00 - 24:00 카페는 주말 13:00 - 21:00까지 운영합니다:),없음,02-6080-1389,강서구,서울특별시 강서구 방화동로 59 2층 201호,서울특별시 강서구 방화동로 59,37.565846144324,126.812091032183,"카페애견카페강서구실내,루프탑없음"
동건s애견카페,카페,애견카페,실내,수 : 14:00 - 22:00   목 : 14:00 - 22:00   금 : 14:00 - 22:00   토 : 14:00 - 22:00   일 : 14:00 - 22:00   월 : 정기휴무 (매주 월요일)   화 : 14:00 - 22:00,없음,02-533-8146,서초구,서울특별시 서초구 방배중앙로 157 대흥빌딩 a동 2층,서울특별시 서초구 방배중앙로 157,37.4931470939107,126.986172438541,카페애견카페서초구실내없음
맘마,카페,카페,"실내,실외",매일 10:00 - 22:00,매너벨트,070-7792-7770,송파구,서울특별시 송파구 중대로 312 1층,서울특별시 송파구 중대로 312,37.5080350526825,127.133551636157,"카페카페송파구실내,실외매너벨트"
두젠틀장승배기역점,카페,애견카페,실내,매일 11:00 - 22:00,없음,02-6014-2120,동작구,서울특별시 동작구 상도로 217-4,서울특별시 동작구 상도로 217-4,37.5054313830011,126.942872826454,카페애견카페동작구실내없음
카페곳,카페,애견카페,실내,"평일 12:00 - 22:00 시간외 애견호텔,유치원 문의   토요일 12:00 - 21:00   일요일 휴무",없음,070-4406-9090,서대문구,서울특별시 서대문구 홍제내2나길 2 2층 3층 루프탑,서울특별시 서대문구 홍제내2나길 2,37.5848450269691,126.936417991374,카페애견카페서대문구실내없음
디어도그 본점,카페,애견카페,실내,"매일 09:00 - 20:00 데이케어,유치원,호텔   토요일 13:00 - 20:00 카페   일요일 13:00 - 19:00 카페",없음,010-4258-9699,은평구,서울특별시 은평구 응암로12길 32-1,서울특별시 은평구 응암로12길 32-1,37.5868254047326,126.919970302669,카페애견카페은평구실내없음
김바니네,카페,애견카페,실내,매일 11:00 - 21:00 [매주 금요일 휴무],없음,010-7550-9873,동대문구,서울특별시 동대문구 전농로 36,서울특별시 동대문구 전농로 36,37.5680105003259,127.057406070901,카페애견카페동대문구실내없음
펫티 애견카페,카페,애견카페,"실내,실외",매일 10:30 - 21:30,없음,02-2064-0043,강서구,서울특별시 강서구 공항대로 222 발산W타워Ⅱ 4층 403호,서울특별시 강서구 공항대로 222,37.5586687054378,126.832173382942,"카페애견카페강서구실내,실외없음"
두젠틀,카페,애견카페,실내,매일 10:00 - 21:00 위탁   매일 12:00 - 21:00 카페,없음,02-6259-1436,강남구,서울특별시 강남구 논현로 534 지하1층,서울특별시 강남구 논현로 534,37.5041191659419,127.035807497686,카페애견카페강남구실내없음
킨더독,카페,애견카페,실내,매일 09:00 - 21:00 유치원 9:00-21:00   매일 12:00 - 21:00 카페 10:00-21:00,없음,02-6959-5979,송파구,서울특별시 송파구 삼전로 53 뜨레피움 지하1층,서울특별시 송파구 삼전로 53,37.5038947689214,127.08726628529,카페애견카페송파구실내없음
루프독,카페,애견카페,실내,매일 09:00 - 21:00 유치원 호텔 위탁 가능시간   매일 11:00 - 21:00 카페 오픈 시간,없음,010-3764-1024,노원구,서울특별시 노원구 동일로 1027 5층,서울특별시 노원구 동일로 1027,37.6218244042386,127.07388142738,카페애견카페노원구실내없음
구름뜬하늘,카페,애견카페,실내,월 : 11:00 - 22:00   화 : 정기휴무 (매주 화요일)   수 : 11:00 - 22:00   목 : 11:00 - 22:00   금 : 11:00 - 22:00   토 : (12/25) (성탄절)11:00 - 22:00,없음,02-3144-4978,마포구,서울특별시 마포구 와우산로27길 21 2층,서울특별시 마포구 와우산로27길 21,37.5541455231225,126.927100088212,카페애견카페마포구실내없음
퍼피앤커피,카페,애견카페,실내,매일 12:00 - 21:00 매주 수요일 휴일,없음,02-883-1143,관악구,서울특별시 관악구 신원로 40-16,서울특별시 관악구 신원로 40-16,37.4815193451441,126.929469476671,카페애견카페관악구실내없음
독특하개,카페,애견카페,실내,월14:00 - 새벽 00:00   화14:00 - 새벽 00:00   수14:00 - 새벽 00:00   목14:00 - 새벽 00:00   금14:00 - 새벽 00:00   토14:00 - 새벽 00:00,없음,070-7655-4550,관악구,서울특별시 관악구 신림동길 23-1 뉴코리아빌딩,서울특별시 관악구 신림동길 23-1,37.4868916578486,126.92616007342,카페애견카페관악구실내없음
개상전 애견카페,카페,애견카페,실내,월11:00 - 22:00   화11:00 - 22:00   수11:00 - 22:00   목11:00 - 22:00   금11:00 - 22:00   토12:00 - 22:00   일12:00 - 22:00,없음,070-4404-1212,은평구,서울특별시 은평구 통일로 727-5 3층,서울특별시 은평구 통일로 727-5,37.6102189534584,126.929201677938,카페애견카페은평구실내없음
커멍커멍,카페,애견카페,실내,평일 07:30 - 21:00 카페 마감 20:30 / 유치원 마감 21:00   주말 10:00 - 21:00 카페 마감 20:30 / 유치원 마감 21:00   공휴일 10:00 - 21:00 카페 마감 20:30 / 유치원 마감 21:00,없음,02-6013-5949,강서구,서울특별시 강서구 강서로 385 우성SB타워 10층,서울특별시 강서구 강서로 385,37.5600926354663,126.838304106686,카페애견카페강서구실내없음
카페 루,카페,애견카페,"실내,루프탑",매일 11:00 - 21:00,없음,02-443-5559,송파구,서울특별시 송파구 동남로29길 8-10 205호,서울특별시 송파구 동남로29길 8-10,37.5058022450145,127.138582568208,"카페애견카페송파구실내,루프탑없음"
전설의강아지,카페,애견카페,"실내,실외",매일 08:30 - 21:30,없음,010-5773-0515,강남구,서울특별시 강남구 선릉로115길 22,서울특별시 강남구 선릉로115길 22,37.5120175207314,127.041165565025,"카페애견카페강남구실내,실외없음"
반려문화,카페,애견카페,"실내,실외",매일 10:00 - 21:30   오후 10시 이후 방문 하시는 분은 매장으로 연락 부탁드립니다.,없음,02-2088-3375,강남구,서울특별시 강남구 언주로133길 23,서울특별시 강남구 언주로133길 23,37.515964147765,127.033289589747,"카페애견카페강남구실내,실외없음"
리리앤펫,카페,애견카페,실내,매일 09:00 - 22:00 놀이방&호텔 OPEN   매일 12:00 - 22:00 카페OPEN   수요일 휴무 빨간날은 정상영업 합니다:),없음,02-6368-4473,강북구,서울특별시 강북구 한천로131길 33 2층,서울특별시 강북구 한천로131길 33,37.6379253614354,127.026890682256,카페애견카페강북구실내없음
애니멀고파크,카페,애견카페,"실내,실외",매일 10:00 - 23:00, ,02-6204-5960,강남구,서울특별시 강남구 삼성로120길 36,서울특별시 강남구 삼성로120길 36,37.5181068807118,127.053888569463,"카페애견카페강남구실내,실외 "
포포앤미루,카페,애견카페,실내,화 : 정기휴무 (매주 화요일)   수 : 13:00 - 21:00   목 : 13:00 - 21:00   금 : 13:00 - 21:00   토 : 12:00 - 21:00   일 : 12:00 - 21:00   월 : 13:00 - 21:00,없음,02-471-8825,강동구,서울특별시 강동구 양재대로89가길 30 3층,서울특별시 강동구 양재대로89가길 30,37.5252688315044,127.134244601379,카페애견카페강동구실내없음
강아지대학로,카페,애견카페,실내,매일 13:00 - 20:30,없음,010-6899-2004,종로구,서울특별시 종로구 대학로12길 92 지하1층,서울특별시 종로구 대학로12길 92,37.5800977299727,127.003683535256,카페애견카페종로구실내없음
카페멍 목동점,카페,애견카페,실내,매일 12:00 ~ 22:00,없음,02-2644-1351,양천구,서울특별시 양천구 오목로 337-10 소망빌딩 5층,서울특별시 양천구 오목로 337-10,37.5252109797259,126.875367274981,카페애견카페양천구실내없음
강아지카페카페개네,카페,애견카페,실내,매일 12:00 - 21:00,없음,02-926-3004,성북구,서울특별시 성북구 보문로34길 80,서울특별시 성북구 보문로34길 80,37.5911724998583,127.019708253798,카페애견카페성북구실내없음
뭉스벨리,카페,애견카페,"실내,실외",화 : 12:00 - 22:00   수 : 12:00 - 22:00   목 : 12:00 - 22:00   금 : 12:00 - 22:00   토 : 11:00 - 22:00   일 : 11:00 - 22:00   월 : 정기휴무 (매주 월요일),없음,010-2900-8412,강동구,"서울특별시 강동구 천호대로 1045 2,3층",서울특별시 강동구 천호대로 1045,37.5374797088159,127.128433806181,"카페애견카페강동구실내,실외없음"
애견카페히릿 건대점,카페,애견카페,실내,매일 12:00 - 22:00,매너벨트,070-8870-4442,광진구,서울특별시 광진구 광나루로 404 3층,서울특별시 광진구 광나루로 404,37.5469693042433,127.074406105171,카페애견카페광진구실내매너벨트
써니네애견카페,카페,애견카페,실내,"매일 11:00 - 22:00 유치원, 호텔   매일 13:00 - 22:00 카페   목요일 13:00 - 19:00 미용",없음,02-334-3712,마포구,서울특별시 마포구 양화로18안길 16 3층,서울특별시 마포구 양화로18안길 16,37.5567218146471,126.925479511791,카페애견카페마포구실내없음
도그존,카페,애견카페,실내,월 : 12:00 - 21:00   화 : 정기휴무 (매주 화요일)   수 : 12:00 - 21:00   목 : 12:00 - 21:00   금 : 12:00 - 21:00   토 : 12:00 - 21:00   일 : 12:00 - 21:00,없음,070-7720-0427,송파구,서울특별시 송파구 올림픽로12길 28 2층,서울특별시 송파구 올림픽로12길 28,37.509107770087,127.08319079387,카페애견카페송파구실내없음
혼자두면장판뜯어서차린개카페,카페,애견카페,"실내,실외","매일 11:00 - 22:00 카페 연중무휴   매일 08:30 - 22:00 운동장.호텔,유치원,수영장,애견미용,훈련",없음,010-2400-9999,관악구,서울특별시 관악구 남부순환로 1665 3층,서울특별시 관악구 남부순환로 1665,37.4851215151689,126.935676078693,"카페애견카페관악구실내,실외없음"
다시사랑받개,카페,애견카페,실내,월 : 13:00 - 20:00   화 : 13:00 - 20:00   수 : 정기휴무 (매주 수요일)   목 : 13:00 - 20:00   금 : 13:00 - 20:00   토 : 13:00 - 20:00   일 : 13:00 - 20:00,없음,02-6958-6225,중랑구,서울특별시 중랑구 용마산로139나길 83 1층,서울특별시 중랑구 용마산로139나길 83,37.6189703386407,127.103603588851,카페애견카페중랑구실내없음
똥강아지카페,카페,애견카페,실내,월 : 정기휴무 (매주 월요일)   화 : 12:00 - 20:00   수 : 12:00 - 20:00   목 : 12:00 - 20:00   금 : 12:00 - 20:00   토 : 11:00 - 20:00   일 : 11:00 - 20:00,매너벨트,02-435-0722,중랑구,서울특별시 중랑구 용마산로 248 6층 601호,서울특별시 중랑구 용마산로 248,37.5752055633554,127.08848531425,카페애견카페중랑구실내매너벨트
테디랩,카페,브런치,"실외,테라스",매일 11:00 - 21:59 설/추석 이틀 휴무외 연중무휴    매일 11:00 - 21:00 식사가능한시간/식사마감시간,캐리어,070-8722-4441,양천구,서울특별시 양천구 신월로36길 11,서울특별시 양천구 신월로36길 11,37.5207116329363,126.85855788268,"카페브런치양천구실외,테라스캐리어"
코코샌드,카페,카페,"실내,루프탑",매일 12:00 - 22:00,"목줄,매너벨트",02-3144-1112,마포구,서울특별시 마포구 양화로23길 22-7 2층,서울특별시 마포구 양화로23길 22-7,37.559672616523,126.925252364024,"카페카페마포구실내,루프탑목줄,매너벨트"
데이즈커피,카페,카페,실내,"평일 10:30 - 17:30    주말, 공휴일휴무","캐리어,안기",02-782-5979,영등포구,서울특별시 영등포구 63로 36 (여의도동 61-5 리버타워) B1 데이즈커피,서울특별시 영등포구 63로 36,37.5194206669589,126.938610362668,"카페카페영등포구실내캐리어,안기"
카페 아리네,카페,카페,"실내,테라스",주말 12:00 - 23:00    평일 11:00 - 23:00,"목줄,매너벨트",02-2648-5735,양천구,서울특별시 양천구 목동동로 222-11,서울특별시 양천구 목동동로 222-11,37.525370422165,126.87271563263,"카페카페양천구실내,테라스목줄,매너벨트"
디저트라인업,카페,카페,"실내,실외",평일 09:00 - 21:00    주말 11:00 - 21:00,목줄,070-7704-9997,성북구,서울특별시 성북구 동소문로 304,서울특별시 성북구 동소문로 304,37.606911063533,127.028676924243,"카페카페성북구실내,실외목줄"
테라스461,카페,카페,"실내,테라스","평일 09:00 - 20:00    주말 09:00 - 17:00    공휴일 09:00 - 17:00, 1월1일/설날/추석 당일휴무","목줄,캐리어",070-8650-0328,종로구,서울특별시 종로구 홍지문길 7,서울특별시 종로구 홍지문길 7,37.6001506635689,126.956820966581,"카페카페종로구실내,테라스목줄,캐리어"
멍멍벅스,카페,애견카페,"실내,실외",매일 10:30 - 21:00 오후 8시 주문 마감    연중무휴,매너벨트,070-4512-3435,마포구,서울특별시 마포구 잔다리로6길 28-1,서울특별시 마포구 잔다리로6길 28-1,37.5520595260162,126.920660246035,"카페애견카페마포구실내,실외매너벨트"
슬라이스룸,카페,카페,"실내,테라스",매일 11:30 - 23:00    월요일 휴무,"목줄,매너벨트",070-7630-0603,마포구,서울특별시 마포구 와우산로3길 16,서울특별시 마포구 와우산로3길 16,37.5461389190988,126.922063811817,"카페카페마포구실내,테라스목줄,매너벨트"
그랜마,카페,카페,실내,"매일12:30-22:00 , 매주 월요일 휴무(유동적 휴무 인스타공지)","목줄,매너벨트",02-9192-0096,마포구,서울특별시 마포구 포은로 131 쁘띠보네르 1층,서울특별시 마포구 포은로 131,37.5584590522155,126.903605137603,"카페카페마포구실내목줄,매너벨트"
커피빈 위례2차아이파크점,카페,카페,"실내,실외",평일 08:30 - 21:00    주말 09:00 - 21:00    공휴일 09:00 - 21:00,"목줄,캐리어,매너벨트",02-449-9703,송파구,서울특별시 송파구 위례광장로 230,서울특별시 송파구 위례광장로 230,37.4786171055932,127.143758763103,"카페카페송파구실내,실외목줄,캐리어,매너벨트"
피알앤티,카페,카페,실내, ,목줄,010-8960-3826,종로구,서울특별시 종로구 종로 399 2층,서울특별시 종로구 종로 399,37.5751324174686,127.021582179101,카페카페종로구실내목줄
시월생,카페,카페,실내, ,"목줄,안기",010-8780-3516,종로구,서울특별시 종로구 동망산1길 2 1층,서울특별시 종로구 동망산1길 2,37.5795812685417,127.017724025278,"카페카페종로구실내목줄,안기"
바람이 살랑,카페,카페,실외, ,목줄,02-766-1013,종로구,서울특별시 종로구 창경궁로29길 35,서울특별시 종로구 창경궁로29길 35,37.584127899456,126.997242605731,카페카페종로구실외목줄
비스까미노,카페,카페,실외, ,목줄,010-5028-9272,종로구,서울특별시 종로구 창경궁로26길 4 2층,서울특별시 종로구 창경궁로26길 4,37.5818404686803,126.997781019335,카페카페종로구실외목줄
어웨이크커피바,카페,카페,실내, ,목줄,010-2746-0232,종로구,서울특별시 종로구 대학로14길 26-1 지층 전체,서울특별시 종로구 대학로14길 26-1,37.5845313656035,127.002697630377,카페카페종로구실내목줄
오후홍콩 대학로점,카페,카페,실내, ,목줄,02-741-2028,종로구,서울특별시 종로구 대학로9길 31-3,서울특별시 종로구 대학로9길 31-3,37.5817285860006,127.00017434822,카페카페종로구실내목줄
별달밤,카페,카페,실내, ,목줄,010-5094-2700,종로구,서울특별시 종로구 성균관로 38 1층,서울특별시 종로구 성균관로 38,37.5860306979657,126.996887025859,카페카페종로구실내목줄
보통의,카페,카페,실내, ,목줄,010-6410-2506,종로구,서울특별시 종로구 동숭길 51 1층,서울특별시 종로구 동숭길 51,37.5805564090189,127.004190744723,카페카페종로구실내목줄
카인드플레이트,카페,카페,실내, ,목줄,070-8887-1700,종로구,서울특별시 종로구 율곡로 182,서울특별시 종로구 율곡로 182,37.5757202128001,126.999006408203,카페카페종로구실내목줄
순라길 예카페 비비,카페,카페,실외, ,목줄,02-3672-1599,종로구,서울특별시 종로구 서순라길 55,서울특별시 종로구 서순라길 55,37.5729647679896,126.993008436931,카페카페종로구실외목줄
무위낙원,카페,카페,실내,월   Kitchen 11:30 - 22:00   21:00 라스트오더   Cafe 11:00 - 18:00      화   Kitchen 11:30 - 22:00   21:00 라스트오더   Cafe 11:00 - 18:00      수   Kitchen 11:30 - 22:00   21:00 라스트오더   Cafe 11:00 - 18:00      목   Kitchen 11:30 - 22:00   21:00 라스트오더   Cafe 11:00 - 18:00      금   Kitchen 11:30 - 22:00   21:00 라스트오더   Cafe 11:00 - 18:00      토   Kitchen 11:30 - 22:00   21:00 라스트오더   Cafe 11:00 - 18:00      일   Kitchen 정기휴무 (매주 일요일)   Cafe 정기휴무 (매주 일요일)      Kitchen - 휴무일이 일요일로 변경되었습니다.   Cafe - 휴무일이 일요일로 변경되었습니다.,목줄,02-766-3982,종로구,서울특별시 종로구 수표로28길 17-25,서울특별시 종로구 수표로28길 17-25,37.5734495100167,126.989459326549,카페카페종로구실내목줄
스테이지28 웁시데이지,카페,카페,"실내,실외",월 정기휴무 (매주 월요일)   화 11:00 - 19:00   수 11:00 - 19:00   목 11:00 - 19:00   금 11:00 - 19:00   토 11:00 - 20:00   일 11:00 - 20:00      7월 28일 ~ 7월 31일 행사 진행으로 인한 휴관,"목줄,매너벨트",02-3426-1928,강동구,서울특별시 강동구 아리수로61길 105,서울특별시 강동구 아리수로61길 105,37.5658263864307,127.146948672974,"카페카페강동구실내,실외목줄,매너벨트"
제이스킹커피 창덕궁점,카페,카페,실내, ,목줄,02-6013-0254,종로구,서울특별시 종로구 율곡로6길 11 미래빌딩,서울특별시 종로구 율곡로6길 11,37.5767893122135,126.989406781189,카페카페종로구실내목줄
커피살롱,카페,카페,실외, ,목줄,010-2796-5985,종로구,서울특별시 종로구 삼봉로 94 94빌딩 106호,서울특별시 종로구 삼봉로 94,37.5718380251248,126.982234115393,카페카페종로구실외목줄
카페퀸,카페,카페,실내, ,목줄,02-733-0729,종로구,서울특별시 종로구 종로1길 55-1,서울특별시 종로구 종로1길 55-1,37.5754387394796,126.9788261711,카페카페종로구실내목줄
에레스뚜,카페,카페,테라스, ,목줄,010-2371-8707,종로구,서울특별시 종로구 청계천로 35 관정빌딩 지하 1층,서울특별시 종로구 청계천로 35,37.5693392529284,126.981377714314,카페카페종로구테라스목줄
카페더한옥,카페,카페,실내, ,목줄,02-743-7470,종로구,서울특별시 종로구 계동길 75,서울특별시 종로구 계동길 75,37.5806604291322,126.986695496305,카페카페종로구실내목줄
실리그린,카페,카페,실내, ,목줄,02-6397-6144,종로구,서울특별시 종로구 계동길 59 1층,서울특별시 종로구 계동길 59,37.5799249383543,126.986611398644,카페카페종로구실내목줄
오니로,카페,카페,실내, ,목줄,010-9907-2629,종로구,서울특별시 종로구 송월길 99 2147호,서울특별시 종로구 송월길 99,37.5708610950823,126.962352257162,카페카페종로구실내목줄
다다 갤러리 카페,카페,카페,실내, ,"목줄,안기",02-379-0297,종로구,서울특별시 종로구 평창30길 15,서울특별시 종로구 평창30길 15,37.6111583873076,126.974738203986,"카페카페종로구실내목줄,안기"
카페디,카페,카페,실내, ,목줄,02-395-0522,종로구,서울특별시 종로구 평창30길 27 2F,서울특별시 종로구 평창30길 27,37.612363204004,126.974804619584,카페카페종로구실내목줄
순카페,카페,카페,테라스, ,목줄,02-397-6399,종로구,서울특별시 종로구 백석동1길 2,서울특별시 종로구 백석동1길 2,37.5942008489123,126.968388337436,카페카페종로구테라스목줄
에이커피 서울,카페,카페,실내, ,목줄,070-7757-0163,종로구,서울특별시 종로구 백석동1가길 19,서울특별시 종로구 백석동1가길 19,37.5940898710492,126.967157440947,카페카페종로구실내목줄
서궁 갤러리&카페,카페,카페,실내, ,목줄,0507-1336-9601,종로구,서울특별시 종로구 새문안로 35-20,서울특별시 종로구 새문안로 35-20,37.5687341049786,126.969149575894,카페카페종로구실내목줄
심플리커피,카페,카페,테라스, ,목줄,02-733-5123,종로구,서울특별시 종로구 경희궁1길 27,서울특별시 종로구 경희궁1길 27,37.5722266227219,126.969456149083,카페카페종로구테라스목줄
종로살롱,카페,카페,실내, ,목줄,010-3060-9964,종로구,서울특별시 종로구 자하문로2길 20 1층,서울특별시 종로구 자하문로2길 20,37.5763580976697,126.973803684339,카페카페종로구실내목줄
Say Something,카페,카페,실내, ,목줄,02-725-2271,종로구,서울특별시 종로구 자하문로10길 10-12,서울특별시 종로구 자하문로10길 10-12,37.5792485301031,126.972027775175,카페카페종로구실내목줄
오늘도다온치즈,카페,카페,실내, ,목줄,070-7720-7942,종로구,서울특별시 종로구 필운대로1길 16-1 1층,서울특별시 종로구 필운대로1길 16-1,37.5777653315768,126.968520946878,카페카페종로구실내목줄
서촌다방,카페,카페,실내, ,안기,02-733-6245,종로구,서울특별시 종로구 자하문로2길 3,서울특별시 종로구 자하문로2길 3,37.5766852207712,126.972881850637,카페카페종로구실내안기
와이엔,카페,카페,실내, ,목줄,02-735-6701,종로구,서울특별시 종로구 윤보선길 71 1층,서울특별시 종로구 윤보선길 71,37.5791818260863,126.983293367928,카페카페종로구실내목줄
가배도 삼청,카페,카페,실내, ,목줄,02-732-4542,종로구,서울특별시 종로구 북촌로5길 56-8,서울특별시 종로구 북촌로5길 56-8,37.5798949801764,126.982180011189,카페카페종로구실내목줄
덴고의 커피,카페,카페,실내, ,목줄,02-720-7279,종로구,서울특별시 종로구 자하문로 106 지하 1층,서울특별시 종로구 자하문로 106,37.5853766800391,126.970356412903,카페카페종로구실내목줄
스탠딩커피 궁정동점,카페,카페,실외, ,목줄,02-720-0427,종로구,서울특별시 종로구 효자로 107 1층,서울특별시 종로구 효자로 107,37.58363222647,126.97128524947,카페카페종로구실외목줄
황학동에서,카페,카페,실내, ,목줄,070-8865-8297,중구,서울특별시 중구 마장로9길 40,서울특별시 중구 마장로9길 40,37.5701852033397,127.019696949447,카페카페중구실내목줄
카페 의외의조합,카페,카페,실내, ,목줄,02-2235-3560,중구,서울특별시 중구 동호로17길 121 1층,서울특별시 중구 동호로17길 121,37.5538014111839,127.004624048572,카페카페중구실내목줄
스윙,카페,카페,실내, ,목줄,010-2818-3980,중구,서울특별시 중구 다산로 32 남산타운 제6상가,서울특별시 중구 다산로 32,37.5471667734011,127.005677166122,카페카페중구실내목줄
소담소담,카페,카페,실내, ,목줄,010-8685-8216,중구,서울특별시 중구 다산로36길 8,서울특별시 중구 다산로36길 8,37.5627641062645,127.015793302021,카페카페중구실내목줄
이유유 커피,카페,카페,실내, ,목줄,070-7543-0598,중구,서울특별시 중구 퇴계로88길 47 101호,서울특별시 중구 퇴계로88길 47,37.5634201472846,127.020337382265,카페카페중구실내목줄
호야 동대문점,카페,카페,실내, ,목줄,02-2234-1811,중구,서울특별시 중구 다산로24길 15 1층,서울특별시 중구 다산로24길 15,37.55792703618,127.013433217412,카페카페중구실내목줄
mwm,카페,카페,실내, ,목줄,070-7913-7407,중구,서울특별시 중구 수표로 35-1 4층,서울특별시 중구 수표로 35-1,37.5644291409644,126.989897046482,카페카페중구실내목줄
카페157,카페,카페,실내, ,목줄,02-766-4237,중구,서울특별시 중구 을지로 157 3층 가열 367호,서울특별시 중구 을지로 157,37.5671458986322,126.995451191045,카페카페중구실내목줄
add coffee,카페,카페,"실내,루프탑", ,목줄,070-4209-7272,중구,서울특별시 중구 을지로27길 29,서울특별시 중구 을지로27길 29,37.5681071643441,126.999001755251,"카페카페중구실내,루프탑목줄"
을지빈,카페,카페,실내, ,목줄,02-2278-8818,중구,서울특별시 중구 을지로14길 21 2층,서울특별시 중구 을지로14길 21,37.5652613866207,126.99221593401,카페카페중구실내목줄
베로나,카페,카페,실내, ,캐리어,02-2272-0228,중구,서울특별시 중구 충무로5길 24 은광빌딩 3층,서울특별시 중구 충무로5길 24,37.5654747820376,126.991483468848,카페카페중구실내캐리어
호텔수선화,카페,카페,실내, ,목줄,070-8950-2649,중구,서울특별시 중구 충무로7길 17 4층,서울특별시 중구 충무로7길 17,37.5656983321952,126.991666017038,카페카페중구실내목줄
하이데어,카페,카페,실외, ,목줄,010-8643-2648,중구,서울특별시 중구 수표로 54-1 1층,서울특별시 중구 수표로 54-1,37.5659717389883,126.989926493743,카페카페중구실외목줄
설빙 동대문점,카페,카페,테라스, ,목줄,02-2276-0992,중구,서울특별시 중구 을지로 254 타임캐슬 오피스텔,서울특별시 중구 을지로 254,37.565992994002,127.006297400517,카페카페중구테라스목줄
티프,카페,카페,실내, ,목줄,02-2273-8922,중구,서울특별시 중구 퇴계로53길 6-17 지하 1층,서울특별시 중구 퇴계로53길 6-17,37.5642510064518,127.00433040902,카페카페중구실내목줄
말베르크,카페,카페,테라스, ,목줄,02-2273-1999,중구,서울특별시 중구 동호로 264,서울특별시 중구 동호로 264,37.5593257007887,127.004526150375,카페카페중구테라스목줄
불독커피 충무로점,카페,카페,실내, ,목줄,010-5220-3201,중구,서울특별시 중구 마른내로2길 35,서울특별시 중구 마른내로2길 35,37.5630369528941,126.991435529624,카페카페중구실내목줄
분카샤충무로,카페,카페,실내, ,안기,070-8844-6947,중구,서울특별시 중구 퇴계로31길 16 우형빌딩 4층,서울특별시 중구 퇴계로31길 16,37.5618928437371,126.992405639826,카페카페중구실내안기
MAKING UNION,카페,카페,실내, ,"목줄,매너벨트",010-7419-7799,중구,서울특별시 중구 퇴계로36가길 89 1층,서울특별시 중구 퇴계로36가길 89,37.556409346602,126.995314675885,"카페카페중구실내목줄,매너벨트"
빠우,카페,베이커리,실외, ,목줄,02-2268-9285,중구,서울특별시 중구 을지로 157 대림상가 3층 라열 361호,서울특별시 중구 을지로 157,37.5671458986322,126.995451191045,카페베이커리중구실외목줄
카페 구할구,카페,카페,"실내,루프탑", ,목줄,02-3789-5953,중구,서울특별시 중구 퇴계로20길 73,서울특별시 중구 퇴계로20길 73,37.5582098185637,126.987008690101,"카페카페중구실내,루프탑목줄"
가배도 명동,카페,카페,실내, ,목줄,02-3789-4542,중구,서울특별시 중구 퇴계로18길 10 1층,서울특별시 중구 퇴계로18길 10,37.5604213517731,126.985029677959,카페카페중구실내목줄
다예쁘다,카페,카페,실내, ,목줄,010-2144-7155,용산구,서울특별시 용산구 보광로 57 1층,서울특별시 용산구 보광로 57,37.5289231703052,126.998114860273,카페카페용산구실내목줄
ROASTACHE,카페,카페,실내, ,목줄,010-6330-2546,용산구,서울특별시 용산구 우사단로10길 74,서울특별시 용산구 우사단로10길 74,37.5320451538748,126.999395277452,카페카페용산구실내목줄
Take c,카페,카페,실내, ,목줄,02-790-3397,용산구,서울특별시 용산구 대사관로12길 4-8,서울특별시 용산구 대사관로12길 4-8,37.5335715362552,127.001102439027,카페카페용산구실내목줄
웻커피,카페,카페,실내, ,목줄,02-6497-3000,용산구,서울특별시 용산구 한남대로27가길 10 지층,서울특별시 용산구 한남대로27가길 10,37.5376053693667,127.00315678424,카페카페용산구실내목줄
카페&펍 방학동안,카페,카페,실내,"매일 11:00 - 00:00 , 매주 월요일 휴무",목줄,02-3493-7070,도봉구,서울특별시 도봉구 도봉로143길 50 1층,서울특별시 도봉구 도봉로143길 50,37.6618952436445,127.039288288932,카페카페도봉구실내목줄
커피프레지던트,카페,카페,실내, ,목줄,02-797-3578,용산구,서울특별시 용산구 녹사평대로 252,서울특별시 용산구 녹사평대로 252,37.5400539533332,126.987638126559,카페카페용산구실내목줄
님부스커피,카페,카페,실내, ,목줄,02-796-7676,용산구,서울특별시 용산구 녹사평대로26가길 19 1층,서울특별시 용산구 녹사평대로26가길 19,37.5326394973629,126.992649705982,카페카페용산구실내목줄
민지카페,카페,카페,실내,매일 09:30 - 18:50,"목줄,매너벨트",070-4136-9962,광진구,"서울특별시 광진구 자양로 148 1층코너,민지카페",서울특별시 광진구 자양로 148,37.5407890837846,127.083688316592,"카페카페광진구실내목줄,매너벨트"
시온,카페,카페,실내, ,목줄,02-792-4688,용산구,서울특별시 용산구 한강대로7길 13,서울특별시 용산구 한강대로7길 13,37.5243263248753,126.962119309376,카페카페용산구실내목줄
파이드파이퍼,카페,카페,실내, ,목줄,02-2135-2174,용산구,서울특별시 용산구 한강대로14길 8 파크빌라트 1층,서울특별시 용산구 한강대로14길 8,37.5249348382773,126.96465927396,카페카페용산구실내목줄
커피 테르미니,카페,카페,실외, ,목줄,02-2012-0123,용산구,서울특별시 용산구 한강대로23길 55,서울특별시 용산구 한강대로23길 55,37.5297718014452,126.964741503485,카페카페용산구실외목줄
그라노반디,카페,카페,실내, ,목줄,010-7612-4262,용산구,서울특별시 용산구 한강대로40길 43 1층 102호,서울특별시 용산구 한강대로40길 43,37.530214258854,126.971680104428,카페카페용산구실내목줄
마이쥬스 신용산점,카페,카페,실내, ,목줄,02-797-8686,용산구,서울특별시 용산구 한강대로30길 25 지하1층 5호,서울특별시 용산구 한강대로30길 25,37.527358545339,126.968861735609,카페카페용산구실내목줄
에이셉커피,카페,카페,실내, ,목줄,02-794-4924,용산구,서울특별시 용산구 한강대로30길 25 지하1층 상가 113호,서울특별시 용산구 한강대로30길 25,37.527358545339,126.968861735609,카페카페용산구실내목줄
엣파니니,카페,카페,실내, ,목줄,02-2071-8877,용산구,서울특별시 용산구 한강대로 205 용산파크자이 D동 103호,서울특별시 용산구 한강대로 205,37.5366835309492,126.972808655459,카페카페용산구실내목줄
로스트앤파운드,카페,카페,실외, ,목줄,070-4115-4721,용산구,서울특별시 용산구 효창원로 36,서울특별시 용산구 효창원로 36,37.5352218153876,126.953184231393,카페카페용산구실외목줄
카페로찌,카페,카페,실내, ,목줄,02-706-4036,용산구,서울특별시 용산구 원효로19길 7 1층,서울특별시 용산구 원효로19길 7,37.5330689592107,126.952271862319,카페카페용산구실내목줄
테이블스 용산점,카페,베이커리,테라스, ,목줄,070-4417-1478,용산구,서울특별시 용산구 원효로 103-3,서울특별시 용산구 원효로 103-3,37.5326178889298,126.955186945802,카페베이커리용산구테라스목줄
외계인방앗간 원효점,카페,베이커리,실내, ,목줄,02-713-4111,용산구,서울특별시 용산구 백범로90길 90,서울특별시 용산구 백범로90길 90,37.5377465400136,126.96883309004,카페베이커리용산구실내목줄
TOLSWIZ,카페,카페,실내, ,목줄,010-8761-6189,용산구,서울특별시 용산구 원효로53길 30 1층,서울특별시 용산구 원효로53길 30,37.5370380067583,126.962100547264,카페카페용산구실내목줄
카페 아임히어,카페,카페,실내, ,안기,0505-314-0415,용산구,서울특별시 용산구 백범로 326 1층,서울특별시 용산구 백범로 326,37.5381475977271,126.965051091005,카페카페용산구실내안기
도렐 육지2호점,카페,카페,실내, ,목줄,02-6365-3675,용산구,서울특별시 용산구 한강대로 100 아모레퍼시픽빌딩 지하1층 B104,서울특별시 용산구 한강대로 100,37.5287911785354,126.968673565462,카페카페용산구실내목줄
로지커피,카페,카페,실내, ,안기,02-6013-8020,용산구,서울특별시 용산구 백범로87길 48-5,서울특별시 용산구 백범로87길 48-5,37.5393086630391,126.969403163196,카페카페용산구실내안기
만리서재,카페,카페,실내, ,목줄,02-780-8416,용산구,서울특별시 용산구 청파로93길 42,서울특별시 용산구 청파로93길 42,37.553903753324,126.966696031349,카페카페용산구실내목줄
카페틸데,카페,카페,실내, ,목줄,010-9057-0857,용산구,서울특별시 용산구 청파로43가길 23 1층,서울특별시 용산구 청파로43가길 23,37.5441065383456,126.968571314841,카페카페용산구실내목줄
카페 퓨엔테,카페,카페,실내, ,목줄,010-8098-2945,용산구,서울특별시 용산구 청파로43길 53,서울특별시 용산구 청파로43길 53,37.5438809783162,126.967754989945,카페카페용산구실내목줄
슬로우슬로우,카페,카페,실내, ,목줄,010-4676-5061,용산구,서울특별시 용산구 청파로49길 17,서울특별시 용산구 청파로49길 17,37.5452280370322,126.969351633562,카페카페용산구실내목줄
청파맨션,카페,카페,실내, ,목줄,02-706-9093,용산구,서울특별시 용산구 청파로47나길 20,서울특별시 용산구 청파로47나길 20,37.545672267803,126.96714802792,카페카페용산구실내목줄
mtl 효창,카페,카페,실내, ,목줄,070-4259-3113,용산구,서울특별시 용산구 효창원로69길 25 1층,서울특별시 용산구 효창원로69길 25,37.5420315889369,126.960902218055,카페카페용산구실내목줄
카페미우,카페,카페,실내, ,목줄,02-813-0315,용산구,서울특별시 용산구 새창로14길 7 1층,서울특별시 용산구 새창로14길 7,37.539184966822,126.958516265438,카페카페용산구실내목줄
쿱,카페,카페,실내, ,목줄,010-7774-5990,용산구,서울특별시 용산구 새창로12길 3 1층,서울특별시 용산구 새창로12길 3,37.5392992193551,126.958022533315,카페카페용산구실내목줄
AUZ,카페,브런치,실내, ,목줄,02-704-8685,용산구,서울특별시 용산구 백범로 341 103동 110호,서울특별시 용산구 백범로 341,37.5379386735674,126.967973433167,카페브런치용산구실내목줄
펍스테이,카페,카페,실내, ,목줄,010-3844-2862,용산구,서울특별시 용산구 한강대로84길 11 2층,서울특별시 용산구 한강대로84길 11,37.5437593477568,126.973175991705,카페카페용산구실내목줄
N214,카페,카페,"실내,테라스", ,목줄,010-9770-9194,용산구,서울특별시 용산구 한강대로44길 17 코너,서울특별시 용산구 한강대로44길 17,37.5308838782411,126.970918557557,"카페카페용산구실내,테라스목줄"
헬카페 스피리터스,카페,카페,실내, ,목줄,070-7612-4687,용산구,서울특별시 용산구 이촌로 248 한강맨션 31동 208호,서울특별시 용산구 이촌로 248,37.5193865878083,126.975025954742,카페카페용산구실내목줄
카페올리버,카페,카페,실내, ,목줄,010-4159-3630,용산구,서울특별시 용산구 소월로20길 36-1,서울특별시 용산구 소월로20길 36-1,37.5449496109419,126.985169579744,카페카페용산구실내목줄
풀리쉬랩,카페,카페,실내, ,목줄,010-2370-1488,용산구,서울특별시 용산구 신흥로 82,서울특별시 용산구 신흥로 82,37.5453800657045,126.986308431121,카페카페용산구실내목줄
머드거트,카페,카페,실내, ,목줄,070-8770-1223,용산구,서울특별시 용산구 소월로20길 55 1층,서울특별시 용산구 소월로20길 55,37.5441482758217,126.984572952289,카페카페용산구실내목줄
르시앙블랑,카페,베이커리,실내, ,목줄,070-7720-1211,용산구,서울특별시 용산구 신흥로2길 7,서울특별시 용산구 신흥로2길 7,37.5403570561997,126.986863561032,카페베이커리용산구실내목줄
글래드유케임,카페,카페,실내, ,목줄,010-8913-0621,용산구,서울특별시 용산구 신흥로 111 1층,서울특별시 용산구 신흥로 111,37.5446300689176,126.983454296031,카페카페용산구실내목줄
론드리프로젝트,카페,카페,실내, ,목줄,02-6405-8488,용산구,서울특별시 용산구 신흥로 78,서울특별시 용산구 신흥로 78,37.5450444648795,126.986494071011,카페카페용산구실내목줄
드도트,카페,카페,실내, ,목줄,02-794-2419,용산구,서울특별시 용산구 신흥로2길 78 1층,서울특별시 용산구 신흥로2길 78,37.5432345302185,126.988103120655,카페카페용산구실내목줄
미암미암,카페,카페,실내, ,목줄,02-715-9905,용산구,"서울특별시 용산구 신흥로9길 4 도로변 1층, 왼쪽매장",서울특별시 용산구 신흥로9길 4,37.5426532220492,126.987396000426,카페카페용산구실내목줄
코타티,카페,카페,실내, ,"목줄,입마개",070-4042-0228,용산구,서울특별시 용산구 신흥로12길 7,서울특별시 용산구 신흥로12길 7,37.5434749237785,126.988171767697,"카페카페용산구실내목줄,입마개"
르몽블랑,카페,카페,실내, ,목줄,070-8887-8200,용산구,서울특별시 용산구 신흥로 99-4 1층,서울특별시 용산구 신흥로 99-4,37.5449087560253,126.984857160188,카페카페용산구실내목줄
꾸에바마테라,카페,카페,실내, ,목줄,010-9793-7999,용산구,서울특별시 용산구 소월로20길 28-1 1층,서울특별시 용산구 소월로20길 28-1,37.545278391182,126.985214438332,카페카페용산구실내목줄
바이두부,카페,카페,실내, ,목줄,070-8228-7019,용산구,서울특별시 용산구 소월로20길 10,서울특별시 용산구 소월로20길 10,37.5460884761907,126.9851880254,카페카페용산구실내목줄
카페무자기,카페,카페,실내, ,목줄,010-5549-9383,용산구,서울특별시 용산구 신흥로26길 35 1층,서울특별시 용산구 신흥로26길 35,37.5453628880082,126.984383275318,카페카페용산구실내목줄
Sunday arvo,카페,브런치,실내, ,목줄,010-5748-3399,용산구,서울특별시 용산구 회나무로13길 52-43,서울특별시 용산구 회나무로13길 52-43,37.5416168634483,126.991025652868,카페브런치용산구실내목줄
카페길,카페,카페,실내, ,목줄,070-5029-3323,용산구,서울특별시 용산구 두텁바위로 89 1층,서울특별시 용산구 두텁바위로 89,37.5472465558602,126.981533828915,카페카페용산구실내목줄
카페우리다,카페,카페,실내, ,목줄,070-8886-1210,용산구,서울특별시 용산구 후암로35길 43,서울특별시 용산구 후암로35길 43,37.5495702596205,126.97615839598,카페카페용산구실내목줄
마모에,카페,카페,실내, ,목줄,070-4009-8857,용산구,서울특별시 용산구 두텁바위로 137 1층,서울특별시 용산구 두텁바위로 137,37.5512856202564,126.981392844786,카페카페용산구실내목줄
곰발커피,카페,카페,실내, ,목줄,02-779-0428,용산구,서울특별시 용산구 두텁바위로 81,서울특별시 용산구 두텁바위로 81,37.5467108990839,126.980886458683,카페카페용산구실내목줄
REDLEAF coffeefactory,카페,카페,실내, ,목줄,010-4519-9007,용산구,서울특별시 용산구 후암로28길 27 코오롱빌라 1층,서울특별시 용산구 후암로28길 27,37.5498176557706,126.978904601616,카페카페용산구실내목줄
시트러스테이블,카페,카페,실내, ,목줄,02-318-8415,용산구,서울특별시 용산구 두텁바위로 155 1층,서울특별시 용산구 두텁바위로 155,37.5516947946646,126.979932314116,카페카페용산구실내목줄
카페후암동,카페,카페,실내, ,목줄,010-2251-8232,용산구,서울특별시 용산구 후암로 33,서울특별시 용산구 후암로 33,37.5487441293903,126.977512657052,카페카페용산구실내목줄
더모놀로그하우스,카페,카페,실내, ,목줄,02-512-7106,용산구,서울특별시 용산구 두텁바위로 111,서울특별시 용산구 두텁바위로 111,37.5488243717498,126.982032603186,카페카페용산구실내목줄
테라커피,카페,카페,실내, ,목줄,02-465-3121,성동구,서울특별시 성동구 동일로 257-1,서울특별시 성동구 동일로 257-1,37.5546924494772,127.070792725606,카페카페성동구실내목줄
309디저트카페,카페,카페,실내, ,목줄,02-466-3330,성동구,서울특별시 성동구 성수이로7길 24 1층,서울특별시 성동구 성수이로7길 24,37.5414819536223,127.054409368737,카페카페성동구실내목줄
에이투비,카페,카페,실내, ,목줄,070-4617-0812,성동구,서울특별시 성동구 아차산로 135,서울특별시 성동구 아차산로 135,37.543943278508,127.058966929236,카페카페성동구실내목줄
오프커피,카페,카페,"실내,실외", ,목줄,010-3004-0039,성동구,서울특별시 성동구 연무장길 29-17 1층,서울특별시 성동구 연무장길 29-17,37.5436134200835,127.052683033927,"카페카페성동구실내,실외목줄"
높은산,카페,카페,실외, ,목줄,010-6835-8194,성동구,서울특별시 성동구 성수이로 18-1,서울특별시 성동구 성수이로 18-1,37.5368538169921,127.054147582198,카페카페성동구실외목줄
카페소울,카페,카페,실내, ,안기,02-6081-8882,성동구,서울특별시 성동구 둘레15길 11 1층,서울특별시 성동구 둘레15길 11,37.5357683880949,127.055492527354,카페카페성동구실내안기
BNHR,카페,카페,실내, ,목줄,070-4175-6118,성동구,서울특별시 성동구 연무장5길 9-16 1층,서울특별시 성동구 연무장5길 9-16,37.5444391065296,127.052659059956,카페카페성동구실내목줄
Time After Time,카페,카페,실내, ,목줄,070-8891-9629,성동구,서울특별시 성동구 연무장길 28-16,서울특별시 성동구 연무장길 28-16,37.5429884153028,127.052235746965,카페카페성동구실내목줄
무브모브,카페,카페,실내, ,캐리어,02-466-0878,성동구,서울특별시 성동구 성수일로 56,서울특별시 성동구 성수일로 56,37.5453378366353,127.050426404604,카페카페성동구실내캐리어
헬로헬씨,카페,카페,실내, ,목줄,02-6326-8696,성동구,서울특별시 성동구 성수일로10가길 4 1층 102호,서울특별시 성동구 성수일로10가길 4,37.5479982706213,127.051963127254,카페카페성동구실내목줄
어페어 커피,카페,카페,실내, ,목줄,02-6338-7005,성동구,서울특별시 성동구 성수이로6길 11 1층,서울특별시 성동구 성수이로6길 11,37.5366959969402,127.055045839393,카페카페성동구실내목줄
카페 봇봇봇,카페,카페,실외, ,"목줄,입마개",02-499-9219,성동구,서울특별시 성동구 아차산로9길 8,서울특별시 성동구 아차산로9길 8,37.5447608658296,127.058198896433,"카페카페성동구실외목줄,입마개"
BBC,카페,카페,실내, ,목줄,02-6339-5528,성동구,서울특별시 성동구 뚝섬로 413 1층,서울특별시 성동구 뚝섬로 413,37.5386039419808,127.056410108166,카페카페성동구실내목줄
인덱스카라멜,카페,카페,실내, ,안기,02-790-8399,성동구,서울특별시 성동구 성수이로14길 14 1층,서울특별시 성동구 성수이로14길 14,37.5414076146252,127.056908279292,카페카페성동구실내안기
도렐 육지3호점,카페,카페,실내, ,목줄,02-516-3675,성동구,서울특별시 성동구 연무장7길 11 1층,서울특별시 성동구 연무장7길 11,37.5437897702564,127.054416929987,카페카페성동구실내목줄
비비비커피,카페,카페,"실내,실외", ,목줄,010-7193-7656,성동구,서울특별시 성동구 성덕정3길 8 1층,서울특별시 성동구 성덕정3길 8,37.5395599858903,127.047631685043,"카페카페성동구실내,실외목줄"
엘라,카페,카페,실내, ,목줄,010-6835-1963,성동구,서울특별시 성동구 왕십리로4길 26-18 1.5층,서울특별시 성동구 왕십리로4길 26-18,37.5468327717281,127.046935510347,카페카페성동구실내목줄
camouflage coffee,카페,카페,실내, ,목줄,010-5350-1530,성동구,서울특별시 성동구 아차산로1길 9,서울특별시 성동구 아차산로1길 9,37.5489909714797,127.045691271981,카페카페성동구실내목줄
과일파는 덕이언니,카페,카페,실내, ,목줄,010-9233-9899,성동구,서울특별시 성동구 성수일로 47,서울특별시 성동구 성수일로 47,37.5447366238279,127.049518252952,카페카페성동구실내목줄
erolpa,카페,카페,실내, ,목줄,070-8821-4965,성동구,서울특별시 성동구 둘레7길 15 1층,서울특별시 성동구 둘레7길 15,37.5380343644151,127.049069492189,카페카페성동구실내목줄
El Patio,카페,카페,실내, ,목줄,070-8822-5628,성동구,서울특별시 성동구 연무장길 10-5,서울특별시 성동구 연무장길 10-5,37.5436736241723,127.050582796187,카페카페성동구실내목줄
커피오스,카페,카페,실내, ,목줄,02-462-7140,성동구,서울특별시 성동구 성수일로3길 1,서울특별시 성동구 성수일로3길 1,37.5419980959228,127.048505872125,카페카페성동구실내목줄
구욱희씨,카페,베이커리,"실내,루프탑", ,안기,070-4282-7799,성동구,"서울특별시 성동구 서울숲4길 12-22 1, 2층",서울특별시 성동구 서울숲4길 12-22,37.5471102929153,127.041867667242,"카페베이커리성동구실내,루프탑안기"
카페시트러스페이퍼,카페,카페,실내, ,목줄,02-2291-1941,성동구,서울특별시 성동구 독서당로 194-1 1층3호,서울특별시 성동구 독서당로 194-1,37.5427838495073,127.012766737323,카페카페성동구실내목줄
코페아커피 옥수점,카페,카페,실외, ,목줄,02-2295-6553,성동구,서울특별시 성동구 독서당로 168,서울특별시 성동구 독서당로 168,37.5408496346983,127.011382906693,카페카페성동구실외목줄
랑데자뷰 약수점,카페,카페,실내, ,목줄,070-7797-3344,중구,서울특별시 중구 동호로 222,서울특별시 중구 동호로 222,37.5577028404842,127.008976728688,카페카페중구실내목줄
커피그래,카페,카페,실내, ,목줄,0507-1348-1256,중구,서울특별시 중구 동호로 204,서울특별시 중구 동호로 204,37.5562803595797,127.009929714685,카페카페중구실내목줄
힘들땐 마카롱,카페,카페,실내, ,목줄,02-2231-3516,중구,서울특별시 중구 다산로12길 21,서울특별시 중구 다산로12길 21,37.5554967897236,127.012485180008,카페카페중구실내목줄
오프셋커피,카페,카페,실내, ,안기,070-8790-2650,중구,서울특별시 중구 다산로20길 7,서울특별시 중구 다산로20길 7,37.5573773323971,127.012666236278,카페카페중구실내안기
하이디하우스,카페,카페,"실내,테라스", ,목줄,02-2233-4107,중구,서울특별시 중구 다산로14길 17,서울특별시 중구 다산로14길 17,37.5559723399868,127.012449835838,"카페카페중구실내,테라스목줄"
도도네케이크,카페,카페,실내, ,목줄,010-8950-3035,성동구,서울특별시 성동구 금호로 102 벽산하이피아프라자 5층 506호,서울특별시 성동구 금호로 102,37.5516094238096,127.026272753093,카페카페성동구실내목줄
폰슨비,카페,카페,실내, ,목줄,010-8931-9234,성동구,서울특별시 성동구 독서당로51길 22-1 1층,서울특별시 성동구 독서당로51길 22-1,37.5500944080967,127.026617149023,카페카페성동구실내목줄
별미양과점,카페,카페,실내, ,안기,010-5291-3673,성동구,서울특별시 성동구 금호로 84 1층,서울특별시 성동구 금호로 84,37.550836555625,127.025827511581,카페카페성동구실내안기
BELOW SEONGSOO,카페,카페,실내, ,목줄,0507-1327-9148,성동구,서울특별시 성동구 서울숲4길 16-10 지하 1층,서울특별시 성동구 서울숲4길 16-10,37.5472387637578,127.042405140398,카페카페성동구실내목줄
파인와플,카페,카페,실내, ,목줄,02-6015-1616,성동구,서울특별시 성동구 서울숲4길 16-1 1층,서울특별시 성동구 서울숲4길 16-1,37.5472991417658,127.042624593839,카페카페성동구실내목줄
어라운드데이,카페,카페,실내, ,목줄,010-9116-3695,성동구,서울특별시 성동구 서울숲2길 24-1,서울특별시 성동구 서울숲2길 24-1,37.5468696659429,127.041271064288,카페카페성동구실내목줄
업사이드커피 뚝섬점,카페,카페,실내, ,목줄,070-8802-7579,성동구,서울특별시 성동구 왕십리로14길 19-1,서울특별시 성동구 왕십리로14길 19-1,37.548771040745,127.045915766793,카페카페성동구실내목줄
JOFREE CAKE,카페,베이커리,실내, ,목줄,010-8938-6925,성동구,서울특별시 성동구 성덕정길 42 1층,서울특별시 성동구 성덕정길 42,37.5385417763184,127.048271227571,카페베이커리성동구실내목줄
&meal,카페,브런치,실내,매일 11:00 - 20:00   19:00 라스트오더,목줄,070-8888-0919,성동구,서울특별시 성동구 연무장3길 5-1 3층,서울특별시 성동구 연무장3길 5-1,37.5442347899887,127.051363388679,카페브런치성동구실내목줄
인더매스 마장,카페,카페,실내, ,목줄,02-6084-8996,성동구,서울특별시 성동구 마장로 270,서울특별시 성동구 마장로 270,37.5655440076255,127.039967923778,카페카페성동구실내목줄
밀버슈,카페,베이커리,실내, ,목줄,010-4530-5960,성동구,서울특별시 성동구 무학봉21길 9 1층,서울특별시 성동구 무학봉21길 9,37.5622716952079,127.03090944427,카페베이커리성동구실내목줄
cafe lazes,카페,카페,실내, ,안기,010-2421-4658,성동구,서울특별시 성동구 왕십리로 410 센트라스상가A동 102호,서울특별시 성동구 왕십리로 410,37.566590498762,127.02408246322,카페카페성동구실내안기
커먼센스커피,카페,카페,실내, ,목줄,010-8815-8412,성동구,서울특별시 성동구 왕십리로 410 i동 127호,서울특별시 성동구 왕십리로 410,37.566590498762,127.02408246322,카페카페성동구실내목줄
두번째마카롱,카페,베이커리,실내, ,목줄,010-4338-4817,성동구,서울특별시 성동구 무학봉15길 24 1층,서울특별시 성동구 무학봉15길 24,37.5632457753019,127.030513925049,카페베이커리성동구실내목줄
로쿠커피,카페,카페,실내, ,목줄,010-8475-3737,광진구,서울특별시 광진구 군자로15길 14 1층,서울특별시 광진구 군자로15길 14,37.5540595664789,127.073483678467,카페카페광진구실내목줄
서울230,카페,카페,실내, ,목줄,010-9931-9045,광진구,서울특별시 광진구 군자로2길 4 1층,서울특별시 광진구 군자로2길 4,37.5443720656556,127.071817443075,카페카페광진구실내목줄
Mau,카페,카페,실내, ,목줄,010-9850-7499,광진구,서울특별시 광진구 능동로13길 77,서울특별시 광진구 능동로13길 77,37.5450150953489,127.068813726604,카페카페광진구실내목줄
인서트카페,카페,카페,실내, ,목줄,010-3129-1067,광진구,서울특별시 광진구 군자로7길 25,서울특별시 광진구 군자로7길 25,37.545679094259,127.06918606285,카페카페광진구실내목줄
모지니,카페,카페,실내, ,"캐리어,안기",010-6690-9015,광진구,서울특별시 광진구 군자로5길 22 1층,서울특별시 광진구 군자로5길 22,37.5451066907273,127.069643935709,"카페카페광진구실내캐리어,안기"
카페롱,카페,카페,실내, ,목줄,02-466-4255,광진구,서울특별시 광진구 광나루로 360,서울특별시 광진구 광나루로 360,37.5478712285124,127.069943670777,카페카페광진구실내목줄
키랩보드게임카페 건대본점,카페,카페,실내, ,캐리어,070-8098-7300,광진구,서울특별시 광진구 아차산로33길 49,서울특별시 광진구 아차산로33길 49,37.5425081932103,127.070731415702,카페카페광진구실내캐리어
카페 26,카페,카페,"실내,루프탑", ,목줄,070-8672-3050,광진구,서울특별시 광진구 능동로17길 34 2F카페 / 6F루프탑라운지,서울특별시 광진구 능동로17길 34,37.5468668556548,127.071646135283,"카페카페광진구실내,루프탑목줄"
에스페란자로스터즈,카페,카페,"실내,실외","매일 11:00 - 18:00, 월요일 휴무, 대관문의환영",목줄,070-8837-1105,서대문구,서울특별시 서대문구 증가로4길 58-15 1층. 2층,서울특별시 서대문구 증가로4길 58-15,37.5774983402087,126.928715201852,"카페카페서대문구실내,실외목줄"
카페704호,카페,카페,실내, ,목줄,010-4424-3860,광진구,서울특별시 광진구 아차산로41길 44 서경빌딩 1층,서울특별시 광진구 아차산로41길 44,37.5386377265114,127.077406428913,카페카페광진구실내목줄
케이크라움,카페,베이커리,실내, ,목줄,010-2206-8140,광진구,서울특별시 광진구 광나루로 416 1층,서울특별시 광진구 광나루로 416,37.5464634577966,127.075581558515,카페베이커리광진구실내목줄
Six Degrees Coffee,카페,카페,실내, ,안기,02-6954-0161,광진구,서울특별시 광진구 동일로2길 38 1층,서울특별시 광진구 동일로2길 38,37.5346407218008,127.062305096626,카페카페광진구실내안기
브링미커피 자양점,카페,카페,실내, ,캐리어,070-7633-2870,광진구,서울특별시 광진구 자양번영로 19 1층,서울특별시 광진구 자양번영로 19,37.5313872650085,127.074922593307,카페카페광진구실내캐리어
리버커피,카페,카페,실외, ,목줄,02-730-4143,광진구,서울특별시 광진구 아차산로78길 90 1층,서울특별시 광진구 아차산로78길 90,37.5510729137918,127.110615495296,카페카페광진구실외목줄
카페드노보,카페,브런치,실외, ,목줄,010-7133-1537,광진구,서울특별시 광진구 아차산로78길 157,서울특별시 광진구 아차산로78길 157,37.5481442758361,127.10910226182,카페브런치광진구실외목줄
37.5 광진직영점,카페,브런치,실외, ,목줄,02-453-3705,광진구,서울특별시 광진구 아차산로76가길 5 1층,서울특별시 광진구 아차산로76가길 5,37.547200140874,127.107606257434,카페브런치광진구실외목줄
오늘도내일도,카페,카페,실내, ,목줄,02-455-9511,광진구,서울특별시 광진구 아차산로 403-6,서울특별시 광진구 아차산로 403-6,37.537876883982,127.087403177727,카페카페광진구실내목줄
메이로즈마카롱,카페,카페,실내, ,목줄,010-8188-2121,광진구,서울특별시 광진구 자양로 261 1층,서울특별시 광진구 자양로 261,37.5496014296147,127.090010143854,카페카페광진구실내목줄
천계월,카페,카페,실내, ,목줄,010-5752-3394,광진구,서울특별시 광진구 자양로42길 20 1층,서울특별시 광진구 자양로42길 20,37.5488619737844,127.091076158864,카페카페광진구실내목줄
펠어커피 구의점,카페,카페,실내, ,목줄,070-7702-0053,광진구,서울특별시 광진구 아차산로59길 63 1층,서울특별시 광진구 아차산로59길 63,37.5412462144611,127.090810605355,카페카페광진구실내목줄
92도,카페,카페,테라스, ,목줄,02-2201-2292,광진구,서울특별시 광진구 천호대로110길 40,서울특별시 광진구 천호대로110길 40,37.5555154421542,127.079266120299,카페카페광진구테라스목줄
커피에반하다 중곡제일점,카페,카페,실내, ,목줄,070-7732-3659,광진구,서울특별시 광진구 면목로 117 101호,서울특별시 광진구 면목로 117,37.5640684989952,127.080089783997,카페카페광진구실내목줄
델리롱,카페,카페,실내, ,"안기,매너벨트",010-9203-4628,광진구,서울특별시 광진구 능동로48길 77 1층,서울특별시 광진구 능동로48길 77,37.5621182014859,127.086845878089,"카페카페광진구실내안기,매너벨트"
번트시에나,카페,카페,실내, ,안기,02-6368-9095,광진구,서울특별시 광진구 동일로66길 14 1층,서울특별시 광진구 동일로66길 14,37.5615109758673,127.075930871529,카페카페광진구실내안기
카페 알틴,카페,카페,실내, ,목줄,02-468-4201,광진구,서울특별시 광진구 능동로 420-1 1층,서울특별시 광진구 능동로 420-1,37.5664370682999,127.084818339907,카페카페광진구실내목줄
카페반창고,카페,카페,실내, ,목줄,02-969-4254,동대문구,서울특별시 동대문구 경희대로1가길 18,서울특별시 동대문구 경희대로1가길 18,37.5925718992695,127.051665171662,카페카페동대문구실내목줄
카페 브레멘,카페,카페,실내, ,목줄,010-7375-8182,동대문구,서울특별시 동대문구 왕산로 293,서울특별시 동대문구 왕산로 293,37.586746104594,127.052026168391,카페카페동대문구실내목줄
비바라비다,카페,카페,실내, ,안기,010-2093-1980,동대문구,서울특별시 동대문구 천호대로81길 32,서울특별시 동대문구 천호대로81길 32,37.5637127456497,127.064565399575,카페카페동대문구실내안기
바르다펫 장안점,카페,카페,실내, ,목줄,070-7799-8956,동대문구,서울특별시 동대문구 사가정로25길 41 상가 1층,서울특별시 동대문구 사가정로25길 41,37.5808570174676,127.070614390155,카페카페동대문구실내목줄
톤톤,카페,카페,테라스, ,목줄,010-7749-3343,동대문구,서울특별시 동대문구 답십리로63길 11 1층,서울특별시 동대문구 답십리로63길 11,37.5732473399371,127.06795503536,카페카페동대문구테라스목줄
올데이 베이커리,카페,베이커리,실내, ,안기,02-3394-5370,동대문구,서울특별시 동대문구 천호대로91길 42 1층,서울특별시 동대문구 천호대로91길 42,37.5633956352828,127.069722643262,카페베이커리동대문구실내안기
이야기Café,카페,카페,실내, ,목줄,010-9733-5799,동대문구,서울특별시 동대문구 전농로3길 106 1층,서울특별시 동대문구 전농로3길 106,37.5724740194887,127.056118008205,카페카페동대문구실내목줄
호매호,카페,카페,실내, ,목줄,02-3390-2113,동대문구,서울특별시 동대문구 답십리로 173-1,서울특별시 동대문구 답십리로 173-1,37.5730122839201,127.059590593209,카페카페동대문구실내목줄
문인커피,카페,카페,실내, ,목줄,070-4210-0061,동대문구,서울특별시 동대문구 서울시립대로2길 68 1층,서울특별시 동대문구 서울시립대로2길 68,37.5723757873438,127.049310601955,카페카페동대문구실내목줄
프리카페,카페,카페,실내, ,목줄,070-8824-1004,동대문구,서울특별시 동대문구 답십리로48길 76 1층,서울특별시 동대문구 답십리로48길 76,37.5693750740252,127.057558232717,카페카페동대문구실내목줄
너디블루,카페,카페,실내, ,목줄,010-4402-1310,동대문구,서울특별시 동대문구 전농로36길 9 1층 1호,서울특별시 동대문구 전농로36길 9,37.5854270100329,127.052929075367,카페카페동대문구실내목줄
우더스커피바,카페,카페,실내, ,목줄,010-8930-2831,동대문구,서울특별시 동대문구 천호대로37길 11,서울특별시 동대문구 천호대로37길 11,37.5737572272043,127.041489433295,카페카페동대문구실내목줄
카페림,카페,카페,실내, ,목줄,02-968-1497,동대문구,서울특별시 동대문구 천호대로27길 8-2,서울특별시 동대문구 천호대로27길 8-2,37.5744942285265,127.03748599462,카페카페동대문구실내목줄
숲속카페,카페,카페,실내, ,목줄,010-2606-7265,중랑구,서울특별시 중랑구 신내로7가길 10-14,서울특별시 중랑구 신내로7가길 10-14,37.6030488092907,127.095344827972,카페카페중랑구실내목줄
커파코너,카페,카페,실내, ,캐리어,02-6448-2369,중랑구,서울특별시 중랑구 망우로72길 16 1층,서울특별시 중랑구 망우로72길 16,37.5994225994207,127.10243501933,카페카페중랑구실내캐리어
카페다온,카페,카페,실내, ,목줄,010-4560-7789,중랑구,서울특별시 중랑구 용마산로 458,서울특별시 중랑구 용마산로 458,37.5919203036137,127.09842652337,카페카페중랑구실내목줄
달달행행복행,카페,베이커리,실내, ,목줄,02-977-0909,중랑구,서울특별시 중랑구 공릉로12가길 63 1층,서울특별시 중랑구 공릉로12가길 63,37.6180150473355,127.082810093478,카페베이커리중랑구실내목줄
커피앤바복길이,카페,카페,실내, ,안기,070-7590-8528,중랑구,서울특별시 중랑구 봉화산로4길 62,서울특별시 중랑구 봉화산로4길 62,37.5991534504971,127.075161711419,카페카페중랑구실내안기
슈가버터,카페,카페,실내, ,목줄,02-6212-1119,중랑구,서울특별시 중랑구 송림길 5 1층,서울특별시 중랑구 송림길 5,37.5993659587079,127.095186801431,카페카페중랑구실내목줄
소년커피,카페,카페,실내, ,안기,010-9342-0085,중랑구,서울특별시 중랑구 면목로92길 7,서울특별시 중랑구 면목로92길 7,37.5949128072129,127.08640749136,카페카페중랑구실내안기
빈스로드,카페,카페,실외, ,목줄,010-7672-7072,중랑구,서울특별시 중랑구 봉화산로 111,서울특별시 중랑구 봉화산로 111,37.6029563732548,127.086569561723,카페카페중랑구실외목줄
이디야커피 동원사거리점,카페,카페,테라스, ,목줄,02-432-6717,중랑구,서울특별시 중랑구 겸재로 240 행복오피스텔 1층 102호,서울특별시 중랑구 겸재로 240,37.5896366083419,127.09416998992,카페카페중랑구테라스목줄
카페1호기,카페,카페,실내,영업시간 매일 11:00 - 22:00,"목줄,매너벨트",070-8844-1338,강북구,서울특별시 강북구 월계로7길 5 1층,서울특별시 강북구 월계로7길 5,37.6105580095109,127.032460875503,"카페카페강북구실내목줄,매너벨트"
루앤비카페,카페,카페,테라스,매일11:00~22:00 (동절기),목줄,010-3803-6218,강북구,서울특별시 강북구 도봉로102길 70,서울특별시 강북구 도봉로102길 70,37.6402043480085,127.03312695505,카페카페강북구테라스목줄
닭봉씨 창동점,카페,카페,실내, ,목줄,02-900-7004,도봉구,서울특별시 도봉구 덕릉로60가길 59,서울특별시 도봉구 덕릉로60가길 59,37.637160920633,127.038718519036,카페카페도봉구실내목줄
호일카페,카페,카페,실내, ,목줄,070-7773-9022,중랑구,서울특별시 중랑구 용마산로90길 22 1층,서울특별시 중랑구 용마산로90길 22,37.5874949542105,127.097165971708,카페카페중랑구실내목줄
셀렉토커피 돌곶이역스타점,카페,카페,실내, ,안기,010-2474-4292,성북구,서울특별시 성북구 화랑로 248 장위뉴타워 1층,서울특별시 성북구 화랑로 248,37.61040549645,127.056906221867,카페카페성북구실내안기
카페연,카페,카페,실내, ,목줄,010-6666-5683,성북구,서울특별시 성북구 화랑로19길 70-14 1층,서울특별시 성북구 화랑로19길 70-14,37.6090209959448,127.051087058228,카페카페성북구실내목줄
메이븐커피,카페,카페,실내, ,목줄,02-923-4197,성북구,서울특별시 성북구 북악산로31길 34,서울특별시 성북구 북악산로31길 34,37.594039305223,127.035103888551,카페카페성북구실내목줄
카페 오드마인드,카페,카페,실내, ,목줄,070-8868-3582,성북구,서울특별시 성북구 월곡로18나길 1,서울특별시 성북구 월곡로18나길 1,37.601584861729,127.042680120042,카페카페성북구실내목줄
카페그냥그냥,카페,카페,실외, ,목줄,02-943-1579,성북구,서울특별시 성북구 아리랑로5길 151,서울특별시 성북구 아리랑로5길 151,37.6006488049648,127.011150919393,카페카페성북구실외목줄
오감공간,카페,카페,실내, ,목줄,010-5015-6698,성북구,서울특별시 성북구 정릉로38다길 34 1층,서울특별시 성북구 정릉로38다길 34,37.6017172519212,127.016797282149,카페카페성북구실내목줄
감구당,카페,카페,실내, ,목줄,010-9016-1290,성북구,서울특별시 성북구 보국문로 71 1층,서울특별시 성북구 보국문로 71,37.6107341399266,127.008862706554,카페카페성북구실내목줄
KINFOLKS COFFEE,카페,카페,"실내,테라스", ,"목줄,캐리어",02-943-7920,성북구,서울특별시 성북구 보국문로 87-22,서울특별시 성북구 보국문로 87-22,37.6118294542651,127.007845773011,"카페카페성북구실내,테라스목줄,캐리어"
팬도로시 고려대점,카페,카페,테라스, ,목줄,02-923-5999,성북구,서울특별시 성북구 안암로 145 고려대학교내 타이거프라자 2층,서울특별시 성북구 안암로 145,37.5887034223667,127.031698331241,카페카페성북구테라스목줄
데클렌 커피,카페,카페,실내, ,목줄,02-922-6247,성북구,서울특별시 성북구 보문로14길 25,서울특별시 성북구 보문로14길 25,37.5807204467281,127.023605185169,카페카페성북구실내목줄
스틸커피,카페,카페,실내, ,목줄,010-5099-7018,성북구,서울특별시 성북구 고려대로8길 23 서울 성북구 고려대로8길 23,서울특별시 성북구 고려대로8길 23,37.5848810678081,127.02165450904,카페카페성북구실내목줄
히든폼,카페,카페,실내, ,목줄,010-4296-0042,성북구,서울특별시 성북구 고려대로8길 73 1층,서울특별시 성북구 고려대로8길 73,37.5827004131059,127.022514195143,카페카페성북구실내목줄
스스쿠,카페,베이커리,실내, ,목줄,070-8833-3167,성북구,서울특별시 성북구 고려대로11길 65 1층 101호,서울특별시 성북구 고려대로11길 65,37.5888717948008,127.020363440247,카페베이커리성북구실내목줄
레인커피,카페,카페,"실내,실외", ,목줄,02-6368-1109,성북구,서울특별시 성북구 고려대로7길 70 1층,서울특별시 성북구 고려대로7길 70,37.5886947445383,127.019322639959,"카페카페성북구실내,실외목줄"
유즈리스어덜트,카페,카페,실내, ,"목줄,입마개",010-6255-7003,성북구,서울특별시 성북구 보문로18길 25 1층,서울특별시 성북구 보문로18길 25,37.5824751472675,127.022605604426,"카페카페성북구실내목줄,입마개"
카페오영,카페,카페,실내, ,목줄,010-4932-8910,성북구,서울특별시 성북구 동소문로26가길 39,서울특별시 성북구 동소문로26가길 39,37.5949547826357,127.021215592023,카페카페성북구실내목줄
디스러프,카페,카페,실내, ,목줄,010-8962-8657,성북구,서울특별시 성북구 보문로32길 84 지하 1층,서울특별시 성북구 보문로32길 84,37.5904043121311,127.020769434273,카페카페성북구실내목줄
카페 뮬,카페,카페,실내, ,목줄,02-6084-6083,성북구,서울특별시 성북구 동소문로22길 64,서울특별시 성북구 동소문로22길 64,37.5902711600642,127.01851608532,카페카페성북구실내목줄
카페b,카페,카페,실내, ,목줄,02-921-7797,성북구,서울특별시 성북구 보문로30길 71,서울특별시 성북구 보문로30길 71,37.5906268820981,127.019569294105,카페카페성북구실내목줄
디프 커피,카페,카페,실내, ,안기,010-5385-2890,성북구,서울특별시 성북구 동소문로26가길 56 1층,서울특별시 성북구 동소문로26가길 56,37.5950080860552,127.021902027076,카페카페성북구실내안기
유목커피바,카페,카페,실내, ,목줄,010-2738-3690,성북구,서울특별시 성북구 동소문로24길 47 2층,서울특별시 성북구 동소문로24길 47,37.5916111674719,127.018758612199,카페카페성북구실내목줄
파도의숲,카페,카페,실내, ,목줄,010-2332-2754,성북구,서울특별시 성북구 삼선교로24길 40 1층,서울특별시 성북구 삼선교로24길 40,37.5884068776111,127.016339133094,카페카페성북구실내목줄
Bright Side,카페,카페,실내, ,"목줄,입마개",010-7565-1780,종로구,서울특별시 종로구 보문로7길 3,서울특별시 종로구 보문로7길 3,37.5776809956028,127.022882983847,"카페카페종로구실내목줄,입마개"
루틴,카페,카페,실내, ,목줄,02-6489-4589,성북구,서울특별시 성북구 보문로34가길 6 1층,서울특별시 성북구 보문로34가길 6,37.5917100512356,127.02012677392,카페카페성북구실내목줄
바른마카롱,카페,베이커리,실내, ,목줄,070-8864-0206,성북구,서울특별시 성북구 성북로14길 10,서울특별시 성북구 성북로14길 10,37.5938296301826,127.00143135888,카페베이커리성북구실내목줄
패밀리앤프렌즈,카페,카페,실내, ,목줄,010-6341-3574,성북구,서울특별시 성북구 삼선교로14길 37 1층,서울특별시 성북구 삼선교로14길 37,37.5865432139381,127.0104248835,카페카페성북구실내목줄
샌드위치 하우스,카페,베이커리,실내, ,안기,02-928-8450,성북구,서울특별시 성북구 보문로34가길 2,서울특별시 성북구 보문로34가길 2,37.5915745505929,127.02007646418,카페베이커리성북구실내안기
피알디,카페,카페,실내, ,"목줄,매너벨트",010-6720-1378,성북구,서울특별시 성북구 동소문로25길 9 휴림빌딩 1층 101호,서울특별시 성북구 동소문로25길 9,37.5947006539761,127.018277355763,"카페카페성북구실내목줄,매너벨트"
카페 디터틀,카페,카페,실내, ,목줄,02-3674-0294,성북구,서울특별시 성북구 성북로6길 12 2층 204호,서울특별시 성북구 성북로6길 12,37.589962738726,127.005152897104,카페카페성북구실내목줄
서울노마드,카페,카페,실내, ,목줄,02-921-8049,성북구,서울특별시 성북구 동소문로11길 5,서울특별시 성북구 동소문로11길 5,37.59158439691,127.011908421274,카페카페성북구실내목줄
네이버후드,카페,카페,실내, ,목줄,02-747-6730,성북구,서울특별시 성북구 대사관로 133 1층,서울특별시 성북구 대사관로 133,37.6007186974551,126.995125389196,카페카페성북구실내목줄
혜화문아래,카페,카페,테라스, ,"목줄,입마개",02-733-9901,성북구,서울특별시 성북구 창경궁로43길 16,서울특별시 성북구 창경궁로43길 16,37.5887095796741,127.004375982887,"카페카페성북구테라스목줄,입마개"
에이머그,카페,카페,실내, ,목줄,02-6953-2629,강북구,서울특별시 강북구 노해로 21 1층,서울특별시 강북구 노해로 21,37.6375550451078,127.022654231485,카페카페강북구실내목줄
카페평화,카페,카페,실외, ,목줄,010-3302-6263,강북구,서울특별시 강북구 4.19로25길 13 1층,서울특별시 강북구 4.19로25길 13,37.6435738140797,127.00463731247,카페카페강북구실외목줄
스파웃커피,카페,카페,실내, ,목줄,010-6697-5576,강북구,서울특별시 강북구 노해로33길 49 1층,서울특별시 강북구 노해로33길 49,37.6467208178818,127.021864626315,카페카페강북구실내목줄
키치,카페,카페,실내, ,목줄,070-8244-0030,강북구,서울특별시 강북구 도봉로 387 1층,서울특별시 강북구 도봉로 387,37.6415059261581,127.028957387424,카페카페강북구실내목줄
더달다 카페,카페,베이커리,실내, ,안기,010-3489-0190,강북구,서울특별시 강북구 4.19로21길 18,서울특별시 강북구 4.19로21길 18,37.6444626807156,127.005652383245,카페베이커리강북구실내안기
수유리조트,카페,카페,실내, ,목줄,02-990-9882,강북구,서울특별시 강북구 노해로8가길 45,서울특별시 강북구 노해로8가길 45,37.6400949731655,127.023313738434,카페카페강북구실내목줄
카페앤제이,카페,카페,테라스, ,목줄,02-987-1253,강북구,서울특별시 강북구 한천로109길 3,서울특별시 강북구 한천로109길 3,37.6284570581872,127.043812914652,카페카페강북구테라스목줄
컴 폴 커피,카페,카페,실내, ,목줄,010-6832-9199,강북구,서울특별시 강북구 덕릉로 130 1층,서울특별시 강북구 덕릉로 130,37.6348393905176,127.028078473772,카페카페강북구실내목줄
유월보름,카페,카페,실내, ,목줄,070-4184-0615,강북구,서울특별시 강북구 도봉로29길 16 1층,서울특별시 강북구 도봉로29길 16,37.6206113797538,127.027273760959,카페카페강북구실내목줄
카페 라온,카페,카페,실내, ,목줄,02-987-0831,강북구,서울특별시 강북구 오패산로 114 스톤브릭 1층,서울특별시 강북구 오패산로 114,37.6121106839964,127.034983152442,카페카페강북구실내목줄
카페문나잇,카페,카페,실내, ,목줄,070-4046-0915,강북구,서울특별시 강북구 솔매로50길 7,서울특별시 강북구 솔매로50길 7,37.6261374342953,127.027145394168,카페카페강북구실내목줄
하루당,카페,카페,"실내,테라스", ,목줄,010-8430-2830,강북구,서울특별시 강북구 솔매로 122,서울특별시 강북구 솔매로 122,37.6260019963182,127.025621499096,"카페카페강북구실내,테라스목줄"
매로우,카페,카페,실내, ,목줄,010-6352-1038,도봉구,서울특별시 도봉구 덕릉로60다길 34,서울특별시 도봉구 덕릉로60다길 34,37.6375974116228,127.039101692242,카페카페도봉구실내목줄
카페7179,카페,카페,실내, ,목줄,010-9870-9717,도봉구,서울특별시 도봉구 도봉로110길 97 1층,서울특별시 도봉구 도봉로110길 97,37.6466251594706,127.038904843121,카페카페도봉구실내목줄
카페 그리너리티,카페,카페,실내, ,안기,010-2514-6469,도봉구,서울특별시 도봉구 노해로62길 80 1층,서울특별시 도봉구 노해로62길 80,37.6477780105225,127.038500349394,카페카페도봉구실내안기
키웨스트 연산군묘점,카페,카페,테라스, ,목줄,02-562-3356,도봉구,서울특별시 도봉구 방학로17길 85,서울특별시 도봉구 방학로17길 85,37.6625911377783,127.021068789412,카페카페도봉구테라스목줄
다니맘,카페,카페,"실내,루프탑","평일&주말 11:00 - 21:00 , 매주 화요일 휴무",목줄,010-9090-9507,노원구,서울특별시 노원구 한글비석로23길 26 1층 다니맘,서울특별시 노원구 한글비석로23길 26,37.6596933667112,127.071016521764,"카페카페노원구실내,루프탑목줄"
제이제곱 카페,카페,카페,실내,"매일 12:00 - 22:00 , 매주 월요일 휴무",매너벨트,010-4883-4249,강북구,서울특별시 강북구 도봉로10나길 17,서울특별시 강북구 도봉로10나길 17,37.6138476704708,127.031574446147,카페카페강북구실내매너벨트
하루당,카페,카페,"실내,테라스","매일 10:00 - 22:00 , 매주 월요일 휴무",목줄,010-8430-2830,강북구,서울특별시 강북구 솔매로 122,서울특별시 강북구 솔매로 122,37.6260019963182,127.025621499096,"카페카페강북구실내,테라스목줄"
카페 에덴,카페,카페,실외, ,없음,02-3491-3331,도봉구,서울특별시 도봉구 방학로 306,서울특별시 도봉구 방학로 306,37.6629452194212,127.018399818212,카페카페도봉구실외없음
스위트가든,카페,브런치,실외, ,목줄,02-900-1232,도봉구,서울특별시 도봉구 방학로5길 16,서울특별시 도봉구 방학로5길 16,37.6619651176903,127.037479501312,카페브런치도봉구실외목줄
카페아크,카페,카페,테라스, ,목줄,02-903-9193,도봉구,서울특별시 도봉구 시루봉로6길 53 쌍문동현대아파트상가,서울특별시 도봉구 시루봉로6길 53,37.659417638339,127.030083486611,카페카페도봉구테라스목줄
달콤Pick,카페,카페,실내, ,목줄,02-907-2701,도봉구,서울특별시 도봉구 방학로5길 44,서울특별시 도봉구 방학로5길 44,37.6607902615593,127.037688236855,카페카페도봉구실내목줄
휘드카페,카페,카페,테라스, ,목줄,02-990-7333,도봉구,서울특별시 도봉구 방학로3길 127,서울특별시 도봉구 방학로3길 127,37.6576962362706,127.038414580981,카페카페도봉구테라스목줄
커피배우다,카페,카페,실내, ,목줄,010-4643-5712,도봉구,서울특별시 도봉구 삼양로142길 7 1층,서울특별시 도봉구 삼양로142길 7,37.6506031169017,127.013765369064,카페카페도봉구실내목줄
마이림,카페,카페,실내, ,목줄,010-2031-7967,도봉구,서울특별시 도봉구 우이천로34길 13 1층,서울특별시 도봉구 우이천로34길 13,37.6497678790671,127.023148600407,카페카페도봉구실내목줄
카페티끌,카페,카페,실내, ,캐리어,010-7477-5772,도봉구,서울특별시 도봉구 노해로 235,서울특별시 도봉구 노해로 235,37.651387570315,127.034278368247,카페카페도봉구실내캐리어
우리행성,카페,카페,실외, ,"목줄,입마개",02-933-1214,노원구,서울특별시 노원구 노원로32길 42-22,서울특별시 노원구 노원로32길 42-22,37.6554956974038,127.069495215021,"카페카페노원구실외목줄,입마개"
케슬리,카페,카페,실외, ,목줄,02-933-8537,노원구,서울특별시 노원구 상계로1길 74 113호,서울특별시 노원구 상계로1길 74,37.6594431769139,127.061532290521,카페카페노원구실외목줄
요거프레소 노원문화점,카페,카페,실내, ,목줄,070-8959-3391,노원구,서울특별시 노원구 상계로 113,서울특별시 노원구 상계로 113,37.6575962570969,127.067302118777,카페카페노원구실내목줄
케어프리,카페,카페,실내, ,목줄,070-7808-2018,노원구,서울특별시 노원구 동일로242가길 14-6 1층,서울특별시 노원구 동일로242가길 14-6,37.6763595712798,127.056031225597,카페카페노원구실내목줄
빵순희,카페,카페,실내, ,목줄,070-4415-9747,노원구,"서울특별시 노원구 중계로 195 동진,신안아파트 상가 1층 102호",서울특별시 노원구 중계로 195,37.6495870762085,127.078912843722,카페카페노원구실내목줄
시즌,카페,카페,실내, ,목줄,010-8769-7050,노원구,서울특별시 노원구 상계로3길 38-2 2층,서울특별시 노원구 상계로3길 38-2,37.6578690741966,127.062725135159,카페카페노원구실내목줄
502세컨즈카페,카페,카페,실내, ,목줄,070-4465-7996,노원구,서울특별시 노원구 섬밭로 232 우성아파트,서울특별시 노원구 섬밭로 232,37.6366151651829,127.065668150406,카페카페노원구실내목줄
이너모스트,카페,카페,실내, ,목줄,010-8737-5593,노원구,서울특별시 노원구 동일로183길 12-14,서울특별시 노원구 동일로183길 12-14,37.6238261377722,127.072996110339,카페카페노원구실내목줄
카페밤비,카페,카페,실외, ,목줄,010-3207-2773,은평구,서울특별시 은평구 연서로44길 55 426동 상가,서울특별시 은평구 연서로44길 55,37.6276515409663,126.936495053805,카페카페은평구실외목줄
스윗인,카페,카페,실내, ,목줄,02-356-9096,은평구,서울특별시 은평구 진관2로 77 우물골상가 206동 B112호,서울특별시 은평구 진관2로 77,37.634569572388,126.926834884276,카페카페은평구실내목줄
라파엘스,카페,카페,실내, ,안기,070-7576-2564,은평구,서울특별시 은평구 통일로 1030 은평헤스티아1차 B106호,서울특별시 은평구 통일로 1030,37.6341922549283,126.917695482942,카페카페은평구실내안기
지브릭커피,카페,카페,실외, ,목줄,02-517-1474,은평구,서울특별시 은평구 연서로48길 12 은평뉴타운제각말아파트,서울특별시 은평구 연서로48길 12,37.6371422182011,126.935928308893,카페카페은평구실외목줄
카페볼가심,카페,카페,테라스, ,목줄,02-356-3631,은평구,서울특별시 은평구 진관길 10 1층,서울특별시 은평구 진관길 10,37.6419025092799,126.939568882339,카페카페은평구테라스목줄
YM ESPRESSO ROOM,카페,카페,실내, ,목줄,010-4176-0301,은평구,서울특별시 은평구 진관3로 43-9 래미안 909동 1층 상가 101호,서울특별시 은평구 진관3로 43-9,37.6406673263033,126.920399781789,카페카페은평구실내목줄
풍경A,카페,카페,실내, ,목줄,070-8270-1717,은평구,서울특별시 은평구 가좌로 334 상가 10호,서울특별시 은평구 가좌로 334,37.5981158955891,126.908770078234,카페카페은평구실내목줄
hoffen coffee,카페,카페,실내, ,목줄,010-5304-8017,은평구,서울특별시 은평구 역말로 50-1 1층,서울특별시 은평구 역말로 50-1,37.6056891330913,126.916130308086,카페카페은평구실내목줄
빈트리,카페,카페,실내, ,목줄,010-3712-1773,은평구,서울특별시 은평구 백련산로 83,서울특별시 은평구 백련산로 83,37.5931412066472,126.92285295282,카페카페은평구실내목줄
필구커피,카페,카페,실내, ,목줄,02-2135-2180,은평구,서울특별시 은평구 불광천길 442-29 1층,서울특별시 은평구 불광천길 442-29,37.593002412493,126.91555325981,카페카페은평구실내목줄
응암동커피,카페,카페,실내, ,목줄,010-9926-9325,은평구,서울특별시 은평구 가좌로 212-10 1층,서울특별시 은평구 가좌로 212-10,37.589636244469,126.918672224668,카페카페은평구실내목줄
앤슬로,카페,카페,실내, ,목줄,010-3232-4318,은평구,서울특별시 은평구 응암로 206 2층,서울특별시 은평구 응암로 206,37.590381100419,126.917511977835,카페카페은평구실내목줄
미미샌드위치 앤 커피,카페,카페,실내, ,목줄,02-356-9599,은평구,서울특별시 은평구 통일로73길 28-1 1층 2호,서울특별시 은평구 통일로73길 28-1,37.6147010680827,126.921458615862,카페카페은평구실내목줄
이연,카페,카페,실내, ,목줄,010-3669-5780,은평구,서울특별시 은평구 통일로71길 24-17 1층,서울특별시 은평구 통일로71길 24-17,37.6124734218056,126.926281404616,카페카페은평구실내목줄
카페 달력,카페,카페,실내, ,목줄,070-7376-0910,은평구,서울특별시 은평구 연서로18길 28-2,서울특별시 은평구 연서로18길 28-2,37.6119702832228,126.920548394343,카페카페은평구실내목줄
공음,카페,카페,실내, ,목줄,070-7576-3264,은평구,서울특별시 은평구 통일로68길 14 1층,서울특별시 은평구 통일로68길 14,37.612553944182,126.930088100956,카페카페은평구실내목줄
피포유 카페,카페,베이커리,실내, ,목줄,010-8523-6888,은평구,서울특별시 은평구 통일로 630 상가동 1층 114호,서울특별시 은평구 통일로 630,37.6028449679876,126.935955809882,카페베이커리은평구실내목줄
디저트솜,카페,카페,"실내,테라스", ,목줄,070-7677-9988,은평구,서울특별시 은평구 은평로21길 6 1층,서울특별시 은평구 은평로21길 6,37.6015731551376,126.933556484541,"카페카페은평구실내,테라스목줄"
녹음커피바,카페,카페,실내, ,"목줄,안기",010-3159-4232,은평구,서울특별시 은평구 녹번로6길 5-24,서울특별시 은평구 녹번로6길 5-24,37.6064794476502,126.932360271175,"카페카페은평구실내목줄,안기"
flot,카페,카페,실내, ,목줄,02-355-4862,은평구,서울특별시 은평구 서오릉로 20-1,서울특별시 은평구 서오릉로 20-1,37.6030880027218,126.926293837797,카페카페은평구실내목줄
커피사피엔스 가재울점,카페,카페,실내, ,목줄,010-8312-3914,서대문구,서울특별시 서대문구 거북골로 120 DMC센트레빌아파트 상가1동 지하2층 B1-2호,서울특별시 서대문구 거북골로 120,37.5754832622486,126.916097519773,카페카페서대문구실내목줄
모과나무카페,카페,카페,실내, ,목줄,02-302-9952,서대문구,서울특별시 서대문구 모래내로 231,서울특별시 서대문구 모래내로 231,37.5748018,126.9244912,카페카페서대문구실내목줄
앵두네과자점,카페,카페,실내, ,목줄,070-7576-3710,서대문구,서울특별시 서대문구 증가로10길 70-8 1층,서울특별시 서대문구 증가로10길 70-8,37.5794656541728,126.925781082377,카페카페서대문구실내목줄
slowly,카페,카페,실내, ,목줄,070-7545-0693,서대문구,서울특별시 서대문구 통일로 392 1층,서울특별시 서대문구 통일로 392,37.5849343149835,126.948629832086,카페카페서대문구실내목줄
더그커피바,카페,카페,실내, ,목줄,010-5185-4758,서대문구,서울특별시 서대문구 세검정로 52-10 101호,서울특별시 서대문구 세검정로 52-10,37.5920951495349,126.946636272711,카페카페서대문구실내목줄
이알커피,카페,카페,실내, ,목줄,010-3463-1105,서대문구,서울특별시 서대문구 홍연길 80 1층,서울특별시 서대문구 홍연길 80,37.5764562255178,126.930947128691,카페카페서대문구실내목줄
모그커피,카페,카페,실내, ,목줄,010-4650-0629,서대문구,서울특별시 서대문구 연희맛로 31-10,서울특별시 서대문구 연희맛로 31-10,37.5681834346943,126.930425591055,카페카페서대문구실내목줄
라우터커피,카페,카페,실내, ,목줄,070-4226-0815,서대문구,서울특별시 서대문구 연희로11마길 12,서울특별시 서대문구 연희로11마길 12,37.5690018837641,126.927996029512,카페카페서대문구실내목줄
래핑폭스,카페,카페,실내, ,목줄,02-6401-2999,서대문구,서울특별시 서대문구 연희로11나길 5 1층,서울특별시 서대문구 연희로11나길 5,37.5674939052014,126.928321095761,카페카페서대문구실내목줄
Coloured Bean,카페,카페,실내, ,목줄,010-4515-4887,서대문구,서울특별시 서대문구 연희로11가길 8-8,서울특별시 서대문구 연희로11가길 8-8,37.5681403334702,126.92900698906,카페카페서대문구실내목줄
디폴트벨류,카페,카페,실내, ,목줄,02-2293-3889,서대문구,서울특별시 서대문구 성산로 333 1층,서울특별시 서대문구 성산로 333,37.5661857885447,126.927353106836,카페카페서대문구실내목줄
행복감,카페,카페,실내, ,"목줄,매너벨트",02-6052-5380,서대문구,서울특별시 서대문구 연희로11가길 51,서울특별시 서대문구 연희로11가길 51,37.5663487192763,126.927549672526,"카페카페서대문구실내목줄,매너벨트"
tuuli,카페,카페,실내, ,목줄,02-6351-1510,서대문구,서울특별시 서대문구 홍제천로 198,서울특별시 서대문구 홍제천로 198,37.5790483013869,126.93492256137,카페카페서대문구실내목줄
앤트러사이트 연희점,카페,카페,실내, ,목줄,02-332-7650,서대문구,서울특별시 서대문구 연희로 135,서울특별시 서대문구 연희로 135,37.569692917452,126.932837275639,카페카페서대문구실내목줄
sum,카페,카페,실내, ,목줄,010-6222-4196,서대문구,서울특별시 서대문구 성산로 553 동문빌딩,서울특별시 서대문구 성산로 553,37.5655213101938,126.945815828127,카페카페서대문구실내목줄
양카페플랜트,카페,카페,실내, ,목줄,02-733-9504,종로구,서울특별시 종로구 사직로 94 1층,서울특별시 종로구 사직로 94,37.5757290279448,126.96933359027,카페카페종로구실내목줄
veganique,카페,카페,실내, ,목줄,010-4518-8290,서대문구,서울특별시 서대문구 이화여대길 52-35,서울특별시 서대문구 이화여대길 52-35,37.5594662219774,126.944968311694,카페카페서대문구실내목줄
휘겔리,카페,브런치,테라스, ,목줄,070-4193-4833,종로구,서울특별시 종로구 사직로8길 24 상가 102호,서울특별시 종로구 사직로8길 24,37.573974191655,126.971246734085,카페브런치종로구테라스목줄
북한산제빵소 광화문점,카페,베이커리,테라스, ,목줄,070-8833-3546,종로구,서울특별시 종로구 경희궁2길 10,서울특별시 종로구 경희궁2길 10,37.5727880372533,126.971268698044,카페베이커리종로구테라스목줄
사직커피,카페,카페,실내, ,목줄,070-8845-3527,종로구,서울특별시 종로구 사직로 49-4,서울특별시 종로구 사직로 49-4,37.573822596381,126.965057405972,카페카페종로구실내목줄
소이로움,카페,카페,실내, ,목줄,02-586-8088,종로구,서울특별시 종로구 필운대로 41 1층,서울특별시 종로구 필운대로 41,37.5797102352623,126.968588280528,카페카페종로구실내목줄
풍류관,카페,카페,실내, ,목줄,010-7923-0006,종로구,서울특별시 종로구 필운대로5나길 20-12 1층,서울특별시 종로구 필운대로5나길 20-12,37.5802745815836,126.967456726676,카페카페종로구실내목줄
우아시스 카페,카페,카페,실내, ,목줄,070-7779-5052,서대문구,서울특별시 서대문구 신촌로27길 39-2,서울특별시 서대문구 신촌로27길 39-2,37.557454092006,126.949135587737,카페카페서대문구실내목줄
레이첼티 카페,카페,카페,실내, ,목줄,010-7327-7771,서대문구,서울특별시 서대문구 북아현로1길 50 푸르지오 상가2동 1층 206호,서울특별시 서대문구 북아현로1길 50,37.559690000903,126.952811165218,카페카페서대문구실내목줄
커피 스니퍼,카페,카페,실내, ,목줄,02-3789-1781,중구,서울특별시 중구 세종대로16길 27 남양빌딩 1층 102호,서울특별시 중구 세종대로16길 27,37.5633801958494,126.978436944374,카페카페중구실내목줄
시엠프레꼬모도밍고,카페,카페,실내, ,목줄,070-4150-0123,용산구,서울특별시 용산구 후암로34길 11,서울특별시 용산구 후암로34길 11,37.5513111267722,126.977791521742,카페카페용산구실내목줄
풀오브파운드,카페,카페,실내, ,목줄,02-720-4009,종로구,서울특별시 종로구 사직로12길 1-2,서울특별시 종로구 사직로12길 1-2,37.5756071537762,126.971244294961,카페카페종로구실내목줄
내자상회,카페,카페,실내, ,목줄,070-7755-0142,종로구,서울특별시 종로구 사직로10길 3 1층,서울특별시 종로구 사직로10길 3,37.5757813949746,126.970469232542,카페카페종로구실내목줄
도깨비코티지,카페,브런치,실내, ,목줄,02-717-0435,용산구,서울특별시 용산구 소월로2나길 6-1 1층,서울특별시 용산구 소월로2나길 6-1,37.5532690354115,126.977056919738,카페브런치용산구실내목줄
도미니칸조,카페,카페,실내, ,안기,02-6393-0774,마포구,서울특별시 마포구 월드컵북로 361 이안오피스텔 2단지 106호,서울특별시 마포구 월드컵북로 361,37.577109695587,126.891403860718,카페카페마포구실내안기
듀이커피,카페,카페,실내, ,목줄,010-6256-9955,마포구,서울특별시 마포구 성암로15길 56 1층,서울특별시 마포구 성암로15길 56,37.5765047248981,126.896469991427,카페카페마포구실내목줄
행복커피,카페,카페,실내, ,목줄,02-308-7984,마포구,서울특별시 마포구 월드컵북로54길 25 오피스텔동 217호,서울특별시 마포구 월드컵북로54길 25,37.5820926424763,126.888984720113,카페카페마포구실내목줄
세이트커피,카페,카페,실내, ,목줄,010-6886-1575,마포구,서울특별시 마포구 월드컵북로42가길 28,서울특별시 마포구 월드컵북로42가길 28,37.5754173101996,126.896773071098,카페카페마포구실내목줄
공상온도,카페,카페,실내, ,목줄,02-336-0247,마포구,서울특별시 마포구 동교로23길 40 지하,서울특별시 마포구 동교로23길 40,37.5576574792422,126.919809107657,카페카페마포구실내목줄
W.P 2호점,카페,카페,테라스, ,목줄,010-5641-2909,마포구,서울특별시 마포구 성미산로 8 1층 1호,서울특별시 마포구 성미산로 8,37.5580995605751,126.90918150827,카페카페마포구테라스목줄
오베스트,카페,카페,실내, ,목줄,070-8098-5430,마포구,서울특별시 마포구 연남로11길 41 1층,서울특별시 마포구 연남로11길 41,37.565228410364,126.916612143726,카페카페마포구실내목줄
쓰리고카페,카페,카페,실내, ,목줄,02-332-6040,마포구,서울특별시 마포구 성산로6길 20 1층,서울특별시 마포구 성산로6길 20,37.5640329897957,126.910726316528,카페카페마포구실내목줄
언더독 커피,카페,카페,실내, ,목줄,010-9320-7833,마포구,서울특별시 마포구 성미산로15길 13 1층,서울특별시 마포구 성미산로15길 13,37.5617922892335,126.917521323785,카페카페마포구실내목줄
쇼콜라윰,카페,베이커리,실내, ,목줄,02-336-1027,마포구,서울특별시 마포구 월드컵북로7길 76-14,서울특별시 마포구 월드컵북로7길 76-14,37.5583968906803,126.913502614752,카페베이커리마포구실내목줄
카페 보이드,카페,카페,실내, ,목줄,010-5541-8957,마포구,서울특별시 마포구 월드컵북로12안길 35,서울특별시 마포구 월드컵북로12안길 35,37.5631870693705,126.914285636974,카페카페마포구실내목줄
도르르,카페,카페,실내, ,목줄,070-4151-3697,마포구,서울특별시 마포구 월드컵북로 162 1층,서울특별시 마포구 월드컵북로 162,37.5668912532194,126.910533650768,카페카페마포구실내목줄
턴다운서비스,카페,카페,실내, ,목줄,010-2468-8605,마포구,서울특별시 마포구 동교로50길 7 반지층,서울특별시 마포구 동교로50길 7,37.5638187720069,126.926608604174,카페카페마포구실내목줄
렌테,카페,카페,실내, ,목줄,010-4051-2416,마포구,서울특별시 마포구 동교로41길 31,서울특별시 마포구 동교로41길 31,37.5636476653455,126.923197240714,카페카페마포구실내목줄
리이슈커피로스터스,카페,카페,실내, ,목줄,02-336-6884,마포구,서울특별시 마포구 연남로 35 2층,서울특별시 마포구 연남로 35,37.5626957260034,126.921362029118,카페카페마포구실내목줄
커피 그래피티 연남,카페,카페,실내, ,목줄,070-7677-5801,마포구,서울특별시 마포구 동교로 278,서울특별시 마포구 동교로 278,37.5639474524567,126.926493028022,카페카페마포구실내목줄
커피냅로스터스 연남동,카페,카페,실내, ,목줄,02-332-4131,마포구,서울특별시 마포구 성미산로27길 70,서울특별시 마포구 성미산로27길 70,37.5664284125218,126.920213302301,카페카페마포구실내목줄
어나더룸,카페,카페,실내, ,목줄,010-5134-1306,마포구,서울특별시 마포구 성미산로29안길 19-4 2층,서울특별시 마포구 성미산로29안길 19-4,37.5655905752208,126.923338995659,카페카페마포구실내목줄
그림카페,카페,카페,실내, ,목줄,010-2612-8103,마포구,서울특별시 마포구 성미산로 161-10,서울특별시 마포구 성미산로 161-10,37.5652518775454,126.923875401887,카페카페마포구실내목줄
연남방앗간,카페,카페,테라스, ,목줄,070-4200-2200,마포구,서울특별시 마포구 동교로29길 34,서울특별시 마포구 동교로29길 34,37.5620566617297,126.923159825714,카페카페마포구테라스목줄
메종미하벨,카페,카페,실내, ,목줄,070-4155-4444,마포구,서울특별시 마포구 성미산로29길 29-9 1층,서울특별시 마포구 성미산로29길 29-9,37.5650584505079,126.921696845394,카페카페마포구실내목줄
씨스루 홍대연남점,카페,카페,실내, ,목줄,02-336-9936,마포구,서울특별시 마포구 동교로 266-6 1층,서울특별시 마포구 동교로 266-6,37.5630734571844,126.925583880396,카페카페마포구실내목줄
마나올라나,카페,브런치,실내, ,목줄,010-7262-1532,마포구,서울특별시 마포구 성미산로 153-16 1층,서울특별시 마포구 성미산로 153-16,37.5651069517114,126.923109719729,카페브런치마포구실내목줄
러프글로스,카페,카페,테라스, ,목줄,010-2741-7508,마포구,서울특별시 마포구 동교로51길 87 1층,서울특별시 마포구 동교로51길 87,37.5660274899577,126.922270040577,카페카페마포구테라스목줄
카페청사진,카페,카페,실내, ,목줄,010-6292-2498,마포구,서울특별시 마포구 포은로 89 2층,서울특별시 마포구 포은로 89,37.5550213730909,126.905032372607,카페카페마포구실내목줄
찬찬커피로스터스,카페,카페,실내, ,목줄,02-6397-8008,마포구,서울특별시 마포구 방울내로 61 102호,서울특별시 마포구 방울내로 61,37.5598191029025,126.902176299761,카페카페마포구실내목줄
트랙26,카페,카페,실내, ,목줄,010-3122-7107,마포구,서울특별시 마포구 방울내로9안길 71,서울특별시 마포구 방울내로9안길 71,37.560221195846,126.899574659,카페카페마포구실내목줄
페트롤 플레이스,카페,카페,실내, ,목줄,02-336-5826,마포구,서울특별시 마포구 동교로 67 1층,서울특별시 마포구 동교로 67,37.5537428023198,126.90966969503,카페카페마포구실내목줄
로스터제임스 커피랩,카페,카페,실내, ,목줄,010-4444-1531,마포구,서울특별시 마포구 월드컵로15길 23 1층,서울특별시 마포구 월드컵로15길 23,37.555883437021,126.908674009506,카페카페마포구실내목줄
오로지,카페,카페,실내, ,목줄,010-2555-3285,마포구,서울특별시 마포구 월드컵로19길 25 1층,서울특별시 마포구 월드컵로19길 25,37.5563404385972,126.908113689858,카페카페마포구실내목줄
604seoul,카페,카페,실내, ,목줄,070-8806-0604,마포구,서울특별시 마포구 동교로 49 정하빌딩 1층,서울특별시 마포구 동교로 49,37.5530879633685,126.907581937588,카페카페마포구실내목줄
레코즈커피,카페,카페,실내, ,목줄,010-3029-7995,마포구,서울특별시 마포구 월드컵로7길 44 1층,서울특별시 마포구 월드컵로7길 44,37.5529614154219,126.909615185042,카페카페마포구실내목줄
파스텔커피웍스 본점,카페,카페,실내, ,목줄,02-322-7549,마포구,서울특별시 마포구 독막로2길 38 1층,서울특별시 마포구 독막로2길 38,37.546900339082,126.914244087684,카페카페마포구실내목줄
레이크커피바,카페,카페,실내, ,"목줄,매너벨트",010-7356-3017,마포구,서울특별시 마포구 동교로22길 38,서울특별시 마포구 동교로22길 38,37.5543144698367,126.917916725803,"카페카페마포구실내목줄,매너벨트"
토리블루,카페,카페,실내, ,목줄,010-7577-8846,마포구,서울특별시 마포구 토정로 106 호성빌딩 1층,서울특별시 마포구 토정로 106,37.5448825157924,126.922672435342,카페카페마포구실내목줄
카페나린1.5,카페,카페,실내, ,목줄,010-5417-6556,마포구,서울특별시 마포구 와우산로13길 49-11 1.5층,서울특별시 마포구 와우산로13길 49-11,37.548247134132,126.921336471931,카페카페마포구실내목줄
카페 틈이 있는 곳,카페,카페,실내, ,목줄,02-325-0525,마포구,서울특별시 마포구 독막로15길 5 101호,서울특별시 마포구 독막로15길 5,37.5481882727443,126.921839766783,카페카페마포구실내목줄
리플레이,카페,카페,실내, ,목줄,02-336-1448,마포구,서울특별시 마포구 와우산로 20 A동 지하 1층,서울특별시 마포구 와우산로 20,37.5461469059026,126.923114374168,카페카페마포구실내목줄
아날로그가든,카페,카페,실내, ,"목줄,매너벨트",010-9213-8560,마포구,서울특별시 마포구 동교로 145,서울특별시 마포구 동교로 145,37.55547108147,126.918048096373,"카페카페마포구실내목줄,매너벨트"
헤이미쉬,카페,카페,실내, ,목줄,010-4405-1029,마포구,서울특별시 마포구 동교로38길 27,서울특별시 마포구 동교로38길 27,37.5617397985364,126.925577850019,카페카페마포구실내목줄
맥코이커피,카페,카페,실내, ,목줄,010-7347-2211,마포구,서울특별시 마포구 성미산로 147,서울특별시 마포구 성미산로 147,37.5641886000467,126.922747108392,카페카페마포구실내목줄
샌드커피 논탄토,카페,카페,실내, ,목줄,02-336-8020,마포구,서울특별시 마포구 동교로 212-16,서울특별시 마포구 동교로 212-16,37.5592711660529,126.924174847151,카페카페마포구실내목줄
카페 플랫,카페,카페,실내, ,목줄,02-6015-0087,마포구,서울특별시 마포구 서강로9길 24,서울특별시 마포구 서강로9길 24,37.5535048237525,126.932243401584,카페카페마포구실내목줄
카페리카르도,카페,카페,실내, ,캐리어,070-4827-5701,마포구,서울특별시 마포구 서강로 78 1층,서울특별시 마포구 서강로 78,37.5500559170685,126.932599712309,카페카페마포구실내캐리어
블로트커피,카페,카페,실내, ,목줄,070-8820-2480,마포구,서울특별시 마포구 와우산로19길 6-5,서울특별시 마포구 와우산로19길 6-5,37.5514860279084,126.922815786484,카페카페마포구실내목줄
춘삼,카페,카페,실내, ,목줄,010-9965-9526,마포구,서울특별시 마포구 와우산로15길 16 2층,서울특별시 마포구 와우산로15길 16,37.5497942367002,126.922286222388,카페카페마포구실내목줄
인솔커피 상수점,카페,카페,실내, ,목줄,02-2135-3166,마포구,서울특별시 마포구 독막로18길 16 1층,서울특별시 마포구 독막로18길 16,37.547120809022,126.923551532294,카페카페마포구실내목줄
카페 앰핑,카페,카페,실내, ,목줄,010-3441-7745,마포구,서울특별시 마포구 신촌로20길 23,서울특별시 마포구 신촌로20길 23,37.55425837381,126.938586210635,카페카페마포구실내목줄
알레스카페,카페,카페,실내, ,목줄,02-702-6552,마포구,서울특별시 마포구 백범로1길 16 1층,서울특별시 마포구 백범로1길 16,37.5545078968656,126.937967181806,카페카페마포구실내목줄
퍼머넌트해비탯,카페,카페,실내, ,목줄,070-8880-0066,마포구,서울특별시 마포구 백범로15길 17,서울특별시 마포구 백범로15길 17,37.5482953058906,126.943098479996,카페카페마포구실내목줄
뜨랑블랑,카페,카페,실내, ,목줄,010-8814-2544,마포구,서울특별시 마포구 마포대로4나길 42,서울특별시 마포구 마포대로4나길 42,37.537428122338,126.945282764468,카페카페마포구실내목줄
와샌 와플&샌드위치,카페,카페,실내, ,목줄,02-703-8023,마포구,서울특별시 마포구 만리재로 112-14,서울특별시 마포구 만리재로 112-14,37.5496517009575,126.960638751712,카페카페마포구실내목줄
벤치 커피 스튜디오,카페,카페,실내, ,목줄,02-365-5999,서대문구,서울특별시 서대문구 연세로2마길 14 2층,서울특별시 서대문구 연세로2마길 14,37.5578039552284,126.942290070884,카페카페서대문구실내목줄
파이홀,카페,카페,실내, ,목줄,02-334-1181,서대문구,서울특별시 서대문구 연세로5나길 20,서울특별시 서대문구 연세로5나길 20,37.557045882794,126.935055781905,카페카페서대문구실내목줄
연두네 양과점,카페,카페,실내, ,안기,070-7766-8839,마포구,서울특별시 마포구 백범로 127-16 1층,서울특별시 마포구 백범로 127-16,37.5465036252623,126.945682262205,카페카페마포구실내안기
그로토,카페,카페,실내, ,목줄,02-702-4196,마포구,서울특별시 마포구 새창로4길 9 지하 1층,서울특별시 마포구 새창로4길 9,37.5416878254786,126.951796785641,카페카페마포구실내목줄
오늘은 지은다방,카페,카페,실내, ,목줄,010-3913-8130,양천구,서울특별시 양천구 목동로9길 12,서울특별시 양천구 목동로9길 12,37.5229480032069,126.863218222663,카페카페양천구실내목줄
커피쥬,카페,카페,실내, ,안기,02-6084-0306,양천구,서울특별시 양천구 오목로 58 해풍빌딩 1층,서울특별시 양천구 오목로 58,37.5223014969789,126.844065612756,카페카페양천구실내안기
테리브라운,카페,카페,실내, ,목줄,010-6222-5699,강서구,서울특별시 강서구 공항대로8길 33 1층,서울특별시 강서구 공항대로8길 33,37.5595748947978,126.812398219646,카페카페강서구실내목줄
플루이드,카페,카페,실내, ,목줄,070-7543-5080,강서구,서울특별시 강서구 마곡중앙6로 70 1층 107호,서울특별시 강서구 마곡중앙6로 70,37.5598562142859,126.834854214935,카페카페강서구실내목줄
땡땡커피,카페,카페,실내, ,목줄,02-3663-9808,강서구,서울특별시 강서구 마곡중앙5로 6 1층 151호,서울특별시 강서구 마곡중앙5로 6,37.5673140391214,126.827554917518,카페카페강서구실내목줄
홍콩다방 마곡,카페,카페,테라스, ,목줄,070-8228-6108,강서구,서울특별시 강서구 마곡중앙6로 63 마곡테크노타워 110호,서울특별시 강서구 마곡중앙6로 63,37.5604628413112,126.83439426731,카페카페강서구테라스목줄
블랙우드 카페,카페,카페,실내, ,목줄,070-7755-9029,강서구,서울특별시 강서구 허준로 198 2층,서울특별시 강서구 허준로 198,37.5612915907155,126.860254088709,카페카페강서구실내목줄
카페유오유,카페,카페,실내, ,목줄,010-7321-1230,강서구,서울특별시 강서구 양천로57길 13 지하 1층,서울특별시 강서구 양천로57길 13,37.5635982025081,126.852023677534,카페카페강서구실내목줄
보라크레페,카페,카페,실내, ,목줄,010-9063-2640,강서구,서울특별시 강서구 강서로 263-28 1층,서울특별시 강서구 강서로 263-28,37.5494799814203,126.83460144284,카페카페강서구실내목줄
쟈르댕카페,카페,카페,실내, ,목줄,02-2662-9222,강서구,서울특별시 강서구 강서로45길 92-22 1층 101호,서울특별시 강서구 강서로45길 92-22,37.5492119057767,126.833363344167,카페카페강서구실내목줄
브루클린커피,카페,카페,실내, ,목줄,02-3664-5595,강서구,서울특별시 강서구 강서로52길 16 1층,서울특별시 강서구 강서로52길 16,37.5576845042108,126.838934950863,카페카페강서구실내목줄
서드팩토리,카페,카페,실내, ,목줄,010-2276-5173,강서구,서울특별시 강서구 강서로15길 18 1층,서울특별시 강서구 강서로15길 18,37.5325330214338,126.844975557473,카페카페강서구실내목줄
카페 화곡동,카페,카페,실내, ,목줄,070-8883-5558,강서구,서울특별시 강서구 화곡로13길 26 1층,서울특별시 강서구 화곡로13길 26,37.5410426898322,126.833522966186,카페카페강서구실내목줄
우리동네카페A,카페,카페,테라스, ,목줄,070-7799-0906,강서구,서울특별시 강서구 강서로7길 49 102동 1층 101호 한백 E타운아파트,서울특별시 강서구 강서로7길 49,37.5292513420582,126.845002147801,카페카페강서구테라스목줄
모디피,카페,카페,실내, ,목줄,010-5525-6278,강서구,서울특별시 강서구 화곡로68길 132 2층,서울특별시 강서구 화곡로68길 132,37.5565374450753,126.860755730933,카페카페강서구실내목줄
삐삐커피,카페,카페,실내, ,목줄,010-5190-9029,강서구,서울특별시 강서구 강서로54길 93 1층,서울특별시 강서구 강서로54길 93,37.558763765531,126.843867086817,카페카페강서구실내목줄
비에이,카페,카페,실내, ,목줄,010-9143-0879,강서구,"서울특별시 강서구 양천로67길 93-23 1층, 지하 1층",서울특별시 강서구 양천로67길 93-23,37.5564571604,126.871808984581,카페카페강서구실내목줄
카페숲,카페,카페,실내, ,목줄,02-2685-2001,구로구,서울특별시 구로구 오리로13길 51,서울특별시 구로구 오리로13길 51,37.4883935306879,126.831203964585,카페카페구로구실내목줄
테라하우스,카페,카페,실내, ,목줄,010-8754-4267,구로구,서울특별시 구로구 개봉로3길 87,서울특별시 구로구 개봉로3길 87,37.485898739724,126.850970967732,카페카페구로구실내목줄
템트커피,카페,카페,실내, ,목줄,010-4275-5724,구로구,서울특별시 구로구 개봉로10길 12-9 1층,서울특별시 구로구 개봉로10길 12-9,37.4872577689993,126.857204435095,카페카페구로구실내목줄
이호점,카페,카페,테라스, ,목줄,070-4245-1001,구로구,"서울특별시 구로구 고척로40길 3-1 1, 2층",서울특별시 구로구 고척로40길 3-1,37.5030731603157,126.851099240934,카페카페구로구테라스목줄
쑤다방,카페,카페,실내, ,목줄,070-4320-0210,구로구,서울특별시 구로구 남부순환로105나길 32-1 1층,서울특별시 구로구 남부순환로105나길 32-1,37.4803955515132,126.892649367445,카페카페구로구실내목줄
반하다,카페,카페,실내, ,목줄,010-4409-6181,구로구,서울특별시 구로구 도림로 53-1 1층,서울특별시 구로구 도림로 53-1,37.4886841210586,126.889828447155,카페카페구로구실내목줄
로스티드 바이,카페,카페,실내, ,목줄,010-8905-1143,금천구,서울특별시 금천구 금하로29길 22,서울특별시 금천구 금하로29길 22,37.451036493256,126.912822394414,카페카페금천구실내목줄
카페가인,카페,카페,실내, ,목줄,02-807-0080,금천구,서울특별시 금천구 독산로44길 61 하이빌 1층,서울특별시 금천구 독산로44길 61,37.4618969206167,126.907929057953,카페카페금천구실내목줄
MERRYMAY,카페,카페,실내, ,목줄,02-809-5114,금천구,서울특별시 금천구 독산로38길 84 1층,서울특별시 금천구 독산로38길 84,37.462573690187,126.905218822554,카페카페금천구실내목줄
감성커피 금천시흥점,카페,카페,테라스, ,목줄,070-4042-4986,금천구,서울특별시 금천구 탑골로 19-6,서울특별시 금천구 탑골로 19-6,37.4520095917691,126.910894998292,카페카페금천구테라스목줄
위드어나드,카페,카페,실내, ,목줄,010-4013-5298,금천구,서울특별시 금천구 시흥대로30길 12,서울특별시 금천구 시흥대로30길 12,37.4428357468981,126.904669328261,카페카페금천구실내목줄
요거프레소 독산점,카페,카페,실내, ,목줄,02-852-3360,금천구,서울특별시 금천구 시흥대로114길 30 1층,서울특별시 금천구 시흥대로114길 30,37.4678177273422,126.899726657727,카페카페금천구실내목줄
달리는커피 독산점,카페,카페,테라스, ,목줄,02-857-8163,금천구,서울특별시 금천구 시흥대로 341 1층,서울특별시 금천구 시흥대로 341,37.4640815868838,126.897096678069,카페카페금천구테라스목줄
카페로드,카페,카페,실내, ,목줄,02-803-3337,금천구,서울특별시 금천구 범안로 1152,서울특별시 금천구 범안로 1152,37.4663594788208,126.889851268154,카페카페금천구실내목줄
동네카페,카페,카페,실내, ,목줄,010-4147-8625,영등포구,서울특별시 영등포구 도신로 235 태화빌딩 1층,서울특별시 영등포구 도신로 235,37.512493750083,126.916945928789,카페카페영등포구실내목줄
컵스커피,카페,카페,실내, ,목줄,070-4257-2020,마포구,서울특별시 마포구 포은로 107 1층,서울특별시 마포구 포은로 107,37.5565811554485,126.904555510728,카페카페마포구실내목줄
BELOW,카페,카페,실내, ,목줄,010-7132-9148,마포구,서울특별시 마포구 포은로6길 4 지층,서울특별시 마포구 포은로6길 4,37.5556104188183,126.905336175161,카페카페마포구실내목줄
카페씨멘트,카페,카페,실내, ,목줄,010-3059-9972,마포구,서울특별시 마포구 희우정로20길 72,서울특별시 마포구 희우정로20길 72,37.556094473472,126.904266971128,카페카페마포구실내목줄
커피호스피탈,카페,카페,실외, ,목줄,02-323-5500,마포구,서울특별시 마포구 포은로 93,서울특별시 마포구 포은로 93,37.5553069153794,126.904940566381,카페카페마포구실외목줄
로우머,카페,카페,실내, ,목줄,010-3820-1175,마포구,서울특별시 마포구 월드컵로13길 55-26 1층,서울특별시 마포구 월드컵로13길 55-26,37.5542575100061,126.90650321363,카페카페마포구실내목줄
크림데이,카페,베이커리,실내, ,목줄,010-2944-2193,마포구,서울특별시 마포구 월드컵로21길 39,서울특별시 마포구 월드컵로21길 39,37.5558857434869,126.907700597253,카페베이커리마포구실내목줄
리얼커피,카페,카페,실내, ,목줄,02-333-3637,마포구,서울특별시 마포구 동교로 32-1 진흥시티빌,서울특별시 마포구 동교로 32-1,37.5522436703351,126.906137592367,카페카페마포구실내목줄
79파운야드 망원본점,카페,카페,실내, ,안기,02-325-8185,마포구,서울특별시 마포구 월드컵로13길 79 1층 105호,서울특별시 마포구 월드컵로13길 79,37.5548762696983,126.905879086708,카페카페마포구실내안기
비전스트롤,카페,카페,실내, ,"목줄,매너벨트",02-326-1002,마포구,"서울특별시 마포구 망원로 61 1층, 2층",서울특별시 마포구 망원로 61,37.5572041155036,126.903570651066,"카페카페마포구실내목줄,매너벨트"
네가 있어 고마워,카페,카페,실내, ,목줄,070-7537-1180,영등포구,서울특별시 영등포구 양평로28길 33 아트리버빌 J동 1층,서울특별시 영등포구 양평로28길 33,37.5424410041709,126.891932579431,카페카페영등포구실내목줄
뇽뇽마카롱,카페,카페,실내, ,목줄,02-337-7911,마포구,서울특별시 마포구 희우정로 72 1층,서울특별시 마포구 희우정로 72,37.5526147906379,126.904340455333,카페카페마포구실내목줄
늘,카페,카페,실내, ,목줄,070-4035-5487,영등포구,서울특별시 영등포구 선유로55길 11 1층,서울특별시 영등포구 선유로55길 11,37.5377906428336,126.897869418375,카페카페영등포구실내목줄
에그드랍 선유도역점,카페,카페,실내, ,목줄,02-2634-7788,영등포구,서울특별시 영등포구 양평로22길 2 1층,서울특별시 영등포구 양평로22길 2,37.5380174988267,126.894268320028,카페카페영등포구실내목줄
이디야 남부고용센터점,카페,카페,테라스, ,목줄,02-2635-2560,영등포구,서울특별시 영등포구 양산로 71 1층,서울특별시 영등포구 양산로 71,37.525029038125,126.891103928762,카페카페영등포구테라스목줄
커피사피엔스 양평동2가점,카페,카페,실내, ,목줄,02-2633-0466,영등포구,서울특별시 영등포구 영등포로5길 19 105호,서울특별시 영등포구 영등포로5길 19,37.5241158142187,126.884222107312,카페카페영등포구실내목줄
MACKAY,카페,카페,실내, ,목줄,070-8782-2027,영등포구,서울특별시 영등포구 영등포로5길 46,서울특별시 영등포구 영등포로5길 46,37.5252166510949,126.884952341767,카페카페영등포구실내목줄
헤이커피,카페,카페,실내, ,목줄,070-4134-0501,영등포구,서울특별시 영등포구 선유로9나길 8 문래 두산위브,서울특별시 영등포구 선유로9나길 8,37.5171461442938,126.886298476898,카페카페영등포구실내목줄
히어로스터 신도림점,카페,카페,실내, ,목줄,010-4844-6055,구로구,서울특별시 구로구 경인로63길 21-8 1층 일성펌프 옆 골목,서울특별시 구로구 경인로63길 21-8,37.5084286467868,126.884609172067,카페카페구로구실내목줄
유어홈커피로스터스,카페,카페,실내, ,목줄,010-9129-0302,영등포구,서울특별시 영등포구 도림로133길 20 1층,서울특별시 영등포구 도림로133길 20,37.512762521754,126.893682197611,카페카페영등포구실내목줄
헬로 팔로워즈,카페,브런치,실내, ,목줄,02-6949-6768,영등포구,서울특별시 영등포구 도신로29길 12 2층,서울특별시 영등포구 도신로29길 12,37.5096232455889,126.904997738172,카페브런치영등포구실내목줄
커피고래,카페,카페,실내, ,목줄,02-832-3746,영등포구,서울특별시 영등포구 도영로 66 영등포 자이아파트 상가동 1층 102호,서울특별시 영등포구 도영로 66,37.5103949442095,126.900176553265,카페카페영등포구실내목줄
Week and Weekend,카페,카페,실내, ,목줄,02-836-0228,영등포구,서울특별시 영등포구 도림로112길 16 1층,서울특별시 영등포구 도림로112길 16,37.5089348215304,126.901734456414,카페카페영등포구실내목줄
이스트우드,카페,카페,실내, ,목줄,070-4459-0103,영등포구,서울특별시 영등포구 도신로17길 6,서울특별시 영등포구 도신로17길 6,37.5066628067793,126.899648710664,카페카페영등포구실내목줄
헤비로테이트,카페,카페,실내, ,목줄,010-6424-8260,영등포구,서울특별시 영등포구 도신로19길 22,서울특별시 영등포구 도신로19길 22,37.5081894002444,126.899673811566,카페카페영등포구실내목줄
토프레소 양평동사거리점,카페,카페,테라스, ,목줄,02-865-2004,영등포구,서울특별시 영등포구 양평로12가길 2,서울특별시 영등포구 양평로12가길 2,37.5363005812028,126.900736831751,카페카페영등포구테라스목줄
고양이가밟은쿠키,카페,카페,실내, ,목줄,010-4301-4810,영등포구,서울특별시 영등포구 양평로21가길 6 1층,서울특별시 영등포구 양평로21가길 6,37.5378640810395,126.892992920428,카페카페영등포구실내목줄
bloc,카페,카페,실내, ,목줄,010-5910-6137,영등포구,서울특별시 영등포구 선유로53길 33 1층 102호,서울특별시 영등포구 선유로53길 33,37.5383096312386,126.895006873232,카페카페영등포구실내목줄
선유서가,카페,카페,실내, ,목줄,010-2973-1711,영등포구,서울특별시 영등포구 양평로30가길 22 1층,서울특별시 영등포구 양평로30가길 22,37.5426323063764,126.890876690273,카페카페영등포구실내목줄
나카산,카페,카페,실내, ,목줄,010-7185-1028,영등포구,서울특별시 영등포구 당산로41길 28 1층,서울특별시 영등포구 당산로41길 28,37.532320094002,126.896896082027,카페카페영등포구실내목줄
문래방구,카페,카페,실내, ,목줄,02-2633-9204,영등포구,서울특별시 영등포구 경인로 763,서울특별시 영등포구 경인로 763,37.5137354191495,126.898069949404,카페카페영등포구실내목줄
카페바뇨스,카페,카페,실내, ,목줄,010-8871-0373,영등포구,서울특별시 영등포구 국회대로53길 1 1층,서울특별시 영등포구 국회대로53길 1,37.5256913512215,126.906891836842,카페카페영등포구실내목줄
카페아이엠,카페,카페,실내, ,목줄,02-2635-7420,영등포구,서울특별시 영등포구 버드나루로 25 상옥빌딩,서울특별시 영등포구 버드나루로 25,37.5210330112178,126.912093740502,카페카페영등포구실내목줄
레드테이프,카페,카페,실내, ,목줄,010-9829-2811,영등포구,서울특별시 영등포구 가마산로65길 5 1층,서울특별시 영등포구 가마산로65길 5,37.5064063658158,126.90677815158,카페카페영등포구실내목줄
스테이웜,카페,카페,실내, ,목줄,010-3224-7524,영등포구,서울특별시 영등포구 가마산로61길 5-1 1층,서울특별시 영등포구 가마산로61길 5-1,37.5057304634919,126.905120293466,카페카페영등포구실내목줄
도토리소년,카페,카페,실내, ,목줄,010-2680-8340,영등포구,서울특별시 영등포구 대방천로 239 1층,서울특별시 영등포구 대방천로 239,37.4987641708323,126.917496381515,카페카페영등포구실내목줄
루카스커피,카페,카페,실내, ,목줄,070-7799-4456,영등포구,서울특별시 영등포구 신풍로25길 6,서울특별시 영등포구 신풍로25길 6,37.5005210129169,126.919941724312,카페카페영등포구실내목줄
백스트로크,카페,카페,실내, ,목줄,010-6305-7785,영등포구,서울특별시 영등포구 가마산로61나길 11,서울특별시 영등포구 가마산로61나길 11,37.5068172506789,126.905902700092,카페카페영등포구실내목줄
칠아웃,카페,카페,실내, ,"목줄,매너벨트",010-2077-2468,영등포구,서울특별시 영등포구 신길로39길 11 1층,서울특별시 영등포구 신길로39길 11,37.5068081420021,126.909583433124,"카페카페영등포구실내목줄,매너벨트"
주택커피 영등포점,카페,카페,실내, ,목줄,02-2636-4761,영등포구,서울특별시 영등포구 국회대로44길 7-4,서울특별시 영등포구 국회대로44길 7-4,37.5249258255467,126.903813239711,카페카페영등포구실내목줄
페이페이커피,카페,카페,실내, ,목줄,02-2631-1201,영등포구,서울특별시 영등포구 영중로 101,서울특별시 영등포구 영중로 101,37.525322354613,126.905147751705,카페카페영등포구실내목줄
로다커피,카페,카페,실내, ,안기,02-2636-8603,영등포구,서울특별시 영등포구 영신로54길 5 1층 2층,서울특별시 영등포구 영신로54길 5,37.5264782234916,126.903557610101,카페카페영등포구실내안기
배스킨라빈스 대방역점,카페,카페,실내, ,안기,02-825-4030,동작구,서울특별시 동작구 알마타길 6,서울특별시 동작구 알마타길 6,37.5098570948466,126.924954157932,카페카페동작구실내안기
카페알코브,카페,카페,실내, ,목줄,02-6409-9870,동작구,서울특별시 동작구 대방동1길 12 1층,서울특별시 동작구 대방동1길 12,37.5003725851607,126.926548609741,카페카페동작구실내목줄
Hplace카페,카페,카페,실내, ,목줄,0507-1307-6193,동작구,서울특별시 동작구 여의대방로36길 10 1층,서울특별시 동작구 여의대방로36길 10,37.5042852632459,126.923105412451,카페카페동작구실내목줄
웨스트빙고 사당동점,카페,카페,실내, ,목줄,010-8230-3143,동작구,서울특별시 동작구 동작대로13길 6 1층,서울특별시 동작구 동작대로13길 6,37.4818196411402,126.981112052545,카페카페동작구실내목줄
바이엠,카페,카페,실내, ,목줄,02-821-2128,동작구,서울특별시 동작구 상도로34길 1 1층,서울특별시 동작구 상도로34길 1,37.5045689499669,126.946153282072,카페카페동작구실내목줄
비단콤마,카페,브런치,실내, ,"캐리어,안기",02-811-0072,동작구,서울특별시 동작구 상도로30길 40 상가 A동 107호,서울특별시 동작구 상도로30길 40,37.5043182643342,126.942466980966,"카페브런치동작구실내캐리어,안기"
우부래도,카페,베이커리,테라스, ,목줄,070-7543-0599,동작구,서울특별시 동작구 상도로37길 3,서울특별시 동작구 상도로37길 3,37.5031717035143,126.948655254952,카페베이커리동작구테라스목줄
히뽀1997,카페,베이커리,실내, ,목줄,010-3266-6568,동작구,서울특별시 동작구 노량진로24길 36,서울특별시 동작구 노량진로24길 36,37.5116680536822,126.954036618845,카페베이커리동작구실내목줄
인투커피,카페,카페,실내, ,안기,02-6083-1170,관악구,서울특별시 관악구 난곡로 331 1층,서울특별시 관악구 난곡로 331,37.4835675846406,126.913811013265,카페카페관악구실내안기
시티스트릿츠,카페,카페,실내, ,목줄,070-8844-0037,관악구,서울특별시 관악구 신사로 128-1 대흥빌딩 1층,서울특별시 관악구 신사로 128-1,37.4885867263468,126.916171625762,카페카페관악구실내목줄
카페 드 플로르,카페,카페,실내, ,목줄,010-5962-0720,관악구,서울특별시 관악구 남부순환로152길 17 2층,서울특별시 관악구 남부순환로152길 17,37.4819094919621,126.919213565661,카페카페관악구실내목줄
냥빵,카페,베이커리,실내, ,목줄,02-6014-1704,관악구,서울특별시 관악구 조원로16가길 26 1층,서울특별시 관악구 조원로16가길 26,37.483015552272,126.912119644879,카페베이커리관악구실내목줄
몬드 마카롱,카페,카페,실내, ,안기,010-2854-2133,동작구,서울특별시 동작구 사당로13길 38-1 1층,서울특별시 동작구 사당로13길 38-1,37.4858100343511,126.972052587063,카페카페동작구실내안기
만물다방,카페,카페,실내, ,목줄,02-882-9992,관악구,서울특별시 관악구 봉천로13길 6 1층,서울특별시 관악구 봉천로13길 6,37.4889151021989,126.930247475712,카페카페관악구실내목줄
뉴욕택시디저트,카페,카페,실내, ,안기,070-8711-1013,관악구,서울특별시 관악구 남부순환로 1870 1층,서울특별시 관악구 남부순환로 1870,37.4792878143627,126.957293773061,카페카페관악구실내안기
오후의 과일,카페,카페,실내, ,목줄,02-877-5700,관악구,서울특별시 관악구 관악로14길 15,서울특별시 관악구 관악로14길 15,37.4792433156421,126.953504196407,카페카페관악구실내목줄
가람커피로스터스,카페,카페,실내, ,안기,070-4123-3213,서초구,서울특별시 서초구 본마을길 31 1층,서울특별시 서초구 본마을길 31,37.4543364760474,127.053542034923,카페카페서초구실내안기
커피사피엔스 양재봉진점,카페,카페,실내, ,목줄,02-6080-8640,서초구,서울특별시 서초구 동산로 66 봉진빌딩 1층 103호,서울특별시 서초구 동산로 66,37.4718915590099,127.045951561756,카페카페서초구실내목줄
양재동커피집,카페,카페,실내, ,목줄,010-5105-3124,서초구,서울특별시 서초구 양재천로 103-18 102호,서울특별시 서초구 양재천로 103-18,37.4771322903907,127.039449803501,카페카페서초구실내목줄
아쿠아렐 드로잉카페,카페,카페,실내, ,목줄,010-6571-4171,서초구,서울특별시 서초구 양재천로13길 17 전진빌딩 1층,서울특별시 서초구 양재천로13길 17,37.4754425764382,127.03652390537,카페카페서초구실내목줄
스퀘어가든,카페,카페,실내, ,"목줄,매너벨트",070-8888-5959,서초구,서울특별시 서초구 서래로5길 26,서울특별시 서초구 서래로5길 26,37.4979749153308,126.996863091706,"카페카페서초구실내목줄,매너벨트"
카페오뉴,카페,카페,실내, ,목줄,02-511-7118,서초구,서울특별시 서초구 주흥13길 15 1층,서울특별시 서초구 주흥13길 15,37.5084930912982,127.01861541624,카페카페서초구실내목줄
더 커피 컴퍼니,카페,카페,실내, ,안기,070-7756-3016,서초구,서울특별시 서초구 서초중앙로29길 16 이에이치빌딩 1층,서울특별시 서초구 서초중앙로29길 16,37.4989399887639,127.010722667041,카페카페서초구실내안기
더리버마리나,카페,카페,실외,월   요트 정기휴무 (매주 월요일)   카페 10:00 - 22:00      화   요트 14:00 - 22:00   카페 10:00 - 22:00      수   요트 14:00 - 22:00   카페 10:00 - 22:00      목   요트 14:00 - 22:00   카페 10:00 - 22:00      금   요트 14:00 - 22:00   카페 10:00 - 22:00      토   요트 14:00 - 22:00   카페 10:00 - 22:00      일   요트 14:00 - 22:00   카페 10:00 - 22:00,목줄,02-536-1977,서초구,서울특별시 서초구 동작대로 350,서울특별시 서초구 동작대로 350,37.505762548108,126.981085777455,카페카페서초구실외목줄
어딕티브,카페,카페,실내, ,목줄,02-6015-2468,서초구,서울특별시 서초구 주흥15길 5 102호,서울특별시 서초구 주흥15길 5,37.5090886575298,127.018602217945,카페카페서초구실내목줄
카페드프랑,카페,카페,실내, ,목줄,02-352-0296,서초구,서울특별시 서초구 사평대로55길 18 1층,서울특별시 서초구 사평대로55길 18,37.5048350165747,127.0227028482,카페카페서초구실내목줄
디어,카페,브런치,실내, ,목줄,02-592-1007,서초구,서울특별시 서초구 사평대로2길 22 1층,서울특별시 서초구 사평대로2길 22,37.4977144170726,126.985664065684,카페브런치서초구실내목줄
엔터하츠,카페,카페,실내, ,안기,02-6402-1080,서초구,서울특별시 서초구 동광로 11,서울특별시 서초구 동광로 11,37.4910237139452,126.984207680681,카페카페서초구실내안기
카페아뜰리에,카페,카페,실내, ,목줄,02-523-1312,서초구,서울특별시 서초구 방배천로4길 48 1층,서울특별시 서초구 방배천로4길 48,37.4772538068317,126.985103489775,카페카페서초구실내목줄
리버브 커피,카페,카페,실내, ,목줄,010-3640-6662,서초구,서울특별시 서초구 방배천로16길 18 1층,서울특별시 서초구 방배천로16길 18,37.4820775787054,126.984021088378,카페카페서초구실내목줄
밤부 베이커리&브루잉 서래,카페,카페,테라스, ,목줄,02-533-4240,서초구,서울특별시 서초구 동광로 77,서울특별시 서초구 동광로 77,37.4931677354424,126.990902994946,카페카페서초구테라스목줄
거북이,카페,카페,실내, ,목줄,070-4015-5314,서초구,서울특별시 서초구 방배천로4안길 48 1층,서울특별시 서초구 방배천로4안길 48,37.4802024957937,126.983417409274,카페카페서초구실내목줄
라바트리,카페,카페,실내, ,목줄,070-8780-0508,서초구,서울특별시 서초구 서초대로27길 33 지하 1층,서울특별시 서초구 서초대로27길 33,37.489480473506,126.994064871383,카페카페서초구실내목줄
엔트런스,카페,카페,실내, ,목줄,010-7532-1804,서초구,서울특별시 서초구 사임당로19길 72-3,서울특별시 서초구 사임당로19길 72-3,37.4924417803052,127.019045539132,카페카페서초구실내목줄
퀴베롱 마카롱,카페,베이커리,실내, ,목줄,02-582-1236,서초구,서울특별시 서초구 반포대로1길 8 성호빌딩 1층,서울특별시 서초구 반포대로1길 8,37.4812670423944,127.012091123411,카페베이커리서초구실내목줄
아디스아바바,카페,카페,실외, ,목줄,02-6396-3766,서초구,서울특별시 서초구 서초중앙로22길 67,서울특별시 서초구 서초중앙로22길 67,37.4939368749937,127.017535955165,카페카페서초구실외목줄
몬틸나잇,카페,카페,실내, ,목줄,02-588-6518,서초구,서울특별시 서초구 서초중앙로18길 23 효암빌딩 1층,서울특별시 서초구 서초중앙로18길 23,37.4915383977609,127.015578712411,카페카페서초구실내목줄
공미학,카페,카페,실외, ,목줄,02-6462-9000,서초구,서울특별시 서초구 서초대로48길 101 그룹메가타워 1F,서울특별시 서초구 서초대로48길 101,37.4886222050947,127.012469744697,카페카페서초구실외목줄
프릳츠 양재점,카페,카페,실내, ,목줄,02-521-4148,서초구,서울특별시 서초구 강남대로37길 24-11,서울특별시 서초구 강남대로37길 24-11,37.4853696212775,127.032196214742,카페카페서초구실내목줄
디저트 다눔,카페,카페,실내, ,안기,010-5044-8692,강동구,서울특별시 강동구 양재대로98길 14 1층 102호,서울특별시 강동구 양재대로98길 14,37.5306409415933,127.138321573543,카페카페강동구실내안기
카페 플랫,카페,카페,"실내,테라스", ,목줄,070-8866-8770,강동구,서울특별시 강동구 천중로 237,서울특별시 강동구 천중로 237,37.5408324645707,127.146722637782,"카페카페강동구실내,테라스목줄"
카페 아스노바,카페,카페,테라스, ,목줄,02-470-6859,강동구,서울특별시 강동구 양재대로 1500 백천이스트하임,서울특별시 강동구 양재대로 1500,37.5394756956412,127.14098999451,카페카페강동구테라스목줄
아우어룸,카페,카페,실내, ,목줄,070-8757-0105,강동구,서울특별시 강동구 양재대로110길 47 1층,서울특별시 강동구 양재대로110길 47,37.5351209100248,127.141954142749,카페카페강동구실내목줄
카페탄젠트,카페,카페,실내, ,목줄,070-4256-0952,강동구,서울특별시 강동구 성안로 196 1층,서울특별시 강동구 성안로 196,37.540274165321,127.137006116901,카페카페강동구실내목줄
리프,카페,카페,실내, ,목줄,010-9185-2907,강동구,서울특별시 강동구 성내로6길 55 101호,서울특별시 강동구 성내로6길 55,37.5274138830704,127.121826670309,카페카페강동구실내목줄
마카롱걸,카페,베이커리,실내, ,목줄,010-3900-9915,강동구,서울특별시 강동구 양재대로81길 8,서울특별시 강동구 양재대로81길 8,37.5228668674162,127.133673885442,카페베이커리강동구실내목줄
핑크마카롱,카페,카페,실내, ,목줄,010-7580-0097,강동구,서울특별시 강동구 성안로 34 1층,서울특별시 강동구 성안로 34,37.5266882749016,127.130297556728,카페카페강동구실내목줄
엑스엑스스몰커피,카페,카페,실내, ,목줄,010-3029-2146,강동구,서울특별시 강동구 성내로13길 33-5 1층 평화빌딩 102호,서울특별시 강동구 성내로13길 33-5,37.529581195698,127.127336549652,카페카페강동구실내목줄
카페 그뢴,카페,카페,실내, ,목줄,010-9566-6068,강동구,서울특별시 강동구 풍성로37길 41 1층,서울특별시 강동구 풍성로37길 41,37.5337186980892,127.126313892782,카페카페강동구실내목줄
카페넘버스1,카페,카페,실내, ,목줄,010-8900-2282,강동구,서울특별시 강동구 풍성로53길 12-5 1층,서울특별시 강동구 풍성로53길 12-5,37.5301163977182,127.134403645207,카페카페강동구실내목줄
카페 온도,카페,카페,실내, ,목줄,070-8822-9561,강동구,서울특별시 강동구 양재대로103길 40,서울특별시 강동구 양재대로103길 40,37.5335228966894,127.135824801867,카페카페강동구실내목줄
커피 코너칼럼,카페,카페,실내, ,목줄,070-8777-3868,강동구,서울특별시 강동구 양재대로89길 80 1층,서울특별시 강동구 양재대로89길 80,37.5276384204605,127.131319313897,카페카페강동구실내목줄
온온커피,카페,카페,실내, ,목줄,010-7696-8656,강동구,서울특별시 강동구 성내로18길 34 1층,서울특별시 강동구 성내로18길 34,37.5255215644167,127.128325854851,카페카페강동구실내목줄
카페메종드한,카페,카페,실내,화-금요일 10:00 - 21:30    토-일요일 11:00 - 21:30    매주 월요일 정기 휴무,캐리어,02-482-2005,강동구,서울특별시 강동구 성안로 27 103호,서울특별시 강동구 성안로 27,37.5262853047986,127.129598961729,카페카페강동구실내캐리어
틸리,카페,카페,실내, ,목줄,010-6652-6066,강동구,서울특별시 강동구 천호옛12길 15 1층,서울특별시 강동구 천호옛12길 15,37.5349167000579,127.125438608299,카페카페강동구실내목줄
드립앤드랩,카페,카페,실내, ,목줄,010-5642-1244,강동구,서울특별시 강동구 올림픽로93길 28,서울특별시 강동구 올림픽로93길 28,37.5496650450926,127.125626050646,카페카페강동구실내목줄
카페히어,카페,카페,실내, ,목줄,02-442-6984,강동구,서울특별시 강동구 상암로5길 54,서울특별시 강동구 상암로5길 54,37.5526831600752,127.127935692163,카페카페강동구실내목줄
카페이유,카페,카페,실내, ,목줄,070-8887-6262,강동구,서울특별시 강동구 고덕로 52-18,서울특별시 강동구 고덕로 52-18,37.5538944843209,127.130629873073,카페카페강동구실내목줄
카페공공장소,카페,카페,실내, ,목줄,010-9140-6627,강동구,서울특별시 강동구 암사길 7-1 1층,서울특별시 강동구 암사길 7-1,37.5510498967519,127.13042913002,카페카페강동구실내목줄
렛미베이크,카페,베이커리,실내, ,없음,02-481-4982,강동구,서울특별시 강동구 올림픽로91길 30 힐스테이트상가동 1층,서울특별시 강동구 올림픽로91길 30,37.5489339540171,127.125136976054,카페베이커리강동구실내없음
아달콤해,카페,카페,실내, ,목줄,010-5658-2181,강동구,서울특별시 강동구 동남로85길 30 102호,서울특별시 강동구 동남로85길 30,37.5612040237099,127.155038668988,카페카페강동구실내목줄
카페 맘이가,카페,카페,실내, ,목줄,02-442-1700,강동구,서울특별시 강동구 동남로81길 64 1층,서울특별시 강동구 동남로81길 64,37.5594890017368,127.153433966853,카페카페강동구실내목줄
포레포레,카페,카페,실내, ,목줄,010-4930-1226,강동구,서울특별시 강동구 동남로81길 88,서울특별시 강동구 동남로81길 88,37.558951339245,127.15228025395,카페카페강동구실내목줄
프롬투커피,카페,카페,실내, ,목줄,02-428-0009,강동구,서울특별시 강동구 동남로71길 38 102호,서울특별시 강동구 동남로71길 38,37.5520423388557,127.154068058218,카페카페강동구실내목줄
2ROUND,카페,카페,실내, ,목줄,010-4822-9621,강동구,"서울특별시 강동구 양재대로151길 20 1,3층",서울특별시 강동구 양재대로151길 20,37.5540990611981,127.143026328337,카페카페강동구실내목줄
레옹,카페,카페,실내, ,목줄,010-4432-2309,강동구,서울특별시 강동구 양재대로134길 43 염광빌딩 1층,서울특별시 강동구 양재대로134길 43,37.5478239708209,127.14604628022,카페카페강동구실내목줄
송화의카페,카페,카페,실내, ,목줄,02-426-4919,강동구,서울특별시 강동구 상일로3길 8,서울특별시 강동구 상일로3길 8,37.548779575133,127.172617271068,카페카페강동구실내목줄
낸시스,카페,베이커리,실내, ,안기,010-6707-7896,강동구,서울특별시 강동구 동남로75길 13-21 101호,서울특별시 강동구 동남로75길 13-21,37.5533205445048,127.155472639896,카페베이커리강동구실내안기
시크릿한강,카페,카페,루프탑, ,목줄,02-1566-1760,송파구,서울특별시 송파구 백제고분로 2,서울특별시 송파구 백제고분로 2,37.5192083935363,127.076510250617,카페카페송파구루프탑목줄
카페희재,카페,카페,실내, ,목줄,010-9073-8972,송파구,서울특별시 송파구 백제고분로11길 6 삼풍빌딩,서울특별시 송파구 백제고분로11길 6,37.507774038588,127.080023720975,카페카페송파구실내목줄
커피인류,카페,카페,실내, ,목줄,070-4634-2212,송파구,서울특별시 송파구 석촌호수로 61 트리지움,서울특별시 송파구 석촌호수로 61,37.5107020036631,127.086211355223,카페카페송파구실내목줄
상냥한거북씨 커피 앤 플라워,카페,카페,실내, ,목줄,02-408-6232,송파구,서울특별시 송파구 송이로30길 13 세안빌딩 1층,서울특별시 송파구 송이로30길 13,37.487039323793,127.130442025815,카페카페송파구실내목줄
리프레쉬커피,카페,카페,실내, ,목줄,02-400-0910,송파구,서울특별시 송파구 송이로30길 11,서울특별시 송파구 송이로30길 11,37.4871629819734,127.130568992508,카페카페송파구실내목줄
험블커피,카페,카페,테라스, ,목줄,02-400-1579,송파구,서울특별시 송파구 오금로38가길 33 1F,서울특별시 송파구 오금로38가길 33,37.4994498129408,127.126945421038,카페카페송파구테라스목줄
감성커피 테라스,카페,카페,"실외,테라스", ,목줄,070-4640-2254,송파구,서울특별시 송파구 중대로12길 9,서울특별시 송파구 중대로12길 9,37.4939242976965,127.123637287125,"카페카페송파구실외,테라스목줄"
선셋스위밍 샌드위치,카페,브런치,"실내,테라스","매일 10:00 - 22:00 / 일요일 10:00 - 20:00 / 코로나19로 2.5단계(월요일 휴무) 화-금 10:00~21:00 , 토-일 10:00~20:00 영업시간 인스타 확인요망.","목줄,캐리어",02-544-7676,강남구,서울특별시 강남구 언주로170길 23 (신사동 643-28)1층,서울특별시 강남구 언주로170길 23,37.5268515555893,127.035589158987,"카페브런치강남구실내,테라스목줄,캐리어"
아파트먼트 기룬,카페,카페,실내,"평일 12:00 - 18:00 , 12월 영업 시간 단축 :'( (카페문의)","목줄,매너벨트",02-2278-1087,중구,서울특별시 중구 동호로24길 27-17,서울특별시 중구 동호로24길 27-17,37.5604943080105,127.004140273882,"카페카페중구실내목줄,매너벨트"
퍼햅스,카페,카페,실내, ,목줄,070-4147-9811,송파구,서울특별시 송파구 백제고분로29길 29 1층,서울특별시 송파구 백제고분로29길 29,37.505638290051,127.09465588187,카페카페송파구실내목줄
갭나인,카페,카페,실내, ,목줄,010-4488-2657,송파구,서울특별시 송파구 가락로5길 8,서울특별시 송파구 가락로5길 8,37.50021534651,127.102192810969,카페카페송파구실내목줄
테이트커피,카페,카페,"실내,실외", ,목줄,02-424-1929,송파구,서울특별시 송파구 석촌호수로18길 11-2,서울특별시 송파구 석촌호수로18길 11-2,37.5058014745076,127.101373336948,"카페카페송파구실내,실외목줄"
바이슐,카페,카페,실내, ,목줄,010-2340-2343,송파구,서울특별시 송파구 백제고분로34길 17 1층 103호,서울특별시 송파구 백제고분로34길 17,37.5007899399884,127.09888489748,카페카페송파구실내목줄
원모어커피바,카페,카페,실내, ,목줄,02-2202-2369,송파구,서울특별시 송파구 가락로11길 11,서울특별시 송파구 가락로11길 11,37.5013337857484,127.104435358108,카페카페송파구실내목줄
나우나우나우,카페,카페,"실내,실외", ,목줄,02-424-1989,송파구,서울특별시 송파구 송파대로39길 1-10 1층,서울특별시 송파구 송파대로39길 1-10,37.5023675009494,127.109031772215,"카페카페송파구실내,실외목줄"
체크인브런치카페,카페,브런치,실내, ,목줄,02-423-8882,송파구,서울특별시 송파구 석촌호수로 210 1층 103호,서울특별시 송파구 석촌호수로 210,37.5065737047164,127.100342687604,카페브런치송파구실내목줄
선호 커피 로스터스,카페,카페,실내, ,목줄,070-8836-8184,송파구,서울특별시 송파구 송이로2길 4 1층,서울특별시 송파구 송이로2길 4,37.5040191892562,127.114496353632,카페카페송파구실내목줄
쏘스윗 마카롱,카페,카페,실내, ,목줄,010-9930-8639,송파구,서울특별시 송파구 송파대로42길 46 1층,서울특별시 송파구 송파대로42길 46,37.507224290146,127.111909212252,카페카페송파구실내목줄
T E R COFFEE,카페,카페,실내, ,목줄,010-5235-7990,송파구,서울특별시 송파구 가락로 145 2층,서울특별시 송파구 가락로 145,37.5026611225741,127.11174859389,카페카페송파구실내목줄
김남매,카페,브런치,실내, ,목줄,010-7360-9825,송파구,서울특별시 송파구 가락로 167 1층 105호,서울특별시 송파구 가락로 167,37.503971543248,127.113732433506,카페브런치송파구실내목줄
정원이있는국민책방 송파점,카페,카페,실내, ,목줄,02-2202-1313,송파구,서울특별시 송파구 가락로21길 8,서울특별시 송파구 가락로21길 8,37.5032628999784,127.111371189737,카페카페송파구실내목줄
치유의 과정,카페,카페,실내, ,목줄,010-2501-7239,송파구,서울특별시 송파구 백제고분로45길 21-1 B1,서울특별시 송파구 백제고분로45길 21-1,37.5099372535424,127.108976276386,카페카페송파구실내목줄
슬로우그로스,카페,카페,실내, ,목줄,010-9178-9592,송파구,서울특별시 송파구 오금로20길 4,서울특별시 송파구 오금로20길 4,37.509326160383,127.113225370146,카페카페송파구실내목줄
코우키,카페,카페,실내, ,목줄,010-8010-0458,송파구,서울특별시 송파구 가락로17길 6,서울특별시 송파구 가락로17길 6,37.5026641505195,127.110252144098,카페카페송파구실내목줄
산체스커피로스터스,카페,카페,실내, ,목줄,010-7488-2491,송파구,서울특별시 송파구 성내천로8길 3 1층,서울특별시 송파구 성내천로8길 3,37.5022054538003,127.136085276003,카페카페송파구실내목줄
일층카페바,카페,브런치,테라스, ,목줄,02-408-1215,송파구,서울특별시 송파구 양재대로 1222 1층,서울특별시 송파구 양재대로 1222,37.5157276361757,127.131063164753,카페브런치송파구테라스목줄
르쉬드 서울,카페,카페,실내, ,목줄,02-476-9168,송파구,서울특별시 송파구 위례성대로12길 18,서울특별시 송파구 위례성대로12길 18,37.5120731461271,127.121823561333,카페카페송파구실내목줄
제로베이커리,카페,베이커리,실외, ,"캐리어,안기",02-6406-7800,송파구,서울특별시 송파구 올림픽로 354,서울특별시 송파구 올림픽로 354,37.5161703232576,127.109737321138,"카페베이커리송파구실외캐리어,안기"
꼬앙드파리,카페,브런치,실내, ,목줄,010-3573-7086,송파구,서울특별시 송파구 마천로7길 18,서울특별시 송파구 마천로7길 18,37.5094219232499,127.128474504176,카페브런치송파구실내목줄
세레니티 커피,카페,카페,실내, ,목줄,070-4236-9693,송파구,서울특별시 송파구 올림픽로51길 13,서울특별시 송파구 올림픽로51길 13,37.5316305083613,127.11923680118,카페카페송파구실내목줄
카페커피는,카페,카페,실내, ,목줄,010-5476-9354,송파구,서울특별시 송파구 토성로15길 15-8 1층,서울특별시 송파구 토성로15길 15-8,37.5305348072496,127.117432353575,카페카페송파구실내목줄
어위크,카페,카페,실내, ,캐리어,010-9277-5387,송파구,서울특별시 송파구 삼학사로 39,서울특별시 송파구 삼학사로 39,37.5008140813444,127.096604905574,카페카페송파구실내캐리어
뉴질랜드스토리,카페,브런치,실내, ,목줄,070-7523-6265,송파구,서울특별시 송파구 석촌호수로 268,서울특별시 송파구 석촌호수로 268,37.5097092982799,127.10570564968,카페브런치송파구실내목줄
블랭크,카페,카페,실내, ,목줄,010-4924-5064,송파구,서울특별시 송파구 삼전로9길 5-21 1층 101호,서울특별시 송파구 삼전로9길 5-21,37.5053462587629,127.088276014147,카페카페송파구실내목줄
에브리데이몬데이 카페,카페,카페,실내, ,목줄,010-4393-0622,송파구,서울특별시 송파구 송파대로48길 14 지하 1층,서울특별시 송파구 송파대로48길 14,37.5088560911014,127.105757265608,카페카페송파구실내목줄
오린지,카페,카페,실내, ,"캐리어,안기",010-9292-4802,송파구,서울특별시 송파구 송파대로48길 19 1층,서울특별시 송파구 송파대로48길 19,37.5095770619591,127.106273471583,"카페카페송파구실내캐리어,안기"
602dessert,카페,카페,실내, ,목줄,010-8953-3396,강남구,서울특별시 강남구 일원로5길 25 1층,서울특별시 강남구 일원로5길 25,37.4915685832333,127.082716316269,카페카페강남구실내목줄
카페알케미,카페,카페,"실내,실외", ,목줄,02-3412-6140,강남구,서울특별시 강남구 양재대로53길 7,서울특별시 강남구 양재대로53길 7,37.4912518641323,127.087246599058,"카페카페강남구실내,실외목줄"
메이린,카페,카페,실내, ,목줄,02-3412-7059,강남구,서울특별시 강남구 개포로 512 개포종합상가,서울특별시 강남구 개포로 512,37.4893072141263,127.068842082027,카페카페강남구실내목줄
세라핌모아 커피랩,카페,카페,실내, ,목줄,070-8801-1212,강남구,서울특별시 강남구 논현로6길 18,서울특별시 강남구 논현로6길 18,37.473511943393,127.050985186775,카페카페강남구실내목줄
러빙헛 카페,카페,카페,실내, ,목줄,02-576-2158,강남구,서울특별시 강남구 개포로22길 35,서울특별시 강남구 개포로22길 35,37.4768959831641,127.049437278443,카페카페강남구실내목줄
블랑커피,카페,카페,실내, ,목줄,02-575-5637,강남구,서울특별시 강남구 개포로22길 54 1층,서울특별시 강남구 개포로22길 54,37.4758136885953,127.050083342621,카페카페강남구실내목줄
Glyn,카페,카페,실내, ,목줄,02-573-2170,강남구,서울특별시 강남구 개포로21길 7 1층101호,서울특별시 강남구 개포로21길 7,37.4792599297388,127.046862009879,카페카페강남구실내목줄
에스타미네스탠드,카페,카페,테라스, ,목줄,02-3463-1009,강남구,서울특별시 강남구 남부순환로359길 13 1층,서울특별시 강남구 남부순환로359길 13,37.4858751319695,127.036387082867,카페카페강남구테라스목줄
카페453,카페,카페,실내, ,목줄,02-6225-3421,강남구,서울특별시 강남구 논현로24길 20,서울특별시 강남구 논현로24길 20,37.4818889050507,127.044741246026,카페카페강남구실내목줄
보노,카페,카페,테라스, ,목줄,02-6956-7202,강남구,서울특별시 강남구 강남대로96길 22 1층,서울특별시 강남구 강남대로96길 22,37.4999502404206,127.028783324842,카페카페강남구테라스목줄
가배도 신논현,카페,카페,실내,오전 11:00~오후 10:00,목줄,02-554-4542,강남구,"서울특별시 강남구 강남대로110길 13 2, 3층",서울특별시 강남구 강남대로110길 13,37.504032006687,127.025931147995,카페카페강남구실내목줄
겟썸커피 Downstairs,카페,카페,실내, ,목줄,070-4113-3619,강남구,서울특별시 강남구 봉은사로6길 30 지하 1층,서울특별시 강남구 봉은사로6길 30,37.5030771832102,127.027255717013,카페카페강남구실내목줄
브리커피,카페,카페,실내, ,목줄,070-7457-6577,강남구,서울특별시 강남구 영동대로138길 9 신한양 상가 102호,서울특별시 강남구 영동대로138길 9,37.5229050350666,127.056494441884,카페카페강남구실내목줄
어라운드데이,카페,카페,"실내,루프탑","일~목요일 12:00 - 21:00 / 금~토요일 12:00 - 22:00 / (사회적거리두기 기간동안 월-금 13:00-3:00 / 토,일 12:00-3:00 로 운영됩니다. :)",목줄,010-9116-3695,성동구,서울특별시 성동구 서울숲2길 24-1,서울특별시 성동구 서울숲2길 24-1,37.5468696659429,127.041271064288,"카페카페성동구실내,루프탑목줄"
카멜커피,카페,카페,실내, ,목줄,011-857-3337,강남구,서울특별시 강남구 도산대로99길 60,서울특별시 강남구 도산대로99길 60,37.5270852129791,127.048430033039,카페카페강남구실내목줄
덴시티커피,카페,카페,실내, ,목줄,010-9227-9402,강남구,서울특별시 강남구 도산대로78길 13 1층,서울특별시 강남구 도산대로78길 13,37.5230051314227,127.047050898782,카페카페강남구실내목줄
스케줄청담,카페,카페,테라스, ,목줄,02-548-3356,강남구,서울특별시 강남구 선릉로152길 37 1층,서울특별시 강남구 선릉로152길 37,37.524644994825,127.042678785802,카페카페강남구테라스목줄
카페 오씨씨,카페,카페,실내, ,"목줄,입마개",02-3443-1009,강남구,"서울특별시 강남구 봉은사로29길 10 1, 2층",서울특별시 강남구 봉은사로29길 10,37.5084637756913,127.034724016194,"카페카페강남구실내목줄,입마개"
Orner,카페,카페,실내, ,안기,070-7757-0205,강남구,서울특별시 강남구 봉은사로 327 지상 1층,서울특별시 강남구 봉은사로 327,37.5101865123901,127.042653360305,카페카페강남구실내안기
천장지구,카페,카페,실내, ,목줄,010-2469-3324,강남구,서울특별시 강남구 언주로150길 51 2층,서울특별시 강남구 언주로150길 51,37.5221662900104,127.038350529847,카페카페강남구실내목줄
모스가든,카페,카페,실외, ,목줄,02-546-8532,강남구,서울특별시 강남구 논현로139길 12,서울특별시 강남구 논현로139길 12,37.5166867855424,127.02832745164,카페카페강남구실외목줄
라이프커피,카페,카페,실내, ,"목줄,입마개",010-9941-6190,강남구,서울특별시 강남구 선릉로 741 B1,서울특별시 강남구 선릉로 741,37.5204674009895,127.039856877828,"카페카페강남구실내목줄,입마개"
웻커피 신사,카페,카페,실내, ,목줄,02-6081-5073,강남구,서울특별시 강남구 강남대로162길 18 1층,서울특별시 강남구 강남대로162길 18,37.5199269565787,127.020051822192,카페카페강남구실내목줄
에잇디 서울카페,카페,카페,실내, ,목줄,02-547-3350,강남구,서울특별시 강남구 선릉로153길 37,서울특별시 강남구 선릉로153길 37,37.5245355541133,127.036395556747,카페카페강남구실내목줄
윌비,카페,카페,실내, ,캐리어,070-7655-0222,강남구,서울특별시 강남구 강남대로158길 26 M스페이스빌딩 1층 101호,서울특별시 강남구 강남대로158길 26,37.5191856412249,127.020917772694,카페카페강남구실내캐리어
펠트 도산공원점,카페,카페,실내, ,목줄,070-7756-3145,강남구,서울특별시 강남구 언주로164길 23,서울특별시 강남구 언주로164길 23,37.5256645232426,127.03546324887,카페카페강남구실내목줄
카페 노티드 청담,카페,카페,실내, ,안기,070-8860-9377,강남구,서울특별시 강남구 도산대로53길 15 1층,서울특별시 강남구 도산대로53길 15,37.5241916888758,127.038241721129,카페카페강남구실내안기
뉴욕라츠오베이글스,카페,카페,테라스, ,목줄,02-3448-7777,강남구,서울특별시 강남구 압구정로48길 28,서울특별시 강남구 압구정로48길 28,37.5268616028561,127.036617177467,카페카페강남구테라스목줄
올어라운드 커피,카페,카페,실내, ,안기,070-8818-8236,강남구,서울특별시 강남구 영동대로85길 20-7,서울특별시 강남구 영동대로85길 20-7,37.5073823215031,127.061623736066,카페카페강남구실내안기
르브런쉭 대치점,카페,브런치,테라스, ,목줄,02-565-5531,강남구,서울특별시 강남구 삼성로 350 서울빌딩,서울특별시 강남구 삼성로 350,37.5028572092895,127.059143825482,카페브런치강남구테라스목줄
여의도커피,카페,카페,실내, ,목줄,070-7719-8983,영등포구,서울특별시 영등포구 여의대방로 386 진주상가 2층,서울특별시 영등포구 여의대방로 386,37.5188979456571,126.931943269754,카페카페영등포구실내목줄
커피는여기,카페,카페,실내, ,목줄,02-701-7332,마포구,서울특별시 마포구 백범로 152 공덕파크자이 201동 15호,서울특별시 마포구 백범로 152,37.5447477438441,126.948258201287,카페카페마포구실내목줄
브루니치,카페,카페,실내, ,목줄,010-9077-1604,마포구,서울특별시 마포구 백범로 152 공덕파크자이 102동 1층 15호,서울특별시 마포구 백범로 152,37.5447477438441,126.948258201287,카페카페마포구실내목줄
staywell café,카페,카페,실내, ,목줄,02-3273-0408,마포구,서울특별시 마포구 백범로 152 공덕파크자이 101동 1층 12호,서울특별시 마포구 백범로 152,37.5447477438441,126.948258201287,카페카페마포구실내목줄
만리커피,카페,카페,실내, ,목줄,02-713-5874,마포구,서울특별시 마포구 만리재옛길 47-1,서울특별시 마포구 만리재옛길 47-1,37.548116084935,126.956899885785,카페카페마포구실내목줄
스트레토 로스터리&카페,카페,카페,실내, ,목줄,010-8679-0553,마포구,서울특별시 마포구 마포대로12길 29-1,서울특별시 마포구 마포대로12길 29-1,37.5475172554066,126.954900895666,카페카페마포구실내목줄
타쿠미야,카페,베이커리,실내, ,목줄,02-713-5536,마포구,서울특별시 마포구 백범로 152 공덕파크자이 102동 1층 6호,서울특별시 마포구 백범로 152,37.5447477438441,126.948258201287,카페베이커리마포구실내목줄
아이엠베이글 공덕점,카페,브런치,테라스, ,목줄,070-7718-2881,마포구,서울특별시 마포구 백범로 152 101동 1층,서울특별시 마포구 백범로 152,37.5447477438441,126.948258201287,카페브런치마포구테라스목줄
MOMO,카페,카페,실내, ,목줄,02-792-5522,용산구,서울특별시 용산구 이태원로42길 42,서울특별시 용산구 이태원로42길 42,37.5364105919469,127.000826860615,카페카페용산구실내목줄
겟썸커피 Hannam,카페,카페,실내, ,목줄,070-4179-3619,용산구,서울특별시 용산구 이태원로42길 17,서울특별시 용산구 이태원로42길 17,37.5357670098998,126.999778125379,카페카페용산구실내목줄
아이도넛케어,카페,카페,실내, ,목줄,070-8882-3947,용산구,서울특별시 용산구 이태원로20가길 4,서울특별시 용산구 이태원로20가길 4,37.5335169662054,126.992395506952,카페카페용산구실내목줄
파온,카페,카페,실내, ,목줄,02-797-3776,용산구,서울특별시 용산구 이태원로45길 16,서울특별시 용산구 이태원로45길 16,37.53641311042,126.998693858886,카페카페용산구실내목줄
아이라이크마운틴,카페,카페,실내, ,목줄,02-6405-1025,용산구,서울특별시 용산구 대사관로6가길 9,서울특별시 용산구 대사관로6가길 9,37.5330361618118,126.99893795965,카페카페용산구실내목줄
한남베르그,카페,카페,실내, ,목줄,02-790-1750,용산구,서울특별시 용산구 이태원로54길 58-26 1층,서울특별시 용산구 이태원로54길 58-26,37.5357037585621,127.000554063795,카페카페용산구실내목줄
Happy Sexy Enjoy,카페,카페,실내, ,목줄,070-4213-2061,용산구,서울특별시 용산구 이태원로55가길 26-5,서울특별시 용산구 이태원로55가길 26-5,37.5374871099028,126.999730938313,카페카페용산구실내목줄
mtl 한남,카페,카페,실내, ,목줄,070-4113-3113,용산구,서울특별시 용산구 이태원로49길 24,서울특별시 용산구 이태원로49길 24,37.5371298597753,126.999056704549,카페카페용산구실내목줄
메이킷 카페,카페,카페,실내, ,목줄,070-8623-9333,강남구,서울특별시 강남구 삼성로 535 1층,서울특별시 강남구 삼성로 535,37.5096172656352,127.054664015136,카페카페강남구실내목줄
OMW애견카페,카페,애견카페,실내, ,없음,010-3663-6778,강서구,서울특별시 강서구 화곡로 194-26 1층,서울특별시 강서구 화곡로 194-26,37.5419994925673,126.842613580388,카페애견카페강서구실내없음
풀스트릿,카페,브런치,실내,"매일 11:00 - 21:00 , 월요일 휴무","목줄,매너벨트",02-326-3563,마포구,서울특별시 마포구 동교로51안길 16,서울특별시 마포구 동교로51안길 16,37.5652702034365,126.924633178184,"카페브런치마포구실내목줄,매너벨트"
지디파크,카페,카페,실내, ,목줄,02-2663-9003,강서구,서울특별시 강서구 양천로27길 167 지디파크,서울특별시 강서구 양천로27길 167,37.5804007829397,126.819472494423,카페카페강서구실내목줄
부띠끄멍,카페,애견카페,"실내,테라스", ,없음,010-9291-5241,금천구,서울특별시 금천구 시흥대로 291 롯데캐슬3차 상가동 157호,서울특별시 금천구 시흥대로 291,37.4599560487863,126.896699156299,"카페애견카페금천구실내,테라스없음"
트와블루 카페,카페,카페,"실외,테라스",평일 09:00 - 22:00 / 주말 10:00 - 22:00,목줄,070-8886-5254,성동구,서울특별시 성동구 서울숲길 50 성수동1가 685-383 1층 트와블루,서울특별시 성동구 서울숲길 50,37.5479045757678,127.042975740616,"카페카페성동구실외,테라스목줄"
리본윈도우,카페,브런치,실내,매일 11:30~21:00 (매주 월요일 휴무,"목줄,캐리어",070-4110-2568,종로구,서울특별시 종로구 대학로14길 25-1 1층,서울특별시 종로구 대학로14길 25-1,37.5843845991857,127.002451151341,"카페브런치종로구실내목줄,캐리어"
FOUNYARD Bakeshop,카페,베이커리,실내,매일 11:00 - 23:00,"목줄,캐리어,안기",02-325-8185,마포구,서울특별시 마포구 월드컵로13길 79 1층 105호 FOUNYARD,서울특별시 마포구 월드컵로13길 79,37.5548762696983,126.905879086708,"카페베이커리마포구실내목줄,캐리어,안기"
5to7 카페(디저트카페),카페,카페,"실내,테라스",매일 11:30~21:00,"목줄,안기",070-4127-7616,성동구,서울특별시 성동구 서울숲2길 44-13 1층 (서울숲역4번 출구에서340m),서울특별시 성동구 서울숲2길 44-13,37.5461148030707,127.043300498584,"카페카페성동구실내,테라스목줄,안기"
도그베이 서울점,카페,카페,"실내,실외",매일 10:00~22:00,"목줄,안기",1899-2617,광진구,서울특별시 광진구 광나루로 441 (능동 18-11),서울특별시 광진구 광나루로 441,37.5472460029599,127.078304434841,"카페카페광진구실내,실외목줄,안기"
카페 일월십일,카페,카페,"실내,테라스",매일 10:00 - 21:00,"목줄,안기",010-6610-3512,양천구,서울특별시 양천구 목동중앙남로9길 41 (목동 730-18) 1층,서울특별시 양천구 목동중앙남로9길 41,37.5378713602665,126.86414671847,"카페카페양천구실내,테라스목줄,안기"
로맨티카 카페,카페,카페,"실내,실외","매일 11:00 - 22:00, 연중무휴",목줄,02-6929-3853,은평구,서울특별시 은평구 연서로 532 진관동 219-1번지,서울특별시 은평구 연서로 532,37.640910351349,126.937846236187,"카페카페은평구실내,실외목줄"
크래프트아일랜드 잠실점,카페,브런치,"실내,테라스","월-수,공휴일 11:30~00:00 / 목-토 11:30~01:00 / 일 12:30~00:00 / 브레이크타임 14:00~16:00",목줄,02-413-1555,송파구,"서울특별시 송파구 올림픽로35가길 10 (신천동 7-14) 더샵스타파크상가 114호,115호,119호",서울특별시 송파구 올림픽로35가길 10,37.516940130045,127.102633008407,"카페브런치송파구실내,테라스목줄"
Scene,카페,카페,"실외,테라스",매일 09:00 - 23:00 1층 카페 쎈느 영업시간 / 매일 12:00 - 20:002층 편집매장 영업시간,목줄,02-468-2122,성동구,서울특별시 성동구 연무장5길 20 (성수동2가 314-2),서울특별시 성동구 연무장5길 20,37.5448924963523,127.053445596401,"카페카페성동구실외,테라스목줄"
슬로우포레스트,카페,카페,"실내,테라스",매일 12:00~19:00,목줄,070-7525-5600,종로구,서울특별시 종로구 삼청로5길 20 (팔판동 100-2),서울특별시 종로구 삼청로5길 20,37.5828160523174,126.980780093545,"카페카페종로구실내,테라스목줄"
미미에토,카페,카페,"실내,실외,테라스",매일 10:00 - 22:00 / 2층 강동우 조명전시전 무료관람,목줄,070-4900-6140,서대문구,서울특별시 서대문구 연희로 153-4 (연희동 81-19),서울특별시 서대문구 연희로 153-4,37.5712682457753,126.934005868069,"카페카페서대문구실내,실외,테라스목줄"
카페멍스,카페,애견카페,실내,매일 12:00~22:00,없음,02-933-7779,노원구,서울특별시 노원구 상계로5길 19 대광빌딩 2층,서울특별시 노원구 상계로5길 19,37.6569635707545,127.063597559855,카페애견카페노원구실내없음
55라이트 카페,카페,카페,"실내,테라스",11:00-20:00 (last order 19:50),목줄,010-2234-1769,마포구,서울특별시 마포구 희우정로 58 1층,서울특별시 마포구 희우정로 58,37.5517223827873,126.90560986618,"카페카페마포구실내,테라스목줄"
택스커피,카페,카페,실내,"매일 11:00 - 21:00, 월요일 휴무",목줄,02-333-0609,마포구,서울특별시 마포구 희우정로 56,서울특별시 마포구 희우정로 56,37.5516066698332,126.905804433893,카페카페마포구실내목줄
카페디로마,카페,카페,"실내,테라스",월-통 10:00~20:00 (라스트오더 19:00),목줄,02-525-6986,서초구,서울특별시 서초구 반포대로7길 31,서울특별시 서초구 반포대로7길 31,37.4820013511178,127.010335155166,"카페카페서초구실내,테라스목줄"
동산고와,카페,카페,"실내,테라스",매일 11:00 - 19:00,목줄,070-8224-0585,종로구,서울특별시 종로구 비봉2길 6,서울특별시 종로구 비봉2길 6,37.6104254512232,126.956789091289,"카페카페종로구실내,테라스목줄"
버터북,카페,카페,실내,평일 12:00 - 20:00 / 월요일 휴무,목줄,010-4626-6645,용산구,서울특별시 용산구 신흥로15길 20,서울특별시 용산구 신흥로15길 20,37.5441276961781,126.985712213595,카페카페용산구실내목줄
퍼피커피,카페,카페,"실내,테라스","매일 11:00 - 22:00 , 매주 월요일 휴무",목줄,02-2299-0779,성동구,서울특별시 성동구 무학로 24-1 1층,서울특별시 성동구 무학로 24-1,37.5664044540536,127.030294719471,"카페카페성동구실내,테라스목줄"
카페멈무이,카페,애견카페,실내,"매일 11:00~21:00 , 일요일은 7시 마감입니다.",없음,02-2088-5080,서대문구,서울특별시 서대문구 간호대로 35,서울특별시 서대문구 간호대로 35,37.596946753315,126.947314716333,카페애견카페서대문구실내없음
비에니,카페,카페,실내,주말 13:00 - 24:00평일 12:30 - 24:00,"목줄,안기",010-8938-0458,마포구,서울특별시 마포구 와우산로3길 48,서울특별시 마포구 와우산로3길 48,37.5456930451717,126.920353997175,"카페카페마포구실내목줄,안기"
레귤러서비스,카페,카페,실내,일요일 12:00 - 18:00 (last order 17:30) / 평일 12:00 - 20:00(last order 19:30) / 월요일 휴무,목줄,070-8866-6727,마포구,서울특별시 마포구 월드컵로25길 58,서울특별시 마포구 월드컵로25길 58,37.5579535116605,126.904280437588,카페카페마포구실내목줄
상도다방,카페,카페,실내,월.화.목.금 11:00~19:00 / 수.토 11:~22:00 / 일요일 휴무,"목줄,안기",010-9722-8832,마포구,서울특별시 마포구 월드컵로25길 74,서울특별시 마포구 월드컵로25길 74,37.5577135281203,126.903667439788,"카페카페마포구실내목줄,안기"
꽃추장,카페,카페,실내,"평일 12:00 - 22:00, 토요일 12:00 - 23:00, 월요일 휴무",목줄,02-6083-3034,마포구,서울특별시 마포구 망원로 48,서울특별시 마포구 망원로 48,37.5566446076283,126.902160644094,카페카페마포구실내목줄
토크넌센스,카페,카페,실내,매일 11:00 - 23:00(일요일 11:00 - 20:00),목줄,010-6278-8858,동작구,서울특별시 동작구 흑석로8길 7,서울특별시 동작구 흑석로8길 7,37.5068349567566,126.9596603091,카페카페동작구실내목줄
카페 쉔,카페,카페,실내,평일 12:00 - 21:00(일요일 12:00-20:00),목줄,070-7799-0252,노원구,서울특별시 노원구 동일로184길 52,서울특별시 노원구 동일로184길 52,37.6244170322767,127.076508640254,카페카페노원구실내목줄
피크니크,카페,카페,"실내,테라스","평일 09:30 - 22:30, 주말,공휴일 10:00 - 22:00",목줄,070-7758-6770,영등포구,서울특별시 영등포구 양평로22길 2-1,서울특별시 영등포구 양평로22길 2-1,37.5380088480423,126.894367675263,"카페카페영등포구실내,테라스목줄"
카페캔플,카페,카페,실내,"평일 12:00 - 23:00, 주말 11:00 - 23:00",목줄,02-549-7480,강남구,서울특별시 강남구 도산대로17길 37-1,서울특별시 강남구 도산대로17길 37-1,37.5209457770174,127.023643806847,카페카페강남구실내목줄
Summer Lane,카페,브런치,실내,매일 07:30 - 18:00,목줄,02-792-8114,용산구,서울특별시 용산구 이태원로55가길 49,서울특별시 용산구 이태원로55가길 49,37.5363596860333,126.999266710454,카페브런치용산구실내목줄
비건카페 패밀리앤프렌즈,카페,카페,실내,"평일 09:30 - 22:00, 토요일 11:00 - 22:00, 일요일 휴무",목줄,010-6341-3574,성북구,서울특별시 성북구 삼선교로14길 37,서울특별시 성북구 삼선교로14길 37,37.5865432139381,127.0104248835,카페카페성북구실내목줄
underfloor,카페,카페,실내,매일 13:00 - 23:00(월요일 휴무),목줄,010-8448-9108,마포구,서울특별시 마포구 동교로 232,서울특별시 마포구 동교로 232,37.5605835663658,126.924469146205,카페카페마포구실내목줄
애크미,카페,카페,실내,"평일 09:30 - 23:00, 주말 11:00 - 22:00",목줄,02-2668-8159,강서구,서울특별시 강서구 화곡로61길 100,서울특별시 강서구 화곡로61길 100,37.5584442336471,126.847003570425,카페카페강서구실내목줄
카페몽당,카페,카페,실내,매일 10:00 - 22:00,목줄,070-4116-7922,광진구,서울특별시 광진구 광장로5길 24,서울특별시 광진구 광장로5길 24,37.548811796092,127.105263491695,카페카페광진구실내목줄
베베커피로스터즈,카페,카페,실내,"평일 08:30 - 20:00, 토요일 10:00 - 19:00, 일요일,공휴일 휴무",목줄,02-6339-7418,영등포구,서울특별시 영등포구 선유로52길 12,서울특별시 영등포구 선유로52길 12,37.5356080048521,126.899485253126,카페카페영등포구실내목줄
땡스오트,카페,카페,실내,"평일 12:00 - 21:00, 주말 12:00 - 21:00",목줄,02-3144-0890,마포구,서울특별시 마포구 성미산로23길 68,서울특별시 마포구 성미산로23길 68,37.5662739481646,126.919897441386,카페카페마포구실내목줄
웨스트빙고 서빙고동점,카페,카페,실내,"평일 08:00 - 23:00, 주말 11:00 - 23:00",목줄,010-5119-8833,용산구,서울특별시 용산구 서빙고로51길 10,서울특별시 용산구 서빙고로51길 10,37.5207573226422,126.990921365648,카페카페용산구실내목줄
일월일일,카페,카페,실내,매일 12:00 - 23:00(월요일 휴무),목줄,010-7378-0887,종로구,서울특별시 종로구 창경궁로 231,서울특별시 종로구 창경궁로 231,37.5826545208479,126.998034935369,카페카페종로구실내목줄
브리에,카페,카페,실내,매일 11:00 - 21:00(월요일 휴무),목줄,010-9940-1879,강동구,서울특별시 강동구 강동대로51길 50,서울특별시 강동구 강동대로51길 50,37.5257196873822,127.130633673375,카페카페강동구실내목줄
둔촌237커피농장,카페,카페,실내,평일 17:00 - 23:00,목줄,02-488-6902,강동구,서울특별시 강동구 강동대로 331,서울특별시 강동구 강동대로 331,37.5186895438591,127.141867356035,카페카페강동구실내목줄
카페설곡,카페,카페,실내,매일 11:00 - 23:00,목줄,02-928-0019,성북구,서울특별시 성북구 안암로5길 22,서울특별시 성북구 안암로5길 22,37.5801195108506,127.023918702271,카페카페성북구실내목줄
퍼스널커피,카페,카페,실내,매일 10:00 - 22:00,목줄,070-8624-5404,마포구,서울특별시 마포구 망원로6길 50,서울특별시 마포구 망원로6길 50,37.5547273217116,126.90373941352,카페카페마포구실내목줄
쟈드니에,카페,브런치,실내,매일 11:00 - 22:00,목줄,010-8020-9433,마포구,서울특별시 마포구 동교로51길 133-1,서울특별시 마포구 동교로51길 133-1,37.5664308171204,126.91977299085,카페브런치마포구실내목줄
신월커피,카페,카페,실내,"매일 10:00 - 21:00, 월요일 휴무",목줄,02-2699-8572,양천구,서울특별시 양천구 남부순환로58길 27-1,서울특별시 양천구 남부순환로58길 27-1,37.5295440859518,126.831205970743,카페카페양천구실내목줄
카페 자작나무,카페,카페,테라스,매일 10:00 - 23:00,목줄,02-839-8888,금천구,서울특별시 금천구 가산로 61,서울특별시 금천구 가산로 61,37.4718013047734,126.896008983523,카페카페금천구테라스목줄
정월,카페,카페,실내,매일 11:00 - 22:30,목줄,02-6013-0926,강남구,서울특별시 강남구 강남대로102길 46,서울특별시 강남구 강남대로102길 46,37.5036597194557,127.028626641848,카페카페강남구실내목줄
쓰리버즈 IFC점,카페,카페,실내,"평일 08:00 - 23:00, 주말 10:00 - 23:00",캐리어,02-6137-3031,영등포구,서울특별시 영등포구 국제금융로 10,서울특별시 영등포구 국제금융로 10,37.5251775245928,126.924876706923,카페카페영등포구실내캐리어
분카샤,카페,카페,실내,매일 11:00 - 23:00,목줄,02-2269-6947,중구,서울특별시 중구 을지로14길 20,서울특별시 중구 을지로14길 20,37.5653293095122,126.992032788262,카페카페중구실내목줄
본새커피,카페,카페,실내,매일 10:30 - 24:00,목줄,010-2121-7869,강동구,서울특별시 강동구 암사길 50,서울특별시 강동구 암사길 50,37.5513635720856,127.134728442286,카페카페강동구실내목줄
그래버커피 가리봉점,카페,브런치,실내,매일 08:00 - 21:00,안기,070-4671-8351,구로구,서울특별시 구로구 디지털로 238,서울특별시 구로구 디지털로 238,37.4808982598868,126.891996400657,카페브런치구로구실내안기
포니테일,카페,카페,실내,매일 11:30 - 24:00(일요일 11:30 - 22:00),목줄,070-8854-3339,마포구,서울특별시 마포구 광성로6길 36,서울특별시 마포구 광성로6길 36,37.5482974299772,126.93904963613,카페카페마포구실내목줄
로즈드마이,카페,카페,실내,매일 12:00 - 23:00,목줄,02-6401-4679,은평구,서울특별시 은평구 불광천길 312,서울특별시 은평구 불광천길 312,37.5879478312466,126.913909771436,카페카페은평구실내목줄
프릳츠 도화점,카페,카페,실내,평일 08:00 - 23:00주말 10:00 - 23:00,목줄,02-3275-2045,마포구,서울특별시 마포구 새창로2길 17,서울특별시 마포구 새창로2길 17,37.5410234571029,126.949074787241,카페카페마포구실내목줄
경계선,카페,카페,실외,"매일 11:00 - 19:00, 일요일 휴무",목줄,010-3957-7341,강북구,서울특별시 강북구 삼각산로 22-7,서울특별시 강북구 삼각산로 22-7,37.6384971840257,127.007103860701,카페카페강북구실외목줄
뚝방길 홍차가게,카페,브런치,실내,"매일 12:00 - 21:00, 월요일, 화요일 휴무",없음,02-512-0189,광진구,서울특별시 광진구 자양강변길 277,서울특별시 광진구 자양강변길 277,37.5299864307482,127.073853877901,카페브런치광진구실내없음
그냥 방실,카페,카페,실내,"매일11:00~23:00, 매주월요일휴무",목줄,070-4196-0123,마포구,서울특별시 마포구 희우정로20길 71,서울특별시 마포구 희우정로20길 71,37.556259678373,126.904220131871,카페카페마포구실내목줄
1994양과점,카페,카페,실내,매일 11:00 - 22:00,목줄,010-8885-6527,은평구,서울특별시 은평구 연서로26길 9-5,서울특별시 은평구 연서로26길 9-5,37.6172684395835,126.92079319037,카페카페은평구실내목줄
꾸머카페,카페,카페,테라스,매일 10:00 - 23:00,목줄,02-322-8930,마포구,서울특별시 마포구 성지길 40,서울특별시 마포구 성지길 40,37.5469262424053,126.912706547089,카페카페마포구테라스목줄
스태픽스,카페,카페,"실내,실외",매일 10:00 - 22:00(월요일 휴무),없음,010-4274-2055,종로구,서울특별시 종로구 사직로9길 22,서울특별시 종로구 사직로9길 22,37.5774727868463,126.967882018316,"카페카페종로구실내,실외없음"
murmur,카페,카페,실내,"매일 12:00 - 19:30 휴무일은 유동적이오니 확인부탁드리며, 디저트소진시 매장은 마감됩니다.",목줄,010-2671-4488,송파구,서울특별시 송파구 삼학사로18길 5 나이스빌 1층 카페 머머 murmur,서울특별시 송파구 삼학사로18길 5,37.504469402659,127.097769983557,카페카페송파구실내목줄
꽁티드툴레아,카페,카페,"실내,테라스","평일12:00~23:00, 월요일휴무","목줄,안기",070-8846-8490,강남구,서울특별시 강남구 도산대로49길 39,서울특별시 강남구 도산대로49길 39,37.5255631741936,127.036889294894,"카페카페강남구실내,테라스목줄,안기"
파니모들,카페,카페,실내,"평일 08:00 - 22:30 주말,공휴일 11:00 - 22:30",없음,070-7607-8252,동작구,서울특별시 동작구 동작대로 153,서울특별시 동작구 동작대로 153,37.4902343305114,126.982229262346,카페카페동작구실내없음
머치커피,카페,카페,실내,매일 12:00 - 21:00,없음,010-4788-2726,동작구,서울특별시 동작구 동작대로9길 43,서울특별시 동작구 동작대로9길 43,37.480624292907,126.979092981405,카페카페동작구실내없음
아스트로노머스커피 망원점,카페,카페,실내,매일 12:00 - 21:00,없음,070-4100-0064,마포구,서울특별시 마포구 망원로7길 65,서울특별시 마포구 망원로7길 65,37.5602067988399,126.904039196893,카페카페마포구실내없음
오후의 파이,카페,카페,실내,"매일 11:30 - 20:30, 월요일 휴무",없음,010-6779-3211,송파구,서울특별시 송파구 삼학사로16길 4,서울특별시 송파구 삼학사로16길 4,37.5035223319784,127.0976902607,카페카페송파구실내없음
썸머홀릭,카페,카페,실내,"평일 10:30~20:00(매주 월요일 휴무), 주말 10:30~20:30(1,3 주일요일 휴무)",목줄,010-5034-7702,마포구,서울특별시 마포구 독막로31길 18,서울특별시 마포구 독막로31길 18,37.547778636066,126.939577731779,카페카페마포구실내목줄
까사밀,카페,카페,실내,"매일 아침 07:00 - 10:00, 점심 11:30 - 15:00, 저녁 18:00 - 22:00, 주문마감 21:00",목줄,02-543-0079,강남구,서울특별시 강남구 도산대로1길 83,서울특별시 강남구 도산대로1길 83,37.5221388230596,127.019547319808,카페카페강남구실내목줄
카페1953위드오드리,카페,카페,실내,매일 10:00 - 23:00,목줄,02-2672-0504,영등포구,서울특별시 영등포구 경인로77가길 12,서울특별시 영등포구 경인로77가길 12,37.5119106087677,126.892077278978,카페카페영등포구실내목줄
딩가케이크,카페,베이커리,실내,"11:30 - 22:00, 금,토 11:30 - 23:00",목줄,-,마포구,서울특별시 마포구 동교로29길 68,서울특별시 마포구 동교로29길 68,37.5634037503728,126.922073899976,카페베이커리마포구실내목줄
나무사이로,카페,카페,실외,10:00 - 22:00,없음,070-7590-0885,종로구,서울특별시 종로구 사직로8길 21,서울특별시 종로구 사직로8길 21,37.5746665386618,126.970971159569,카페카페종로구실외없음
슬로우레빗,카페,카페,테라스,"평일 07:30 - 20:30, 토요일 09:00 - 17:00, 일요일 휴무",목줄,02-2247-7772,성동구,서울특별시 성동구 용답중앙13길 15-1,서울특별시 성동구 용답중앙13길 15-1,37.5655913366184,127.053151262603,카페카페성동구테라스목줄
오아시스엉클,카페,카페,실내,"평일 10:00 - 21:00, 토요일 12:00 - 21:00, 일요일, 공휴일 12:00 - 18:00",없음,02-6013-3133,송파구,서울특별시 송파구 송이로38길 8,서울특별시 송파구 송이로38길 8,37.4861335929999,127.133061608184,카페카페송파구실내없음
보틀라운지(보틀팩토리),카페,카페,실내,월 정기휴무 (매주 월요일)   화 10:00 - 21:00   수 10:00 - 21:00   목 10:00 - 21:00   금 10:00 - 21:00   토 10:00 - 21:00   일 10:00 - 21:00,목줄,02-3144-0703,서대문구,서울특별시 서대문구 홍연길 26,서울특별시 서대문구 홍연길 26,37.575182819531,126.928474475085,카페카페서대문구실내목줄
마이쏭,카페,카페,실내,"매일 10:00 - 22:00 Break Time 15:00~17:00, 수요일 10:00 - 15:00, Only Brunch Buffet Time",목줄,02-518-0105,강남구,서울특별시 강남구 도산대로45길 16-4,서울특별시 강남구 도산대로45길 16-4,37.5233441012079,127.035698015808,카페카페강남구실내목줄
씨디티,카페,카페,실내,"매일 11:00 - 21:00, 매주 일요일 휴무",목줄,010-4235-3161,중구,서울특별시 중구 동호로14길 23,서울특별시 중구 동호로14길 23,37.5566356502357,127.010649782169,카페카페중구실내목줄
라딧프로젝트,카페,카페,실내,"12:00 - 22:00, 월요일 휴무",없음,02-2088-7789,송파구,서울특별시 송파구 송파대로 450,서울특별시 송파구 송파대로 450,37.5068501919978,127.106150964061,카페카페송파구실내없음
는커피,카페,카페,실내,"평일 08:30 - 20:00, 주말,공휴일 11:30 - 20:00",없음,02-2246-1212,중구,서울특별시 중구 청구로4길 19,서울특별시 중구 청구로4길 19,37.5606722474256,127.015220389645,카페카페중구실내없음
상봉커피,카페,카페,실내,"12:00 - 22:00, 매주 월요일 휴무",없음,010-2206-1029,중랑구,서울특별시 중랑구 봉우재로 96,서울특별시 중랑구 봉우재로 96,37.5919358662034,127.083747480994,카페카페중랑구실내없음
카페엔바이콘 논현점,카페,카페,실내,"평일 07:00 - 21:00, 주말,공휴일 10:00 - 20:00",없음,02-540-8522,강남구,"서울특별시 강남구 논현로149길 66 지하 1,2층(논현동)",서울특별시 강남구 논현로149길 66,37.516933337701,127.023198111359,카페카페강남구실내없음
엣모스피어,카페,카페,실내,"매일 12:00 - 23:00, 매달 첫째주 월요일 휴무",없음,070-8692-4162,마포구,서울특별시 마포구 망원로 54-1,서울특별시 마포구 망원로 54-1,37.5567798114592,126.902881167832,카페카페마포구실내없음
린도 shop&cafe,카페,카페,실내,"목, 금, 월 13:30 - 21:00, 화,수,토,일 13:30 - 20:00",목줄,010-6384-8586,동작구,서울특별시 동작구 사당로 251,서울특별시 동작구 사당로 251,37.4834799241003,126.97566180228,카페카페동작구실내목줄
카페 봉브라더스,카페,애견카페,실내,10:00~24:00,없음,02-548-0888,강남구,서울특별시 강남구 강남대로118길 39,서울특별시 강남구 강남대로118길 39,37.5073409674001,127.026253046099,카페애견카페강남구실내없음
구구만다복,카페,카페,실내,매일 09:30 - 22:00,없음,-,중구,인천광역시 중구 차이나타운로 40,인천광역시 중구 차이나타운로 40,37.4757525587488,126.619426776811,카페카페중구실내없음
이시이,카페,카페,실내,평일 11:00 - 23:00주말 12:00 - 23:00,없음,-,중구,서울특별시 중구 다산로14길 12,서울특별시 중구 다산로14길 12,37.555894446129,127.012040698745,카페카페중구실내없음
더로열푸드앤드링크,카페,카페,실내,매일 10:00 - 22:00,목줄,070-7774-4168,용산구,서울특별시 용산구 신흥로20길 37,서울특별시 용산구 신흥로20길 37,37.5471940192888,126.983942131695,카페카페용산구실내목줄
그레이랩,카페,카페,테라스,"평일 10:00 - 22:00, 주말 12:00 - 22:00",없음,02-333-5694,마포구,서울특별시 마포구 토정로3길 16,서울특별시 마포구 토정로3길 16,37.5462838392978,126.914442257195,카페카페마포구테라스없음
대루커피,카페,카페,실내,"매일 11:00 - 22:00, 월요일 11:00 - 18:00, 화요일 휴무",없음,070-7797-2162,마포구,서울특별시 마포구 동교로 70,서울특별시 마포구 동교로 70,37.553514217612,126.909903441458,카페카페마포구실내없음
밤부 베이커리&브루잉,카페,카페,실내,매일 11:00 - 22:30,없음,02-3144-0446,마포구,서울특별시 마포구 월드컵로5길 33-23,서울특별시 마포구 월드컵로5길 33-23,37.550610119207,126.910969792442,카페카페마포구실내없음
론드리프로젝트 워시타운,카페,카페,실내,"평일 08:00 - 22:00, 주말, 공휴일 10:00 - 22:00",없음,070-7794-8488,마포구,서울특별시 마포구 월드컵로10길 48,서울특별시 마포구 월드컵로10길 48,37.5552783467393,126.914226452797,카페카페마포구실내없음
펠앤콜,카페,카페,실내,"매일 12:00 - 22:00, 명절 휴무",없음,070-4411-1434,마포구,서울특별시 마포구 와우산로 39-21,서울특별시 마포구 와우산로 39-21,37.5481634403528,126.92216581335,카페카페마포구실내없음
세컨브레스,카페,카페,실내,"매일 12:00 - 21:00, 월요일 휴무",없음,02-575-9840,서초구,서울특별시 서초구 양재천로 95-2,서울특별시 서초구 양재천로 95-2,37.4761038683546,127.03974738525,카페카페서초구실내없음
빈터커피로스터스,카페,카페,실내,"매일 10:00 - 21:00, 일요일 12:00 - 21:00",목줄,070-8824-7300,강동구,서울특별시 강동구 양재대로115길 10,서울특별시 강동구 양재대로115길 10,37.5390221961248,127.139799724208,카페카페강동구실내목줄
브라이언스커피,카페,카페,테라스,"평일 08:00 - 22:00, 주말 09:00 - 22:00, 명절 당일 13:00 - 22:00",목줄,02-529-6399,강남구,서울특별시 강남구 논현로26길 46,서울특별시 강남구 논현로26길 46,37.4838572994625,127.045784429364,카페카페강남구테라스목줄
비스트로마인,카페,카페,"실내,테라스","10:00 - 23:00 (last order 10:30), 매주 월요일 휴무",없음,02-2202-3775,송파구,서울특별시 송파구 석촌호수로18길 26,서울특별시 송파구 석촌호수로18길 26,37.504639620603,127.10159241737,"카페카페송파구실내,테라스없음"
neighborhood,카페,카페,"실내,실외",매일 11:00 - 23:00,없음,02-747-6730,성북구,서울특별시 성북구 대사관로 133,서울특별시 성북구 대사관로 133,37.6007186974551,126.995125389196,"카페카페성북구실내,실외없음"
헤이쥬드,카페,카페,"실내,실외",매일 12:00 - 23:00 월요일 휴무,목줄,010-4077-4851,마포구,서울특별시 마포구 와우산로37길 7,서울특별시 마포구 와우산로37길 7,37.5558959334096,126.930456482443,"카페카페마포구실내,실외목줄"
로이터 커피 셸터,카페,카페,실내,매일 11:00 - 23:00,"목줄,없음",02-2273-8870,중구,서울특별시 중구 필동로 53,서울특별시 중구 필동로 53,37.5567618391611,126.995916520309,"카페카페중구실내목줄,없음"
카페브르브르,카페,카페,실내,"수~일 11:30~21:00, 월 11:30~20:00, 매주 화요일 휴무, 매월 첫주 월요일 휴무","목줄,안기",-,동작구,서울특별시 동작구 사당로29가길 6,서울특별시 동작구 사당로29가길 6,37.4852307184243,126.979197415808,"카페카페동작구실내목줄,안기"
라운드브릭,카페,카페,실내,"평일 10:30~21:00, 토요일 12:00~20:00, 일요일 휴무",목줄,010-2326-5620,광진구,서울특별시 광진구 광장로 67,서울특별시 광진구 광장로 67,37.5475924401284,127.104592992945,카페카페광진구실내목줄
카페 퍼블리코 본점,카페,카페,테라스,매일 09:00~22:00,목줄,02-815-4000,동작구,"서울특별시 동작구 상도로 47 헬로우빌딩 B동 1,2층",서울특별시 동작구 상도로 47,37.4999426290679,126.925833852835,카페카페동작구테라스목줄
오바도즈,카페,카페,실내,"12:00 ~ 22:30, 일요일 12:00 ~ 21:30",목줄,02-326-3366,마포구,서울특별시 마포구 독막로9길 3-4,서울특별시 마포구 독막로9길 3-4,37.5487521009841,126.919402547874,카페카페마포구실내목줄
폴드커피,카페,카페,실내,"12:00~22:00, 화요일 휴무",목줄,02-912-9946,성북구,서울특별시 성북구 종암로 214-3,서울특별시 성북구 종암로 214-3,37.6090512792677,127.03080194787,카페카페성북구실내목줄
펄앤콜,카페,카페,실내,"12:00 ~ 22:00, 명절 휴무","목줄,안기",070-4411-1434,마포구,서울 마포구 와우산로 39-21,서울 마포구 와우산로 39-21,37.5481634403528,126.92216581335,"카페카페마포구실내목줄,안기"
가배도,카페,카페,실내,매일 12:00 ~ 21:00,목줄,02-423-4542,송파구,서울특별시 송파구 백제고분로45길 6 2층,서울특별시 송파구 백제고분로45길 6,37.5092693166428,127.110840269778,카페카페송파구실내목줄
카페 버터럼,카페,카페,실내,매일 09:00 - 23:00 / 연중무휴,캐리어,02-6015-8020,관악구,서울 관악구 관악로30길 9,서울 관악구 관악로30길 9,37.4865223563782,126.958000295694,카페카페관악구실내캐리어
수목금토 카페,카페,카페,테라스,"평일 11:00 - 19:00    금요일 11:00 - 21:00    주말 11:00 - 21:00    1/1, 설날연휴, 추석연휴, 12/25 휴무",목줄,070-4226-7812,강남구,서울 강남구 강남대로136길 63,서울 강남구 강남대로136길 63,37.5145162029857,127.025444662828,카페카페강남구테라스목줄
모멘트커피 2호점,카페,카페,"실내,테라스",매일 10:00 - 22:00,"목줄,캐리어",070-8860-5287,마포구,서울 마포구 월드컵북로4길 29,서울 마포구 월드컵북로4길 29,37.5577001130267,126.921036916395,"카페카페마포구실내,테라스목줄,캐리어"
cafevizan (카페비잔),카페,카페,실내,평일 13:00 - 21:30    토요일 12:00 - 22:00    일요일 13:00 - 21:30,"캐리어,안기",010-6460-3618,중구,서울특별시 중구 동호로11길 53,서울특별시 중구 동호로11길 53,37.5529553237979,127.008707155115,"카페카페중구실내캐리어,안기"
오츠커피,카페,카페,실내,매일 11:00 - 21:00 / 일요일 휴무,목줄,070-7776-5542,용산구,서울 용산구 원효로89길 13-12,서울 용산구 원효로89길 13-12,37.5404127627447,126.967763612059,카페카페용산구실내목줄
개뿔,카페,카페,테라스, ,목줄,02-765-2019,종로구,서울 종로구 낙산성곽서1길 26,서울 종로구 낙산성곽서1길 26,37.5781776751424,127.008046580681,카페카페종로구테라스목줄
카페 오롯,카페,카페,"실외,테라스",평일 10:00 - 23:00    주말 11:00 - 23:00,목줄,02-2292-2223,성동구,서울 성동구 상원6나길 7,서울 성동구 상원6나길 7,37.5484833144802,127.049573578421,"카페카페성동구실외,테라스목줄"
트리아농,카페,카페,테라스,매일 09:00 - 22:00 / 일요일 휴무,목줄,070-8129-5955,강남구,서울 강남구 학동로59길 43,서울 강남구 학동로59길 43,37.5203242609225,127.044564980892,카페카페강남구테라스목줄
그레인,카페,브런치,"실내,테라스",매일 09:00 - 20:00 / Last order | 19:00,목줄,02-336-7559,마포구,서울 마포구 동교로46길 23,서울 마포구 동교로46길 23,37.5623444043086,126.926067221131,"카페브런치마포구실내,테라스목줄"
새실정원,카페,카페,"실내,테라스",매일 12:00 - 22:00 / 월요일 휴무,목줄,070-4122-1620,관악구,서울 관악구 관악로14길 103,서울 관악구 관악로14길 103,37.477860540491,126.958090614288,"카페카페관악구실내,테라스목줄"
카페비 (cafe b),카페,카페,"실내,테라스",매일 11:00 - 24:00연중무휴,목줄,02-904-4949,도봉구,서울 도봉구 해등로 67,서울 도봉구 해등로 67,37.6494724805178,127.041708290067,"카페카페도봉구실내,테라스목줄"
플로렛플라워카페,카페,카페,"실내,테라스",매일 10:00 - 22:00,목줄,02-575-0725,강남구,서울 강남구 양재천로 185,서울 강남구 양재천로 185,37.4824373930953,127.046033997793,"카페카페강남구실내,테라스목줄"
아러바우트,카페,카페,실내,"평일 08:00 - 21:00
주말 10:00 - 21:00
공휴일 10:00 - 21:00",목줄,02-711-1351,용산구,서울 용산구 대사관로8길 15,서울 용산구 대사관로8길 15,37.5333226818967,127.000845268329,카페카페용산구실내목줄
다용도실,카페,카페,실내,"매일 13:00 - 23:00(금,토 -24:00) / 화요일 휴무",목줄,010-4321-3538,은평구,서울 은평구 연서로20길 17,서울 은평구 연서로20길 17,37.6140977069886,126.919896006166,카페카페은평구실내목줄
33apartment,카페,카페,실내,"평일 08:00 - 18:00
토요일 08:00 - 18:00
일요일 10:00 - 18:00",목줄,02-794-0033,용산구,서울 용산구 한남대로27길 33,서울 용산구 한남대로27길 33,37.5382466155579,127.002993200194,카페카페용산구실내목줄
올드페리도넛,카페,카페,"실내,테라스",매일 10:00 - 22:00 / 매주 화요일 휴무,"목줄,입마개",02-6015-2022,용산구,서울 용산구 한남대로27길 66,서울 용산구 한남대로27길 66,37.539599647338,127.003000269542,"카페카페용산구실내,테라스목줄,입마개"
플랫랜드,카페,카페,테라스,"매일 11:00 - 22:00
마지막 주문 21:30
월요일 휴무",목줄,02-322-0065,마포구,서울 마포구 동교로17길 37,서울 마포구 동교로17길 37,37.5565068569981,126.91509966054,카페카페마포구테라스목줄
스윗솔트,카페,카페,테라스,매일 09:30 - 23:00,목줄,02-3427-0999,강동구,서울 강동구 상암로 286,서울 강동구 상암로 286,37.5454812745578,127.154135688838,카페카페강동구테라스목줄
리인,카페,카페,실내,월 12:00 - 21:00   화 12:00 - 21:00   수 12:00 - 21:00   목 12:00 - 21:00   금 12:00 - 21:00   토 12:00 - 22:00   일 12:00 - 22:00,목줄,070-8614-1233,마포구,서울특별시 마포구 월드컵로11길 80 1층,서울특별시 마포구 월드컵로11길 80,37.5537452350931,126.90677195511,카페카페마포구실내목줄
헤이줄리,카페,카페,실내,평일 12:00 - 20:00 / 주말 12:30 - 20:30,목줄,070-4191-0716,종로구,서울 종로구 동순라길 108,서울 종로구 동순라길 108,37.5754475051499,126.995909273986,카페카페종로구실내목줄
아마,카페,카페,실내,매일 14:00 - 24:00,목줄,010-4972-2620,마포구,서울 마포구 희우정로16길 46,서울 마포구 희우정로16길 46,37.5547095882398,126.904536168633,카페카페마포구실내목줄
왓더독,카페,애견카페,실내,평일 07:30 - 21:00 주말 10:00 - 21:00,없음,02-3664-0219,강서구,서울 강서구 양천로 344,서울 강서구 양천로 344,37.5682660192783,126.840359563104,카페애견카페강서구실내없음
도킹,카페,카페,실내,매일 10:30 - 23:00,목줄,070-7757-1207,서초구,서울특별시 서초구 동산로19길 54,서울특별시 서초구 동산로19길 54,37.4749722066959,127.045708916565,카페카페서초구실내목줄
괜찮아우리사이,카페,카페,실내,매일 14:00 - 22:00,없음,02-3285-1568,광진구,서울특별시 광진구 아차산로31길 27,서울특별시 광진구 아차산로31길 27,37.5422535873959,127.069642300096,카페카페광진구실내없음
개버랜드,카페,애견카페,실내,평일 13:00 - 21:00 / 화요일 14:00 - 21:00 / 주말 12:30 - 21:00 / 공휴일 12:30 - 21:00,없음,02-2647-5336,양천구,"서울특별시 양천구 목동서로 349 2층 211,212호",서울특별시 양천구 목동서로 349,37.517406535882,126.865306840725,카페애견카페양천구실내없음
hundred11,카페,카페,실내,매일 08:00 - 22:00 / 공휴일휴무,목줄,010-7136-2615,서초구,서울 서초구 서초대로 3-4,서울 서초구 서초대로 3-4,37.4860317945544,126.983083699338,카페카페서초구실내목줄
도그원애견카페,카페,애견카페,실내,"주말 13:00 - 22:00 , 평일 휴무 평일 애견유치원으로 운영",없음,02-357-1591,은평구,서울 은평구 연서로29길 25,서울 은평구 연서로29길 25,37.6194390683674,126.917590209994,카페애견카페은평구실내없음
컬쳐커피,카페,카페,실내,평일 10:00~22:00 / 주말 12:00~18:00,안기,02-786-0525,영등포구,서울 영등포구 의사당대로 127 롯데캐슬엠파이어 1층,서울 영등포구 의사당대로 127,37.5202405439146,126.926406742546,카페카페영등포구실내안기
광합성카페,카페,카페,실내,매일 11:00 - 22:00 / 일요일 11:00 - 20:00,목줄,02-333-6933,마포구,서울 마포구 월드컵로19길 8,서울 마포구 월드컵로19길 8,37.5570970046822,126.908460097445,카페카페마포구실내목줄
그대쉴꽃,카페,카페,실내,매일 11:00 - 23:00 / 휴무없음,목줄,02-966-0813,동대문구,서울 동대문구 회기로19길 6,서울 동대문구 회기로19길 6,37.5918196697676,127.052866457906,카페카페동대문구실내목줄
카페 포포리,카페,카페,실내,"평일 08:00 - 22:00 / 1,3주 일요일 휴무",목줄,070-8623-8938,마포구,서울 마포구 연남로5길 8,서울 마포구 연남로5길 8,37.5622488193092,126.921343257636,카페카페마포구실내목줄
개랑놀아주는남자,카페,애견카페,실내,"매일 00:00 - 24:00 유치원, 놀이방   매일 09:30 - 23:00 애견미용   매일 10:00 - 01:00 애견카페",없음,02-3481-8080,서초구,서울특별시 서초구 사평대로56길 4 지하1층,서울특별시 서초구 사평대로56길 4,37.5034603568189,127.022680491549,카페애견카페서초구실내없음
라운지독,카페,애견카페,"실내,테라스",평일 08:00 - 21:00   주말 11:00 - 21:00 카페는 주말에만 이용 가능하며 평일은 유치원 호텔만 이용 가능합니다., ,070-4185-5551,강서구,서울특별시 강서구 강서로62길 98 5층 라운지독,서울특별시 강서구 강서로62길 98,37.5616988297823,126.845014067467,"카페애견카페강서구실내,테라스 "
미스터토리,카페,애견카페,실내,매일 12:00 - 21:00,없음,070-7779-8228,영등포구,서울 영등포구 도신로 85,서울 영등포구 도신로 85,37.5070762059535,126.90170635565,카페애견카페영등포구실내없음
배추공주와페키들의감성놀이터,카페,애견카페,실내,평일 07:30 - 21:00    주말 13:00 - 21:00 평일    평일 08:30 - 10:30 Break time,없음,010-7137-1377,동작구,서울 동작구 상도로58길 4,서울 동작구 상도로58길 4,37.4959198885947,126.953041186359,카페애견카페동작구실내없음
Im(아이엠),카페,애견카페,실내,"평일 08:00 - 19:00 애견훈련,애견유치원    주말 11:00 - 19:00 애견카페",없음,02-593-6700,서초구,서울 서초구 동광로 183,서울 서초구 동광로 183,37.4938037337814,127.001713618532,카페애견카페서초구실내없음
도니바니애견카페,카페,애견카페,실내,매일 11:00 - 21:00(20:30 라스트오더)   유치원/호텔 10:00 - 21:30,없음,02-933-1456,노원구,서울특별시 노원구 상계로 71-1 2층,서울특별시 노원구 상계로 71-1,37.6566417949117,127.062991440526,카페애견카페노원구실내없음
강아지정류장,카페,애견카페,실내,화요일 13:00 - 21:00 유치원/호텔   수요일 13:00 - 21:00 유치원/호텔   목요일 13:00 - 21:00 유치원/호텔   금요일 13:00 - 21:00 유치원/호텔   토요일 13:00 - 21:00 유치원/호텔/카페   일요일 13:00 - 21:00 유치원/호텔/카페   월요일 휴무 매주 월요일 휴무, ,02-3662-1207,강서구,서울특별시 강서구 양천로 709 2층,서울특별시 강서구 양천로 709,37.5499233902524,126.874825496512,카페애견카페강서구실내 
멍멍이다방,카페,애견카페,실내,매일 12:00 - 22:00    월요일 휴무,목줄,070-7563-0304,강서구,서울 강서구 화곡로 117-1,서울 강서구 화곡로 117-1,37.5404476840752,126.834880511728,카페애견카페강서구실내목줄
카페프레임,카페,카페,실내,"매일 12:00 - 22:0010월 2일, 9일, 16일, 23일, 30일 휴무",목줄,02-6082-1049,관악구,서울 관악구 관악로14길 94,서울 관악구 관악로14길 94,37.4778946862613,126.957578676321,카페카페관악구실내목줄
무네,카페,카페,실내,매일 11:00 - 22:00,목줄,02-6328-0258,종로구,서울 종로구 자하문로 258,서울 종로구 자하문로 258,37.5972905735741,126.963544349696,카페카페종로구실내목줄
나에게오는길,카페,카페,실내,매일 12:00 - 22:00 화요일 휴무,"목줄,안기",010-6831-0423,관악구,서울 관악구 관악로14길 82,서울 관악구 관악로14길 82,37.4781364869913,126.95699663702,"카페카페관악구실내목줄,안기"
커피로그,카페,카페,실내,매일 11:00 - 22:00,안기,010-4024-3983,성북구,서울 성북구 돌곶이로14길 49,서울 성북구 돌곶이로14길 49,37.6088770718915,127.062404797074,카페카페성북구실내안기
빈티지204,카페,카페,"실내,테라스",평일08-23시 토09-23시 일 11-23시,목줄,010-5395-4328,은평구,서울 은평구 은평로 193-1,서울 은평구 은평로 193-1,37.6019671431653,126.928892189448,"카페카페은평구실내,테라스목줄"
푸르너스가든 서울숲점,카페,카페,"실내,테라스",매일 10:00 - 22:00,목줄,02-499-5673,성동구,서울 성동구 서울숲2길 46-9,서울 성동구 서울숲2길 46-9,37.5460472685329,127.04368010843,"카페카페성동구실내,테라스목줄"
지니앤독,카페,애견카페,실내,화 : 00:00 - 00:10   수 : 15:00 - 21:00   목 : 15:00 - 21:00   금 : 15:00 - 21:00   토 : 14:00 - 21:00   일 : 14:00 - 21:00   월 : 15:00 - 21:00   유치원·호텔·놀이방 연중무휴 / 카페만 화요일 휴무,없음,02-3285-7272,관악구,서울특별시 관악구 남부순환로 1674 2층,서울특별시 관악구 남부순환로 1674,37.4843579965651,126.936501210713,카페애견카페관악구실내없음
강아지똥,카페,애견카페,실내,[평일/월-금]10:00 ~ 21:00  [주말/토-일]10:00 ~ 24:00,없음,02-549-3595,강남구,서울 강남구 논현로115길 71,서울 강남구 논현로115길 71,37.5083210457629,127.027203108252,카페애견카페강남구실내없음
노블도그 애견카페,카페,애견카페,실내,"매일 12:00 - 22:00, 연중무휴",없음,02-2606-0456,강서구,서울 강서구 강서로 237,서울 강서구 강서로 237,37.5468669841912,126.835883211516,카페애견카페강서구실내없음
더왈츠,카페,애견카페,실내,"매일 08:00 - 23:00, 연중무휴",없음,02-564-0927,강남구,서울 강남구 역삼로 134,서울 강남구 역삼로 134,37.4941111413427,127.034316385911,카페애견카페강남구실내없음
개편한카페,카페,애견카페,실내,"평일 11:00 - 22:00  주말, 공휴일 10:00 - 22:00  화요일 휴무둘째주, 넷째주",없음,070-8882-2580,금천구,서울 금천구 금하로 726,서울 금천구 금하로 726,37.450378016537,126.910272639649,카페애견카페금천구실내없음
딥다이브,카페,카페,실내,  평일 08:00~22:00  토요일 10:00~22:00  일요일 10:00~21:00,목줄,070-7514-2104,서초구,서울 서초구 방배천로18길 36-5,서울 서초구 방배천로18길 36-5,37.4824497206677,126.984898605404,카페카페서초구실내목줄
앵두나무카페,카페,카페,"실내,실외", ,"목줄,매너벨트",02-773-2517,강북구,서울 강북구 덕릉로40다길 33-38,서울 강북구 덕릉로40다길 33-38,37.6331588961201,127.029817086497,"카페카페강북구실내,실외목줄,매너벨트"
놀러오개 애견카페,카페,애견카페,실내,매일 12:00 - 22:30   호텔24시간 케어 무휴,없음,010-7573-0006,강서구,서울특별시 강서구 까치산로 33 2층,서울특별시 강서구 까치산로 33,37.5427275135748,126.843913886989,카페애견카페강서구실내없음
카카오독,카페,애견카페,실내,"13:00~22:00, 연중무휴",없음,010-4965-7963,강서구,서울 강서구 곰달래로60길 33,서울 강서구 곰달래로60길 33,37.5307946364804,126.863289765159,카페애견카페강서구실내없음
델문도,카페,카페,실내,am 13:00 - 22:00 /연중무휴,목줄,02-336-0817,마포구,서울 마포구 잔다리로 19-6,서울 마포구 잔다리로 19-6,37.5504836428782,126.920872857597,카페카페마포구실내목줄
체다앤올리,카페,브런치,"실내,실외,테라스","  평일 10:00~22:00, 마지막 주문 21:00  주말 09:00~22:00, 마지막 주문 21:00","목줄,안기",02-468-1003,성동구,서울 성동구 서울숲2길 32-14,서울 성동구 서울숲2길 32-14,37.5456773286722,127.042914714267,"카페브런치성동구실내,실외,테라스목줄,안기"
멍멍멍,카페,애견카페,실내,"매일 12:00 - 21:00, 연중무휴",없음,02-443-8788,송파구,서울 송파구 양재대로62길 8,서울 송파구 양재대로62길 8,37.4988727817677,127.117930550632,카페애견카페송파구실내없음
러빈허 플라워,카페,카페,실내,매일 10:30 - 23:00(명절 당일 휴무),"목줄,안기",02-322-0122,마포구,서울 마포구 신촌로6길 22,서울 마포구 신촌로6길 22,37.5564184838782,126.929800148831,"카페카페마포구실내목줄,안기"
버클리커피소셜,카페,카페,실내,"  월~목요일 08:00~21:00  금~일요일 09:00~21:00, 연중무휴",목줄,02-792-2048,용산구,서울 용산구 회나무로13가길 17,서울 용산구 회나무로13가길 17,37.5409791879575,126.990539743665,카페카페용산구실내목줄
CONTE DE TULEAR,카페,카페,실내,"  평일 12:00~23:00, 주말 13:00~23:00  월요일 휴무",목줄,070-8846-8490,강남구,서울특별시 강남구 도산대로49길 39,서울특별시 강남구 도산대로49길 39,37.5255631741936,127.036889294894,카페카페강남구실내목줄
원인어밀리언,카페,카페,실내,  평일&토요일 11:00~23:00  일요일 11:00~22:00,목줄,02-794-2414,용산구,서울 용산구 이태원로54길 31,서울 용산구 이태원로54길 31,37.5370310977791,127.001950855071,카페카페용산구실내목줄
센터커피,카페,카페,"실내,테라스","10:00~21:00, 매주 월요일 휴무",목줄,070-8868-2008,성동구,서울 성동구 서울숲2길 28-11,서울 성동구 서울숲2길 28-11,37.5465614024403,127.04161829528,"카페카페성동구실내,테라스목줄"
다독인더시티,카페,애견카페,실내,"매일 : 10:00~23:00, 금,토 24:00까지",없음,02-516-9650,강남구,서울 강남구 논현로101길 10,서울 강남구 논현로101길 10,37.5046163216217,127.034043654691,카페애견카페강남구실내없음
