type,name,gu,lat,lng,address,tel,typedetail,indoor,businesshours,conditions,cate_mix,Adress,dong
음식점,라코즈,송파구,37.51100901,127.1074913,서울특별시 송파구 백제고분로45길 40,02-423-7846,양식,실내,월   11:30 - 23:00   22:00 라스트오더      화   11:30 - 23:00   22:00 라스트오더      수   11:30 - 23:00   22:00 라스트오더      목   11:30 - 23:00   22:00 라스트오더      금   11:30 - 23:00   22:00 라스트오더      토   12:00 - 23:00   22:00 라스트오더      일   12:00 - 22:00   21:00 라스트오더,"목줄,캐리어,안기",음식점양식송파구실내목줄 캐리어 안기송파동송파동,대한민국 서울특별시 송파구 송파동 58-15,송파동
음식점,응온람,관악구,37.47374313,126.9814255,서울특별시 관악구 승방길 7,02-6952-9420,면요리,"실외,테라스",매일 10:00 - 22:00    15:00 - 16:00 브레이크타임    21:30 라스트오더,"목줄,캐리어",음식점면요리관악구실외 테라스목줄 캐리어남현동남현동,대한민국 서울특별시 관악구 남현동 602-254,남현동
음식점,부부부엌,양천구,37.54607895,126.8712512,서울특별시 양천구 목동중앙본로 117,010-4874-8715,양식,실내,월-토 16:00 - 새벽 01:00    일요일 12:00 - 새벽 00:00    15:00 - 17:00 브레이크타임    정기휴무 (매주 화요일)    재료 소진 시 조기 마감(전화문의요망),"목줄,매너벨트",음식점양식양천구실내목줄 매너벨트목동중앙본로목동중앙본로,대한민국 서울특별시 양천구 목동중앙본로 117-1,목동중앙본로
음식점,구찌짱,강북구,37.61301304,127.0310713,서울특별시 강북구 도봉로10가길 12,02-985-9797,일식,실내,매일 18:00 - 새벽 04:00,"목줄,매너벨트",음식점일식강북구실내목줄 매너벨트미아동미아동,대한민국 서울특별시 강북구 미아동 55-16,미아동
음식점,전환마을부엌 밥풀꽃,은평구,37.61069076,126.9160843,서울특별시 은평구 연서로15길 8,02-387-1129,한식,실내,매일 11:30 - 14:30    14:00 라스트오더,"목줄,매너벨트",음식점한식은평구실내목줄 매너벨트구산동구산동,대한민국 서울특별시 은평구 구산동 1-31,구산동
음식점,올더플레이트,마포구,37.5618346,126.9246157,서울특별시 마포구 동교로38길 5,02-333-0525,퓨전,실내,월~금 11:30 - 22:00    토~일 11:30 - 23:00    16:00 - 17:00 브레이크타임    22:00 라스트오더,캐리어,음식점퓨전마포구실내캐리어연남동연남동,대한민국 서울특별시 마포구 연남동 228-58,연남동
음식점,만포면옥본점,은평구,37.61414252,126.9174604,서울특별시 은평구 연서로 171,02-389-3917,면요리,실내,"매일 11:00 - 21:00 , 연중무휴","캐리어,안기",음식점면요리은평구실내캐리어 안기연서로연서로,대한민국 서울특별시 은평구 연서로 171,연서로
음식점,사랑봄,관악구,37.48137154,126.9276212,서울특별시 관악구 신원로3가길 6,010-2020-5882,양식,실내,평일 11:00 - 22:00 매주 화요일 휴무   주말 11:00 - 22:00 매주 화요일 휴무   공휴일 11:00 - 22:00 매주 화요일 휴무,없음,음식점양식관악구실내없음신원로3가길신원로3가길,대한민국 서울특별시 관악구 신원로3가길 6,신원로3가길
음식점,1번지남산돈가스커피,중구,37.55673103,126.9849145,서울특별시 중구 소파로 91,02-752-5838,양식,테라스, ,목줄,음식점양식중구테라스목줄명동명동,대한민국 서울특별시 중구 명동 8-59,명동
음식점,우리식당,중구,37.55966053,126.9770721,서울특별시 중구 남대문시장길 22-18,02-752-5153,한식,실내,매일 05:00 - 22:00 연중무휴,목줄,음식점한식중구실내목줄남창동남창동,대한민국 서울특별시 중구 남창동 34-135,남창동
음식점,유로포차,강남구,37.50727687,127.0238878,서울특별시 강남구 봉은사로1길 39,02-3444-7270,퓨전,실내,매일 15:00 - 22:00,"목줄,캐리어",음식점퓨전강남구실내목줄 캐리어봉은사로1길봉은사로1길,대한민국 서울특별시 강남구 봉은사로1길 39,봉은사로1길
음식점,미스터에이스,종로구,37.58005349,127.0135312,서울특별시 종로구 지봉로17길 36,070-8615-9558,한식,테라스, ,목줄,음식점한식종로구테라스목줄창신동창신동,대한민국 서울특별시 종로구 창신동 702,창신동
음식점,미술관,종로구,37.58427269,126.9972923,서울특별시 종로구 창경궁로29길 38,02-744-7855,퓨전,실내, ,목줄,음식점퓨전종로구실내목줄명륜2가명륜2가,대한민국 서울특별시 종로구 명륜2가 140-1,명륜2가
음식점,스페이스플라토,종로구,37.5826931,127.0006487,서울특별시 종로구 대명1길 20,02-765-1571,퓨전,실내, ,목줄,음식점퓨전종로구실내목줄명륜4가명륜4가,대한민국 서울특별시 종로구 명륜4가 대명1길 20,명륜4가
음식점,샐러드로우&트라타 익선점,종로구,37.57427079,126.9908703,서울특별시 종로구 돈화문로 65,070-7543-8125,퓨전,실내, ,목줄,음식점퓨전종로구실내목줄종로1.2.3.4가동종로1.2.3.4가동,대한민국 서울특별시 종로구 종로1.2.3.4가동 172-2,종로1.2.3.4가동
음식점,더피자필,종로구,37.56899643,126.9845378,서울특별시 종로구 종로10길 21,02-795-3283,피자,실내,월   11:00 - 22:00   14:00 - 17:00 브레이크타임      화   11:00 - 22:00   14:00 - 17:00 브레이크타임      수   11:00 - 22:00   14:00 - 17:00 브레이크타임      목   11:00 - 22:00   14:00 - 17:00 브레이크타임      금   11:00 - 22:00   14:00 - 17:00 브레이크타임      토   12:00 - 22:00   14:00 - 17:00 브레이크타임      일   정기휴무 (매주 일요일),"목줄,매너벨트",음식점피자종로구실내목줄 매너벨트종로10길종로10길,대한민국 서울특별시 종로구 종로10길 21,종로10길
음식점,쏘핫마라탕&마라샹궈 1호점,종로구,37.56908226,126.9849433,서울특별시 종로구 삼일대로17길 47-1,010-2367-9933,중식,실내, ,목줄,음식점중식종로구실내목줄종로1.2.3.4가동종로1.2.3.4가동,대한민국 서울특별시 종로구 종로1.2.3.4가동 174-2,종로1.2.3.4가동
음식점,인사동 6842 고기밥상,종로구,37.57369038,126.9862747,서울특별시 종로구 인사동길 30-14,02-730-1272,한식,실내, ,목줄,음식점한식종로구실내목줄종로1.2.3.4가동종로1.2.3.4가동,대한민국 서울특별시 종로구 종로1.2.3.4가동 2-3,종로1.2.3.4가동
음식점,mishmash,종로구,37.57965814,126.989144,서울특별시 종로구 창덕궁길 47,02-6465-2211,퓨전,실내, ,목줄,음식점퓨전종로구실내목줄창덕궁길창덕궁길,대한민국 서울특별시 종로구 창덕궁길 49,창덕궁길
음식점,홍대노가리포차 홍노포,마포구,37.55569738,126.9254728,서울특별시 마포구 어울마당로 136-18,010-2274-0481,퓨전,"실내,실외",월수목금17:00-22:00 / 토일빨간날 15:00-22:00 (휴무: 화요일),매너벨트,음식점퓨전마포구실내 실외매너벨트어울마당로어울마당로,대한민국 서울특별시 마포구 어울마당로 136-18,어울마당로
음식점,정사장,종로구,37.57886469,126.9854325,서울특별시 종로구 북촌로 24,010-7488-7419,퓨전,실내, ,목줄,음식점퓨전종로구실내목줄재동재동,대한민국 서울특별시 종로구 재동 47,재동
음식점,파란대문,종로구,37.59478304,126.9638946,서울특별시 종로구 창의문로 168,02-395-3858,양식,실내, ,목줄,음식점양식종로구실내목줄부암동부암동,대한민국 서울특별시 종로구 부암동 219-2,부암동
음식점,베테카텐,종로구,37.58374641,126.9813063,서울특별시 종로구 삼청로7길 7,02-723-1477,양식,실내, ,목줄,음식점양식종로구실내목줄삼청동삼청동,대한민국 서울특별시 종로구 삼청동 147-9,삼청동
음식점,원테이블(WONTABLE),종로구,37.59967165,126.9594971,서울특별시 종로구 자하문로 304,02-379-3009,양식,실내, ,"목줄,매너벨트",음식점양식종로구실내목줄 매너벨트자하문로자하문로,대한민국 서울특별시 종로구 자하문로 304,자하문로
음식점,미트볼라운지 삼청점,종로구,37.58334165,126.9816797,서울특별시 종로구 삼청로 89,02-722-7702,양식,테라스, ,목줄,음식점양식종로구테라스목줄삼청로삼청로,대한민국 서울특별시 종로구 삼청로 89-1,삼청로
음식점,본죽&비빔밥 cafe 충정로 브라운스톤점,중구,37.56081879,126.9682259,서울특별시 중구 청파로 464,02-364-6282,한식,테라스, ,목줄,음식점한식중구테라스목줄중림동중림동,대한민국 서울특별시 중구 중림동 355,중림동
음식점,비스트로 한강쌀롱,중구,37.55589132,126.9678621,서울특별시 중구 만리재로 207-11,070-4189-1698,양식,테라스, ,목줄,음식점양식중구테라스목줄만리재로만리재로,대한민국 서울특별시 중구 만리재로 207-11,만리재로
음식점,히피히피,중구,37.57008922,127.0193271,서울특별시 중구 마장로9길 35-1,010-3461-5759,퓨전,실내, ,목줄,음식점퓨전중구실내목줄황학동황학동,대한민국 서울특별시 중구 황학동 162-6,황학동
음식점,다이어트레시피,중구,37.56522159,127.0203931,서울특별시 중구 다산로44길 61,070-7543-7296,퓨전,실내, ,목줄,음식점퓨전중구실내목줄신당동신당동,대한민국 서울특별시 중구 신당동 140-31,신당동
음식점,100코달리,중구,37.56330525,127.0164174,서울특별시 중구 다산로38길 11,010-2235-6774,퓨전,실내, ,목줄,음식점퓨전중구실내목줄다산로38길다산로38길,대한민국 서울특별시 중구 다산로38길 11,다산로38길
음식점,누룽지백숙,중구,37.55725859,127.011752,서울특별시 중구 다산로 151,02-2232-4388,한식,실내, ,목줄,음식점한식중구실내목줄신당2동신당2동,대한민국 서울특별시 중구 신당2동 370-55,신당2동
음식점,크레이지 크레이지,중구,37.56656799,127.0153301,서울특별시 중구 다산로47길 11,02-2233-3440,퓨전,실내, ,목줄,음식점퓨전중구실내목줄다산로47길다산로47길,대한민국 서울특별시 중구 다산로47길 11,다산로47길
음식점,콘크리트포이트리,중구,37.5671864,126.9969811,서울특별시 중구 창경궁로5길 18,010-4564-1722,퓨전,실내, ,"목줄,입마개",음식점퓨전중구실내목줄 입마개창경궁로5길창경궁로5길,대한민국 서울특별시 중구 창경궁로5길 18 4층,창경궁로5길
음식점,드므,중구,37.56547478,126.9914835,서울특별시 중구 충무로5길 24,010-7931-2229,퓨전,실외, ,목줄,음식점퓨전중구실외목줄을지로3가을지로3가,대한민국 서울특별시 중구 을지로3가 320-24,을지로3가
음식점,플레김밥&카페,중구,37.56452506,127.0083092,서울특별시 중구 퇴계로 331,02-2266-9230,분식,실내, ,목줄,음식점분식중구실내목줄퇴계로퇴계로,대한민국 서울특별시 중구 퇴계로 331-1,퇴계로
음식점,사슴,중구,37.56239761,127.0054426,서울특별시 중구 장충단로7길 17,02-2285-1571,퓨전,실내, ,목줄,음식점퓨전중구실내목줄장충단로7길장충단로7길,대한민국 서울특별시 중구 장충단로7길 17,장충단로7길
음식점,싱싱오징어바다 충무로점,중구,37.56134257,126.9985981,서울특별시 중구 서애로1길 11,02-2274-9283,퓨전,테라스, ,목줄,음식점퓨전중구테라스목줄묵정동묵정동,대한민국 서울특별시 중구 묵정동 11-67,묵정동
음식점,을지로 차이,중구,37.56517991,126.9905697,서울특별시 중구 을지로12길 28,070-4154-4374,퓨전,실내, ,"목줄,입마개",음식점퓨전중구실내목줄 입마개저동2가저동2가,대한민국 서울특별시 중구 저동2가 7-2,저동2가
음식점,프렌즈,중구,37.56901355,126.9759465,서울특별시 중구 세종대로21길 55,02-730-6477,퓨전,실내, ,목줄,음식점퓨전중구실내목줄세종대로21길세종대로21길,대한민국 서울특별시 중구 세종대로21길 55,세종대로21길
음식점,식당진,중구,37.56063534,126.9865157,서울특별시 중구 퇴계로22길 5,02-755-7558,일식,실내, ,목줄,음식점일식중구실내목줄명동명동,대한민국 서울특별시 중구 명동 13-17,명동
음식점,한상훈셰프,중구,37.55795971,126.9828112,서울특별시 중구 소공로 29,010-7274-9443,양식,실내, ,목줄,음식점양식중구실내목줄회현동2가회현동2가,대한민국 서울특별시 중구 회현동2가 27-8,회현동2가
음식점,다운타우너 안국,종로구,37.57746763,126.9863721,서울특별시 종로구 북촌로 6-4,070-8870-3696,햄버거,실내, ,캐리어,음식점햄버거종로구실내캐리어재동재동,대한민국 서울특별시 종로구 재동 146-1,재동
음식점,기러기둥지,종로구,37.5727949,126.9900372,서울특별시 종로구 돈화문로11길 28-4,02-3673-0070,퓨전,실내, ,목줄,음식점퓨전종로구실내목줄종로1.2.3.4가동종로1.2.3.4가동,대한민국 서울특별시 종로구 종로1.2.3.4가동 31,종로1.2.3.4가동
음식점,보울박스 한남본점,용산구,37.53383832,127.0081475,서울특별시 용산구 독서당로 67,02-749-2927,퓨전,실내, ,캐리어,음식점퓨전용산구실내캐리어한남동한남동,대한민국 서울특별시 용산구 한남동 261-6,한남동
음식점,리틀넥 한남,용산구,37.53959965,127.0030003,서울특별시 용산구 한남대로27길 66,070-8869-9499,양식,테라스, ,목줄,음식점양식용산구테라스목줄한남동한남동,대한민국 서울특별시 용산구 한남동 727-21,한남동
음식점,조개일번지,도봉구,37.64446047,127.0335802,서울특별시 도봉구 도봉로106길 22,02-902-2545,한식,실외, ,목줄,음식점한식도봉구실외목줄창2동창2동,대한민국 서울특별시 도봉구 창2동 647-11,창2동
음식점,베트남돼지,용산구,37.53341524,126.9923523,서울특별시 용산구 이태원로20길 21,02-749-9186,퓨전,실내, ,목줄,음식점퓨전용산구실내목줄이태원로20가길이태원로20가길,대한민국 서울특별시 용산구 이태원로20가길 4,이태원로20가길
음식점,Billionbox,용산구,37.539218,126.98945,서울특별시 용산구 회나무로 24-1,070-8154-1564,햄버거,실내, ,목줄,음식점햄버거용산구실내목줄이태원2동이태원2동,대한민국 서울특별시 용산구 이태원2동 225-67,이태원2동
음식점,여인숙,용산구,37.53688523,126.9877194,서울특별시 용산구 녹사평대로42길 19,010-4194-4588,퓨전,실내, ,"목줄,매너벨트",음식점퓨전용산구실내목줄 매너벨트녹사평대로42길녹사평대로42길,대한민국 서울특별시 용산구 녹사평대로42길 19,녹사평대로42길
음식점,사실주의베이컨,용산구,37.53305329,126.9954158,서울특별시 용산구 우사단로 31-1,02-797-1775,퓨전,실외, ,목줄,음식점퓨전용산구실외목줄우사단로우사단로,대한민국 서울특별시 용산구 우사단로 31-1,우사단로
음식점,코펜바인,용산구,37.51784399,126.9803234,서울특별시 용산구 이촌로 300,02-792-8319,퓨전,실내, ,목줄,음식점퓨전용산구실내목줄이촌1동이촌1동,대한민국 서울특별시 용산구 이촌1동 301-163,이촌1동
음식점,이촌바,용산구,37.51784847,126.9776475,서울특별시 용산구 이촌로88길 16,02-749-2007,퓨전,실내, ,목줄,음식점퓨전용산구실내목줄이촌동이촌동,대한민국 서울특별시 용산구 이촌동 300-58,이촌동
음식점,오썸델리,용산구,37.52881739,126.9666538,서울특별시 용산구 한강대로 95,070-8118-0009,한식,실내, ,목줄,음식점한식용산구실내목줄한강로2가한강로2가,대한민국 서울특별시 용산구 한강로2가 342,한강로2가
음식점,도로시락,용산구,37.52881739,126.9666538,서울특별시 용산구 한강대로 95,02-6368-6365,퓨전,실내, ,목줄,음식점퓨전용산구실내목줄한강로2가한강로2가,대한민국 서울특별시 용산구 한강로2가 342,한강로2가
음식점,산골녹차냉면,용산구,37.54128506,126.9618529,서울특별시 용산구 효창원로 147,02-716-1988,한식,실내, ,목줄,음식점한식용산구실내목줄효창동효창동,대한민국 서울특별시 용산구 효창동 5-539,효창동
음식점,로리스피자,용산구,37.52881739,126.9666538,서울특별시 용산구 한강대로 95,02-792-0770,피자,실내, ,목줄,음식점피자용산구실내목줄한강로2가한강로2가,대한민국 서울특별시 용산구 한강로2가 342,한강로2가
음식점,유키사키,용산구,37.55124768,126.9741684,서울특별시 용산구 후암로57길 51-3,010-6203-4748,일식,실내, ,목줄,음식점일식용산구실내목줄동자동동자동,대한민국 서울특별시 용산구 동자동 35-173,동자동
음식점,줄라이 카레,용산구,37.54248374,126.9737086,서울특별시 용산구 한강대로76길 11-42,02-6338-1456,퓨전,실내, ,목줄,음식점퓨전용산구실내목줄남영동남영동,대한민국 서울특별시 용산구 남영동 한강대로76길 11-44,남영동
음식점,진대포,용산구,37.5417114,126.9721309,서울특별시 용산구 한강대로77길 11,02-717-0398,한식,실내, ,목줄,음식점한식용산구실내목줄갈월동갈월동,대한민국 서울특별시 용산구 갈월동 101-50,갈월동
음식점,DONO,용산구,37.53571051,127.0012341,서울특별시 용산구 이태원로54길 63,02-3785-0501,피자,실내, ,목줄,음식점피자용산구실내목줄한남동한남동,대한민국 서울특별시 용산구 한남동 684-66,한남동
음식점,쏭타이치앙마이,용산구,37.53036651,126.9716056,서울특별시 용산구 한강대로40길 39-5,02-749-5170,퓨전,실내, ,목줄,음식점퓨전용산구실내목줄한강로동한강로동,대한민국 서울특별시 용산구 한강로동 73-11,한강로동
음식점,버뮤다삼각지,용산구,37.53203893,126.9722649,서울특별시 용산구 한강대로52길 19,02-749-6789,퓨전,실내, ,목줄,음식점퓨전용산구실내목줄한강로동한강로동,대한민국 서울특별시 용산구 한강로동 24-3,한강로동
음식점,카페 시바,용산구,37.54295855,126.972822,서울특별시 용산구 한강대로 276-1,070-7543-1339,퓨전,실내, ,목줄,음식점퓨전용산구실내목줄남영동남영동,대한민국 서울특별시 용산구 남영동 72-1,남영동
음식점,바리,용산구,37.53983524,126.9911674,서울특별시 용산구 회나무로 41,02-797-7090,퓨전,실내, ,목줄,음식점퓨전용산구실내목줄회나무로회나무로,대한민국 서울특별시 용산구 회나무로 41,회나무로
음식점,Nm,용산구,37.53385694,126.9754025,서울특별시 용산구 한강대로62나길 20-32,02-6407-4949,퓨전,실내, ,목줄,음식점퓨전용산구실내목줄한강로동한강로동,대한민국 서울특별시 용산구 한강로동 1-36,한강로동
음식점,맥파이 이태원점,용산구,37.53944936,126.9874671,서울특별시 용산구 녹사평대로 244-1,02-749-2703,피자,실내, ,목줄,음식점피자용산구실내목줄이태원동이태원동,대한민국 서울특별시 용산구 이태원동 713,이태원동
음식점,로코스 비비큐 경리단길본점,용산구,37.54098714,126.9955404,서울특별시 용산구 회나무로 83,02-794-3234,퓨전,실내, ,목줄,음식점퓨전용산구실내목줄이태원동이태원동,대한민국 서울특별시 용산구 이태원동 3-5,이태원동
음식점,소셜해이븐,용산구,37.54210224,126.9872352,서울특별시 용산구 신흥로 39,010-7507-8229,퓨전,실내, ,목줄,음식점퓨전용산구실내목줄용산동2가용산동2가,대한민국 서울특별시 용산구 용산동2가 38-20,용산동2가
음식점,포티파이드,용산구,37.5393496,126.9864459,서울특별시 용산구 신흥로 9,010-5925-4665,퓨전,실내, ,목줄,음식점퓨전용산구실내목줄용산2가동용산2가동,대한민국 서울특별시 용산구 용산2가동 5-1608,용산2가동
음식점,하늘이네,용산구,37.54551323,126.9848345,서울특별시 용산구 신흥로 96,02-318-9933,한식,테라스, ,목줄,음식점한식용산구테라스목줄신흥로신흥로,대한민국 서울특별시 용산구 신흥로 96,신흥로
음식점,GIL BAR DAK,용산구,37.54504556,126.9850813,서울특별시 용산구 소월로20길 26-18,011-9360-1113,퓨전,실내, ,목줄,음식점퓨전용산구실내목줄소월로20길소월로20길,대한민국 서울특별시 용산구 소월로20길 26-16,소월로20길
음식점,서울앤쏘울,용산구,37.54522798,126.9848824,서울특별시 용산구 신흥로 97-5,010-7705-3644,퓨전,실내, ,목줄,음식점퓨전용산구실내목줄용산2가동용산2가동,대한민국 서울특별시 용산구 용산2가동 1-506,용산2가동
음식점,해방촌 신코,용산구,37.54508589,126.9848493,서울특별시 용산구 신흥로 99-1,010-3439-3544,일식,실내, ,목줄,음식점일식용산구실내목줄신흥로신흥로,대한민국 서울특별시 용산구 신흥로 99,신흥로
음식점,성광대도,용산구,37.54389242,126.987099,서울특별시 용산구 신흥로 63,070-7720-1396,퓨전,실내, ,목줄,음식점퓨전용산구실내목줄용산동2가용산동2가,대한민국 서울특별시 용산구 용산동2가 22-9,용산동2가
음식점,팟카파우,용산구,37.54519401,126.9848677,서울특별시 용산구 신흥로 97-6,070-8880-2521,퓨전,실내, ,안기,음식점퓨전용산구실내안기용산동2가용산동2가,대한민국 서울특별시 용산구 용산동2가 1-507,용산동2가
음식점,베제투스,용산구,37.5437081,126.9872656,서울특별시 용산구 신흥로 59,070-8824-5959,퓨전,테라스, ,목줄,음식점퓨전용산구테라스목줄용산동2가용산동2가,대한민국 서울특별시 용산구 용산동2가 22-12,용산동2가
음식점,후암동싸이드,용산구,37.5462301,126.9796647,서울특별시 용산구 두텁바위로 67-1,070-4139-9291,퓨전,실내, ,목줄,음식점퓨전용산구실내목줄두텁바위로두텁바위로,대한민국 서울특별시 용산구 두텁바위로 67-1,두텁바위로
음식점,흐이,용산구,37.54628802,126.9800941,서울특별시 용산구 두텁바위로 71,02-319-3201,퓨전,실내, ,캐리어,음식점퓨전용산구실내캐리어후암동후암동,대한민국 서울특별시 용산구 후암동 254-83,후암동
음식점,후암종점,용산구,37.5468794,126.9809935,서울특별시 용산구 두텁바위로 83,010-8689-8857,퓨전,실내, ,목줄,음식점퓨전용산구실내목줄두텁바위로두텁바위로,대한민국 서울특별시 용산구 두텁바위로 85,두텁바위로
음식점,쭈꾸미도사 성수점,성동구,37.54418738,127.0561575,서울특별시 성동구 아차산로 110,02-414-4991,한식,실외, ,목줄,음식점한식성동구실외목줄성수일로6길성수일로6길,대한민국 서울특별시 성동구 성수일로6길 53 유원지식산업센터 5층,성수일로6길
음식점,냐항,성동구,37.54395221,127.0510129,서울특별시 성동구 연무장길 9-6,02-497-5279,퓨전,실내, ,목줄,음식점퓨전성동구실내목줄성수동2가성수동2가,대한민국 서울특별시 성동구 성수동2가 301-87,성수동2가
음식점,피자시즌,성동구,37.54140761,127.0569083,서울특별시 성동구 성수이로14길 14,02-466-6904,피자,실내, ,목줄,음식점피자성동구실내목줄성수동2가성수동2가,대한민국 서울특별시 성동구 성수동2가 322-4,성수동2가
음식점,굿갓레스토랑 성수역점,성동구,37.54333521,127.0542333,서울특별시 성동구 연무장길 41-22,010-3748-2497,양식,루프탑, ,목줄,음식점양식성동구루프탑목줄성수동2가성수동2가,대한민국 서울특별시 성동구 성수동2가 316-23,성수동2가
음식점,봉쥬르,성동구,37.54596518,127.0496387,서울특별시 성동구 상원2길 7,02-6082-7238,퓨전,실내, ,목줄,음식점퓨전성동구실내목줄성수1가2동성수1가2동,대한민국 서울특별시 성동구 성수1가2동 14-59,성수1가2동
음식점,정동진,성동구,37.54269739,127.0161744,서울특별시 성동구 한림말1길 15-2,010-3442-2079,한식,실외, ,목줄,음식점한식성동구실외목줄옥수동옥수동,대한민국 서울특별시 성동구 옥수동 298,옥수동
음식점,다락방,성동구,37.54820716,127.0192561,서울특별시 성동구 장터길 30-1,010-3342-8169,퓨전,실내, ,목줄,음식점퓨전성동구실내목줄금호4가동금호4가동,대한민국 서울특별시 성동구 금호4가동 1201,금호4가동
음식점,브레라,중구,37.54837648,127.0069432,서울특별시 중구 동호로17길 295,02-2236-0770,양식,실내, ,목줄,음식점양식중구실내목줄신당동신당동,대한민국 서울특별시 중구 신당동 366-340,신당동
음식점,조옥당 약수본점,중구,37.55700707,127.0113435,서울특별시 중구 동호로12길 39,02-2232-8282,한식,테라스, ,목줄,음식점한식중구테라스목줄신당동신당동,대한민국 서울특별시 중구 신당동 377-143,신당동
음식점,버거점프,성동구,37.54567733,127.0429147,서울특별시 성동구 서울숲2길 32-14,02-464-5336,햄버거,실외, ,목줄,음식점햄버거성동구실외목줄성수1가1동성수1가1동,대한민국 서울특별시 성동구 성수1가1동 685-696,성수1가1동
음식점,메시,성동구,37.54601556,127.049376,서울특별시 성동구 상원2길 3,02-461-1121,일식,실내, ,목줄,음식점일식성동구실내목줄성수동1가성수동1가,대한민국 서울특별시 성동구 성수동1가 상원2길 3,성수동1가
음식점,타이인플레이트,성동구,37.56061541,127.0471949,서울특별시 성동구 사근동8길 3,02-2298-0984,퓨전,실외, ,목줄,음식점퓨전성동구실외목줄사근동사근동,대한민국 서울특별시 성동구 사근동 178,사근동
음식점,한우리,성동구,37.57125885,127.0412652,서울특별시 성동구 살곶이길 40,02-2296-0908,한식,실내, ,목줄,음식점한식성동구실내목줄마장동마장동,대한민국 서울특별시 성동구 마장동 294,마장동
음식점,73명품도야지,성동구,37.56782502,127.0250536,서울특별시 성동구 마장로 137,02-2282-1973,한식,실내, ,목줄,음식점한식성동구실내목줄왕십리도선동왕십리도선동,대한민국 서울특별시 성동구 왕십리도선동 142,왕십리도선동
음식점,금남방,성동구,37.54786634,127.0207447,서울특별시 성동구 독서당로 285,-,퓨전,실내, ,목줄,음식점퓨전성동구실내목줄금호4가동금호4가동,대한민국 서울특별시 성동구 금호4가동 1095,금호4가동
음식점,삼맛호오떡 왕십리본점,성동구,37.55975487,127.0331662,서울특별시 성동구 무학봉16길 26,02-2299-3396,퓨전,실내, ,목줄,음식점퓨전성동구실내목줄행당1동행당1동,대한민국 서울특별시 성동구 행당1동 298-117,행당1동
음식점,재즈라운지,광진구,37.54672558,127.0731214,서울특별시 광진구 능동로19길 7-6,010-7940-2555,퓨전,실내, ,목줄,음식점퓨전광진구실내목줄화양동화양동,대한민국 서울특별시 광진구 화양동 111-25,화양동
음식점,시홍쓰,광진구,37.54605503,127.073019,서울특별시 광진구 능동로17길 5,010-8680-4330,퓨전,실내, ,목줄,음식점퓨전광진구실내목줄화양동화양동,대한민국 서울특별시 광진구 화양동 94-1,화양동
음식점,반둥식당,광진구,37.54105663,127.0656692,서울특별시 광진구 아차산로 200,02-2122-1288,퓨전,실내, ,목줄,음식점퓨전광진구실내목줄자양동자양동,대한민국 서울특별시 광진구 자양동 17-14,자양동
음식점,도우피는남자,광진구,37.54734574,127.1046034,서울특별시 광진구 광장로 66-1,02-932-6924,피자,실내, ,목줄,음식점피자광진구실내목줄광장동광장동,대한민국 서울특별시 광진구 광장동 287-5,광장동
음식점,건대사시미,광진구,37.54138594,127.0702326,서울특별시 광진구 아차산로33길 23,02-465-3222,일식,실내, ,캐리어,음식점일식광진구실내캐리어아차산로33길아차산로33길,대한민국 서울특별시 광진구 아차산로33길 23,아차산로33길
음식점,미주류,광진구,37.55695681,127.0761896,서울특별시 광진구 면목로 31,070-8285-4864,퓨전,실내, ,목줄,음식점퓨전광진구실내목줄군자동군자동,대한민국 서울특별시 광진구 군자동 469-12,군자동
음식점,알고,광진구,37.54811679,127.0728613,서울특별시 광진구 광나루로17길 10,02-3409-2645,양식,실내, ,목줄,음식점양식광진구실내목줄군자동군자동,대한민국 서울특별시 광진구 군자동 373-8,군자동
음식점,식당 사사로운,광진구,37.55423535,127.0803923,서울특별시 광진구 천호대로112길 48-4,010-6216-1062,양식,실내, ,목줄,음식점양식광진구실내목줄능동능동,대한민국 서울특별시 광진구 능동 208-1,능동
음식점,몽우,광진구,37.55954241,127.0768667,서울특별시 광진구 면목로7길 13,010-6559-5682,퓨전,실내, ,목줄,음식점퓨전광진구실내목줄중곡동중곡동,대한민국 서울특별시 광진구 중곡동 631-11,중곡동
음식점,깡통집,동대문구,37.58430954,127.0683143,서울특별시 동대문구 한천로 264,02-2243-4842,한식,실내, ,목줄,음식점한식동대문구실내목줄휘경동휘경동,대한민국 서울특별시 동대문구 휘경동 57-1,휘경동
음식점,총각회수산,동대문구,37.58060509,127.0433823,서울특별시 동대문구 홍릉로1길 27,02-960-2323,퓨전,실내, ,목줄,음식점퓨전동대문구실내목줄청량리동청량리동,대한민국 서울특별시 동대문구 청량리동 777,청량리동
음식점,청량회관,동대문구,37.58473887,127.0486618,서울특별시 동대문구 제기로36길 31,010-8556-1221,퓨전,실내, ,목줄,음식점퓨전동대문구실내목줄청량리동청량리동,대한민국 서울특별시 동대문구 청량리동 42-14,청량리동
음식점,장안쭈꾸미,동대문구,37.56276634,127.066993,서울특별시 동대문구 천호대로85길 26-6,02-3394-4955,한식,실내, ,목줄,음식점한식동대문구실내목줄장안동장안동,대한민국 서울특별시 동대문구 장안동 463-7,장안동
음식점,차포차,동대문구,37.56752731,127.0689892,서울특별시 동대문구 장한로 76,010-4590-5424,퓨전,실내, ,목줄,음식점퓨전동대문구실내목줄장안동장안동,대한민국 서울특별시 동대문구 장안동 장한로 76,장안동
음식점,마코토키친,동대문구,37.57552999,127.0701393,서울특별시 동대문구 장한로31길 30,02-3394-5450,일식,실내, ,목줄,음식점일식동대문구실내목줄장안2동장안2동,대한민국 서울특별시 동대문구 장안2동 289-4,장안2동
음식점,착한초밥,동대문구,37.58474982,127.0510942,서울특별시 동대문구 왕산로 272,02-957-1219,일식,실내, ,목줄,음식점일식동대문구실내목줄602-11번지602-11번지,대한민국 서울특별시 전농동 602-11번지 동대문구 서울특별시 KR 쥬리,602-11번지
음식점,발리하이,동대문구,37.58577906,127.0333807,서울특별시 동대문구 제기로2길 15,02-929-8155,퓨전,실내, ,목줄,음식점퓨전동대문구실내목줄제기동제기동,대한민국 서울특별시 동대문구 제기동 제기로2길 15,제기동
음식점,TUC,동대문구,37.5860754,127.0366845,서울특별시 동대문구 정릉천동로 155,010-9971-3298,퓨전,실내, ,목줄,음식점퓨전동대문구실내목줄제기동제기동,대한민국 서울특별시 동대문구 제기동 1207,제기동
음식점,힘찬풍천장어,동대문구,37.57410092,127.0236677,서울특별시 동대문구 난계로 252,02-2231-9743,한식,실내, ,목줄,음식점한식동대문구실내목줄신설동신설동,대한민국 서울특별시 동대문구 신설동 117-5,신설동
음식점,방앗간,동대문구,37.5743715,127.042322,서울특별시 동대문구 고산자로28길 73,010-4304-5521,한식,실내, ,목줄,음식점한식동대문구실내목줄용신동용신동,대한민국 서울특별시 동대문구 용신동 39-844,용신동
음식점,용마쉼터,중랑구,37.59588411,127.1024647,서울특별시 중랑구 용마산로112나길 69,02-436-4171,한식,"실내,실외", ,목줄,음식점한식중랑구실내 실외목줄망우본동망우본동,대한민국 서울특별시 중랑구 망우본동 380-1,망우본동
음식점,홍자카야&스시,중랑구,37.59922257,127.0775053,서울특별시 중랑구 동일로129길 35,02-433-0179,일식,실내, ,목줄,음식점일식중랑구실내목줄동일로129길동일로129길,대한민국 서울특별시 중랑구 동일로129길 35,동일로129길
음식점,포차다락,중랑구,37.58201225,127.0889072,서울특별시 중랑구 면목로 336,010-4165-2314,퓨전,실내, ,목줄,음식점퓨전중랑구실내목줄면목3.8동면목3.8동,대한민국 서울특별시 중랑구 면목3.8동 459-14,면목3.8동
음식점,숯불닭갈비에 반하닭,중랑구,37.58333575,127.0886262,서울특별시 중랑구 면목로 352,02-433-9294,한식,실내, ,목줄,음식점한식중랑구실내목줄면목3.8동면목3.8동,대한민국 서울특별시 중랑구 면목3.8동 458-1,면목3.8동
음식점,플렉스빌,동대문구,37.59168106,127.0531531,서울특별시 동대문구 회기로21길 6,010-9003-3103,퓨전,실내, ,목줄,음식점퓨전동대문구실내목줄회기로21길회기로21길,대한민국 서울특별시 동대문구 회기로21길 6,회기로21길
음식점,언니네함바그 회기점,동대문구,37.59242063,127.0567522,서울특별시 동대문구 회기로25길 59,02-966-0110,양식,실내, ,목줄,음식점양식동대문구실내목줄이문1동이문1동,대한민국 서울특별시 동대문구 이문1동 341-72,이문1동
음식점,인생소곱창 회기본점,동대문구,37.59191158,127.0530562,서울특별시 동대문구 회기로21길 9,02-3295-3332,한식,테라스, ,목줄,음식점한식동대문구테라스목줄회기동회기동,대한민국 서울특별시 동대문구 회기동 16-6,회기동
음식점,dips,성북구,37.60505876,127.0309904,서울특별시 성북구 종암로 167,02-943-2782,피자,실내, ,목줄,음식점피자성북구실내목줄종암로종암로,대한민국 서울특별시 성북구 종암로 167,종암로
음식점,빌라드코스테스,성북구,37.60271305,127.0391193,서울특별시 성북구 화랑로5길 4,02-6956-5532,양식,실내, ,"목줄,매너벨트",음식점양식성북구실내목줄 매너벨트월곡2동월곡2동,대한민국 서울특별시 성북구 월곡2동 46-83,월곡2동
음식점,와바탭하우스 메죵두피아노정릉점,성북구,37.60870977,127.004609,서울특별시 성북구 솔샘로 11,070-8950-2580,퓨전,실내, ,목줄,음식점퓨전성북구실내목줄정릉3동정릉3동,대한민국 서울특별시 성북구 정릉3동 684-12,정릉3동
음식점,6일닭강정,종로구,37.5784756,127.0155812,서울특별시 종로구 지봉로 96,02-747-1361,한식,실내, ,목줄,음식점한식종로구실내목줄숭인1동숭인1동,대한민국 서울특별시 종로구 숭인1동 53-9,숭인1동
음식점,오토 성북직영점,성북구,37.59891253,127.0193398,서울특별시 성북구 북악산로 855,02-926-0111,한식, , ,없음,음식점한식성북구 없음돈암1동돈암1동,대한민국 서울특별시 성북구 돈암1동 45-53,돈암1동
음식점,반듯한잔,성북구,37.58965141,127.0187988,서울특별시 성북구 동소문로22길 80,02-942-5577,한식,실내, ,목줄,음식점한식성북구실내목줄보문로30라길보문로30라길,대한민국 서울특별시 성북구 보문로30라길 17,보문로30라길
음식점,률,종로구,37.57938793,126.9823764,서울특별시 종로구 북촌로5길 45,010-4930-5845,퓨전,실내, ,목줄,음식점퓨전종로구실내목줄화동화동,대한민국 서울특별시 종로구 화동 138-12,화동
음식점,째즈스토리,성북구,37.59275096,126.9981949,서울특별시 성북구 혜화로 88,02-747-6537,퓨전,실내, ,목줄,음식점퓨전성북구실내목줄성북동성북동,대한민국 서울특별시 성북구 성북동 122-7,성북동
음식점,문화식당 성북동점,성북구,37.59275096,126.9981949,서울특별시 성북구 혜화로 88,02-763-4644,양식,실내, ,목줄,음식점양식성북구실내목줄성북동성북동,대한민국 서울특별시 성북구 성북동 122-7,성북동
음식점,문화식당 성수동점,성동구,37.54231448,127.0538225,서울특별시 성동구 성수일로4길 45,02-465-9007,퓨전,실내, ,목줄,음식점퓨전성동구실내목줄성수2가1동성수2가1동,대한민국 서울특별시 성동구 성수2가1동 310-11,성수2가1동
음식점,샘터가든,강북구,37.66793482,127.0069581,서울특별시 강북구 삼양로179길 121,02-908-4242,한식,실내, ,목줄,음식점한식강북구실내목줄우이동우이동,대한민국 서울특별시 강북구 우이동 산8-15,우이동
음식점,갈비냉면,강북구,37.6511387,127.012643,서울특별시 강북구 삼양로 541,02-928-5344,한식,실외, ,목줄,음식점한식강북구실외목줄우이동우이동,대한민국 서울특별시 강북구 우이동 71-35,우이동
음식점,북한산 고기농장,강북구,37.66130565,127.0072934,서울특별시 강북구 삼양로173길 102,02-990-9365,한식,실외, ,목줄,음식점한식강북구실외목줄우이동우이동,대한민국 서울특별시 강북구 우이동 186-19,우이동
음식점,소귀골백운산장,강북구,37.67197864,127.0061846,서울특별시 강북구 삼양로181길 206,02-906-8833,한식,실내, ,목줄,음식점한식강북구실내목줄우이동우이동,대한민국 서울특별시 강북구 우이동 산80-3,우이동
음식점,산이야,강북구,37.67180784,127.0056268,서울특별시 강북구 삼양로181길 201-8,02-900-7557,한식,실외, ,목줄,음식점한식강북구실외목줄우이동우이동,대한민국 서울특별시 강북구 우이동 224-13,우이동
음식점,시골쌈밥,강북구,37.66229761,127.0111095,서울특별시 강북구 삼양로173길 21-8,02-996-1487,한식,실외, ,목줄,음식점한식강북구실외목줄우이동우이동,대한민국 서울특별시 강북구 우이동 삼양로173길 21-8,우이동
음식점,동원식당,강북구,37.64150593,127.0289574,서울특별시 강북구 도봉로 387,02-991-2071,한식,실내, ,목줄,음식점한식강북구실내목줄수유동수유동,대한민국 서울특별시 강북구 수유동 173-15,수유동
음식점,미아회관,강북구,37.61300647,127.0313617,서울특별시 강북구 도봉로10가길 15,010-9085-2732,한식,실외, ,목줄,음식점한식강북구실외목줄도봉로10가길도봉로10가길,대한민국 서울특별시 강북구 도봉로10가길 15,도봉로10가길
음식점,도봉산해물짬뽕,도봉구,37.68883199,127.0446415,서울특별시 도봉구 도봉산4나길 43,02-956-3000,중식,실외, ,목줄,음식점중식도봉구실외목줄도봉산4나길도봉산4나길,대한민국 서울특별시 도봉구 도봉산4나길 43,도봉산4나길
음식점,호감 감자튀김전문점 Pub,도봉구,37.66950592,127.0453101,서울특별시 도봉구 도봉로152길 27,010-4510-1486,퓨전,실내, ,목줄,음식점퓨전도봉구실내목줄도봉동도봉동,대한민국 서울특별시 도봉구 도봉동 622-80,도봉동
음식점,소통애 창동점,도봉구,37.65565256,127.0428049,서울특별시 도봉구 도봉로136가길 73,010-3724-5170,한식,"실내,실외", ,목줄,음식점한식도봉구실내 실외목줄창동창동,대한민국 서울특별시 도봉구 창동 826,창동
음식점,짝태앤노가리 방학동점,도봉구,37.66453534,127.0389026,서울특별시 도봉구 도봉로145길 65,010-7680-0760,퓨전,실내, ,목줄,음식점퓨전도봉구실내목줄방학1동방학1동,대한민국 서울특별시 도봉구 방학1동 690-92,방학1동
음식점,땡불초닭발,노원구,37.6242817,127.0799109,서울특별시 노원구 공릉로42길 4,02-977-4447,한식,실내, ,목줄,음식점한식노원구실내목줄공릉동공릉동,대한민국 서울특별시 노원구 공릉동 412-21,공릉동
음식점,페리도트,은평구,37.58847852,126.9161668,서울특별시 은평구 응암로11길 6,010-7763-7661,퓨전,실내, ,"캐리어,안기",음식점퓨전은평구실내캐리어 안기응암3동응암3동,대한민국 서울특별시 은평구 응암3동 599-36,응암3동
음식점,좋앗나빙수,은평구,37.60973577,126.9289385,서울특별시 은평구 불광로 20,02-350-9932,퓨전,실내, ,"캐리어,안기",음식점퓨전은평구실내캐리어 안기불광로불광로,대한민국 서울특별시 은평구 불광로 20 NC백화점불광점 3F,불광로
음식점,달빛포차,은평구,37.61916466,126.9177634,서울특별시 은평구 연서로29길 21-4,010-2239-2379,퓨전,실내, ,목줄,음식점퓨전은평구실내목줄갈현2동갈현2동,대한민국 서울특별시 은평구 갈현2동 452-30,갈현2동
음식점,초램 양고기 갈현점,은평구,37.62226569,126.9188188,서울특별시 은평구 통일로85길 8,02-385-9989,퓨전,실내, ,목줄,음식점퓨전은평구실내목줄갈현1동갈현1동,대한민국 서울특별시 은평구 갈현1동 408-5,갈현1동
음식점,반상 & 술상,은평구,37.61918395,126.9194821,서울특별시 은평구 연서로29길 8-9,02-356-8399,한식,테라스, ,목줄,음식점한식은평구테라스목줄연서로29길연서로29길,대한민국 서울특별시 은평구 연서로29길 8-9,연서로29길
음식점,머스트,은평구,37.61898939,126.9182456,서울특별시 은평구 연서로29길 17-4,02-386-7779,퓨전,실내, ,목줄,음식점퓨전은평구실내목줄갈현동갈현동,대한민국 서울특별시 은평구 갈현동 453-14,갈현동
음식점,코스믹버거랩,은평구,37.62223045,126.9190667,서울특별시 은평구 통일로85길 6,02-6402-5050,햄버거,실내, ,목줄,음식점햄버거은평구실내목줄통일로85길통일로85길,대한민국 서울특별시 은평구 통일로85길 6-4,통일로85길
음식점,32년 전통 시골막국수,은평구,37.61115283,126.9418987,서울특별시 은평구 진흥로19길 2-8,010-3695-8315,한식,실내, ,목줄,음식점한식은평구실내목줄불광1동불광1동,대한민국 서울특별시 은평구 불광1동 630-62,불광1동
음식점,복래찬합,서대문구,37.59226087,126.9408409,서울특별시 서대문구 통일로 497,02-354-2005,한식,실내, ,목줄,음식점한식서대문구실내목줄홍은동홍은동,대한민국 서울특별시 서대문구 홍은동 90-3,홍은동
음식점,대성씨,서대문구,37.59247869,126.9464112,서울특별시 서대문구 세검정로 47,010-9279-5592,퓨전,실내, ,목줄,음식점퓨전서대문구실내목줄홍제동홍제동,대한민국 서울특별시 서대문구 홍제동 266-236,홍제동
음식점,묘한술책,서대문구,37.56738523,126.9288967,서울특별시 서대문구 연희맛로 17-18,02-326-0845,양식,실내, ,목줄,음식점양식서대문구실내목줄연희동연희동,대한민국 서울특별시 서대문구 연희동 130-13,연희동
음식점,황씨네,서대문구,37.57514061,126.9269318,서울특별시 서대문구 홍제천로 116,02-323-8253,퓨전,실내, ,목줄,음식점퓨전서대문구실내목줄연희동연희동,대한민국 서울특별시 서대문구 연희동 702,연희동
음식점,윈야드,서대문구,37.56706896,126.9276772,서울특별시 서대문구 연희로11다길 9,02-332-8929,양식,실내, ,목줄,음식점양식서대문구실내목줄연희동연희동,대한민국 서울특별시 서대문구 연희동 128-8,연희동
음식점,연희단팥죽,서대문구,37.56790861,126.9288844,서울특별시 서대문구 연희로11가길 8-5,02-6082-2086,한식,실내, ,목줄,음식점한식서대문구실내목줄연희로11가길연희로11가길,대한민국 서울특별시 서대문구 연희로11가길 8-5,연희로11가길
음식점,마우디,서대문구,37.56748922,126.9301311,서울특별시 서대문구 연희로11길 18,02-332-3933,양식,실내, ,목줄,음식점양식서대문구실내목줄연희동연희동,대한민국 서울특별시 서대문구 연희동 132-18,연희동
음식점,에어플레인모드,서대문구,37.55770536,126.9386694,서울특별시 서대문구 연세로4길 36,010-9185-6553,퓨전,실내, ,목줄,음식점퓨전서대문구실내목줄창천동창천동,대한민국 서울특별시 서대문구 창천동 13-36,창천동
음식점,타코로코,서대문구,37.55811495,126.9346311,서울특별시 서대문구 연세로7안길 37,02-333-6469,퓨전,실내, ,"목줄,입마개",음식점퓨전서대문구실내목줄 입마개창천동창천동,대한민국 서울특별시 서대문구 창천동 53-20,창천동
음식점,지니네컵밥,서대문구,37.55890633,126.9430386,서울특별시 서대문구 신촌역로 22-5,010-9073-8440,한식,실외, ,목줄,음식점한식서대문구실외목줄대현동대현동,대한민국 서울특별시 서대문구 대현동 27-37,대현동
음식점,소버바이데일리샷,서대문구,37.55855258,126.9430099,서울특별시 서대문구 신촌역로 22,010-6270-2697,퓨전,실외, ,목줄,음식점퓨전서대문구실외목줄대현동대현동,대한민국 서울특별시 서대문구 대현동 27-4,대현동
음식점,레몬그라스,성동구,37.54341926,127.0542727,서울특별시 성동구 연무장길 41-26,010-4459-7022,퓨전,실내,주중 11:30 ~ 21:00 / 주말 12:00 ~21:30 / break time 15:00 ~ 17:00,"목줄,캐리어",음식점퓨전성동구실내목줄 캐리어연무장길연무장길,대한민국 서울특별시 성동구 연무장길 41-26,연무장길
음식점,코쿤캅,서대문구,37.55890633,126.9430386,서울특별시 서대문구 신촌역로 22-5,010-2298-2834,퓨전,실외, ,목줄,음식점퓨전서대문구실외목줄대현동대현동,대한민국 서울특별시 서대문구 대현동 27-37,대현동
음식점,이모네,서대문구,37.55890633,126.9430386,서울특별시 서대문구 신촌역로 22-5,010-8776-6317,면요리,실외, ,목줄,음식점면요리서대문구실외목줄대현동대현동,대한민국 서울특별시 서대문구 대현동 27-37,대현동
음식점,까미네 닭강정,서대문구,37.55890633,126.9430386,서울특별시 서대문구 신촌역로 22-5,010-9162-1487,한식,실외, ,목줄,음식점한식서대문구실외목줄대현동대현동,대한민국 서울특별시 서대문구 대현동 27-37,대현동
음식점,낮과밤,서대문구,37.55946622,126.9449683,서울특별시 서대문구 이화여대길 52-35,010-8862-1697,퓨전,실내, ,목줄,음식점퓨전서대문구실내목줄이화여대길이화여대길,대한민국 서울특별시 서대문구 이화여대길 52-35,이화여대길
음식점,정선할매곤드레밥,종로구,37.57572526,126.9697341,서울특별시 종로구 사직로8길 5-13,02-736-1237,한식,실내, ,목줄,음식점한식종로구실내목줄필운동필운동,대한민국 서울특별시 종로구 필운동 253-2,필운동
음식점,몰림,종로구,37.57567121,126.9704889,서울특별시 종로구 사직로10길 5,010-4121-0999,퓨전,실내, ,목줄,음식점퓨전종로구실내목줄내자동내자동,대한민국 서울특별시 종로구 내자동 142,내자동
음식점,취천루,종로구,37.57826702,126.9710323,서울특별시 종로구 자하문로7길 9,02-6221-8249,중식,실내, ,목줄,음식점중식종로구실내목줄체부동체부동,대한민국 서울특별시 종로구 체부동 26,체부동
음식점,MANRI199,중구,37.55546546,126.9677119,서울특별시 중구 만리재로 199,02-363-0199,퓨전,실내, ,목줄,음식점퓨전중구실내목줄만리동1가만리동1가,대한민국 서울특별시 중구 만리동1가 62-103,만리동1가
음식점,십일,서대문구,37.5841229,126.9131278,서울특별시 서대문구 증가로30길 29-5,010-9789-6886,일식,실내, ,목줄,음식점일식서대문구실내목줄북가좌2동북가좌2동,대한민국 서울특별시 서대문구 북가좌2동 332-11,북가좌2동
음식점,본태스시,마포구,37.56924736,126.9112522,서울특별시 마포구 성암로3길 8,070-8244-1015,일식,실내, ,목줄,음식점일식마포구실내목줄중동중동,대한민국 서울특별시 마포구 중동 165-9,중동
음식점,잇다프로젝트,마포구,37.56446239,126.9256565,서울특별시 마포구 성미산로31길 14,010-9844-6718,양식,실내, ,목줄,음식점양식마포구실내목줄성미산로31길성미산로31길,대한민국 서울특별시 마포구 성미산로31길 14,성미산로31길
음식점,이자카야라쿤,마포구,37.56572223,126.9235043,서울특별시 마포구 성미산로29안길 29,02-336-0849,퓨전,실내, ,캐리어,음식점퓨전마포구실내캐리어연남동연남동,대한민국 서울특별시 마포구 연남동 241-80,연남동
음식점,하이하우스,마포구,37.56525188,126.9238754,서울특별시 마포구 성미산로 161-10,02-6014-7638,퓨전,실내, ,목줄,음식점퓨전마포구실내목줄성미산로성미산로,대한민국 서울특별시 마포구 성미산로 161-10,성미산로
음식점,리틀파파포 연남점,마포구,37.56210917,126.9246708,서울특별시 마포구 동교로38안길 5,02-336-5678,퓨전,테라스, ,목줄,음식점퓨전마포구테라스목줄연남동연남동,대한민국 서울특별시 마포구 연남동 390-67,연남동
음식점,수부니흐,마포구,37.56135693,126.9258126,서울특별시 마포구 동교로38길 35,02-335-7472,양식,실내, ,목줄,음식점양식마포구실내목줄390-41번지390-41번지,대한민국 서울특별시 연남동 390-41번지 하동 1층 일부 마포구 서울특별시 KR 용정,390-41번지
음식점,SAAP 연남,마포구,37.56321426,126.9258417,서울특별시 마포구 성미산로 184,02-6339-5609,퓨전,실내, ,목줄,음식점퓨전마포구실내목줄연남동연남동,대한민국 서울특별시 마포구 연남동 228-11,연남동
음식점,연주방,마포구,37.56271635,126.9253674,서울특별시 마포구 동교로46길 7,010-4346-4026,퓨전,실내, ,목줄,음식점퓨전마포구실내목줄연남동연남동,대한민국 서울특별시 마포구 연남동 387-19,연남동
음식점,주방,마포구,37.55568478,126.9076541,서울특별시 마포구 월드컵로19길 42,02-6406-2019,퓨전,실내, ,목줄,음식점퓨전마포구실내목줄월드컵로19길월드컵로19길,대한민국 서울특별시 마포구 월드컵로19길 40,월드컵로19길
음식점,딥,마포구,37.55518658,126.9075971,서울특별시 마포구 월드컵로19길 51,010-8633-5443,양식,실내, ,목줄,음식점양식마포구실내목줄망원동망원동,대한민국 서울특별시 마포구 망원동 57-121,망원동
음식점,단,마포구,37.5536166,126.903779,서울특별시 마포구 망원로2길 87,010-9552-4149,퓨전,실내, ,목줄,음식점퓨전마포구실내목줄망원로2길망원로2길,대한민국 서울특별시 마포구 망원로2길 89,망원로2길
음식점,내고기,마포구,37.55727212,126.902344,서울특별시 마포구 월드컵로25길 99,02-323-3280,한식,실내, ,목줄,음식점한식마포구실내목줄월드컵로25길월드컵로25길,대한민국 서울특별시 마포구 월드컵로25길 99,월드컵로25길
음식점,포썸,마포구,37.55310805,126.9037416,서울특별시 마포구 희우정로 80-1,070-4413-0915,퓨전,실내, ,목줄,음식점퓨전마포구실내목줄망원동망원동,대한민국 서울특별시 마포구 망원동 396-38,망원동
음식점,T P B,마포구,37.54593595,126.9143003,서울특별시 마포구 토정로3안길 2,02-322-3131,피자,실내, ,목줄,음식점피자마포구실내목줄토정로3안길토정로3안길,대한민국 서울특별시 마포구 토정로3안길 2,토정로3안길
음식점,익순,마포구,37.54821115,126.9131863,서울특별시 마포구 양화진길 5,010-3125-9260,퓨전,실내, ,목줄,음식점퓨전마포구실내목줄합정동합정동,대한민국 서울특별시 마포구 합정동 375-1,합정동
음식점,달리,마포구,37.54826772,126.9188706,서울특별시 마포구 양화로6길 86,02-6401-4123,퓨전,실내, ,목줄,음식점퓨전마포구실내목줄합정동합정동,대한민국 서울특별시 마포구 합정동 410-10,합정동
음식점,블랑누아,마포구,37.55966025,126.9256496,서울특별시 마포구 연희로1길 15,02-332-6841,퓨전,테라스, ,목줄,음식점퓨전마포구테라스목줄연희로1길연희로1길,대한민국 서울특별시 마포구 연희로1길 15,연희로1길
음식점,파이리퍼블릭,마포구,37.5593057,126.925771,서울특별시 마포구 양화로23길 10-10,02-6083-1967,양식,실내, ,목줄,음식점양식마포구실내목줄동교동동교동,대한민국 서울특별시 마포구 동교동 147-47,동교동
음식점,osteria ora,마포구,37.55637749,126.9143756,서울특별시 마포구 잔다리로 105,010-9163-0415,양식,실내, ,목줄,음식점양식마포구실내목줄서교동서교동,대한민국 서울특별시 마포구 서교동 468-17,서교동
음식점,안티플랜,마포구,37.54627719,126.9199968,서울특별시 마포구 어울마당로2길 13,010-8708-2722,퓨전,실내, ,"목줄,매너벨트",음식점퓨전마포구실내목줄 매너벨트서강동서강동,대한민국 서울특별시 마포구 서강동 15-28,서강동
음식점,비볼리,마포구,37.54852867,126.9169491,서울특별시 마포구 독막로 31-3,02-3144-6887,양식,실내, ,목줄,음식점양식마포구실내목줄412-27번지412-27번지,대한민국 서울특별시 합정동 412-27번지 마포구 서울특별시 KR 도키도키,412-27번지
음식점,고수포차,마포구,37.5475614,126.9219093,서울특별시 마포구 독막로 76-1,010-8881-3223,퓨전,"실내,테라스", ,목줄,음식점퓨전마포구실내 테라스목줄상수동상수동,대한민국 서울특별시 마포구 상수동 324-1,상수동
음식점,고고갈비 홍대상수점,마포구,37.54794158,126.9221204,서울특별시 마포구 독막로 77,02-6219-9090,한식,실내, ,목줄,음식점한식마포구실내목줄상수동상수동,대한민국 서울특별시 마포구 상수동 310-12,상수동
음식점,경양카츠 상수점,마포구,37.54679113,126.922717,서울특별시 마포구 와우산로 25,02-337-4388,퓨전,실내, ,목줄,음식점퓨전마포구실내목줄상수동상수동,대한민국 서울특별시 마포구 상수동 327-6,상수동
음식점,미쁘동,마포구,37.56210184,126.9261894,서울특별시 마포구 동교로38길 33-21,070-4242-1881,일식,실내, ,목줄,음식점일식마포구실내목줄연남동연남동,대한민국 서울특별시 마포구 연남동 384-2,연남동
음식점,저스트텐동 연남점,마포구,37.56281466,126.925248,서울특별시 마포구 동교로46길 3,02-324-7778,일식,실내, ,캐리어,음식점일식마포구실내캐리어연남동연남동,대한민국 서울특별시 마포구 연남동 228-25,연남동
음식점,그놈의집구석,마포구,37.55439854,126.9299512,서울특별시 마포구 와우산로 150-2,010-5676-7114,퓨전,실내, ,목줄,음식점퓨전마포구실내목줄dong창전동,대한민국 서울특별시 와우산로오거리,창전동
음식점,드렁큰비건,마포구,37.55416257,126.9299565,서울특별시 마포구 와우산로30길 13,070-7543-8101,퓨전,"실내,테라스", ,목줄,음식점퓨전마포구실내 테라스목줄창전동창전동,대한민국 서울특별시 마포구 창전동 5-78,창전동
음식점,23플래터,마포구,37.55047311,126.9194176,서울특별시 마포구 잔다리로3안길 36,010-2333-5417,양식,실내, ,목줄,음식점양식마포구실내목줄서교동서교동,대한민국 서울특별시 마포구 서교동 395-126,서교동
음식점,난봉꾼조개찜 홍대점,마포구,37.55131057,126.9207214,서울특별시 마포구 잔다리로 20-11,02-323-8882,한식,실내, ,목줄,음식점한식마포구실내목줄잔다리로잔다리로,대한민국 서울특별시 마포구 잔다리로 20-11,잔다리로
음식점,온블랙94,마포구,37.54827873,126.9223832,서울특별시 마포구 와우산로 39-14,010-8345-7890,양식,"실내,루프탑", ,목줄,음식점양식마포구실내 루프탑목줄서강동서강동,대한민국 서울특별시 마포구 서강동 와우산로 39-14,서강동
음식점,주무대,마포구,37.54594671,126.9212171,서울특별시 마포구 와우산로3길 32,02-3141-1217,한식,실내, ,목줄,음식점한식마포구실내목줄서강동서강동,대한민국 서울특별시 마포구 서강동 336-15,서강동
음식점,빅타이니,마포구,37.55431475,126.9316568,서울특별시 마포구 서강로11길 36-35,070-8776-6520,퓨전,실내, ,목줄,음식점퓨전마포구실내목줄서강동서강동,대한민국 서울특별시 마포구 서강동 4-12,서강동
음식점,하카타분코,마포구,37.54891709,126.9237747,서울특별시 마포구 독막로19길 43,02-338-5536,면요리,실내, ,목줄,음식점면요리마포구실내목줄상수동상수동,대한민국 서울특별시 마포구 상수동 93-28,상수동
음식점,푸른달,마포구,37.55497497,126.9328564,서울특별시 마포구 신촌로12다길 6,010-7318-2227,퓨전,실내, ,목줄,음식점퓨전마포구실내목줄노고산동노고산동,대한민국 서울특별시 마포구 노고산동 56-43,노고산동
음식점,올터쭈꾸미,마포구,37.5547357,126.9333951,서울특별시 마포구 신촌로14길 29,02-3142-1135,한식,실내, ,목줄,음식점한식마포구실내목줄노고산동노고산동,대한민국 서울특별시 마포구 노고산동 56-25,노고산동
음식점,도화동지니,마포구,37.5389756,126.9479033,서울특별시 마포구 삼개로 15-8,02-701-9221,퓨전,테라스, ,목줄,음식점퓨전마포구테라스목줄도화동도화동,대한민국 서울특별시 마포구 도화동 203-23,도화동
음식점,소문난집,서대문구,37.55792883,126.9348468,서울특별시 서대문구 연세로7길 38,02-336-1922,한식,실내, ,목줄,음식점한식서대문구실내목줄창천동창천동,대한민국 서울특별시 서대문구 창천동 53-15번지 대한민국 서울특별시 신촌동,창천동
음식점,마포분식,마포구,37.55667657,126.9533748,서울특별시 마포구 굴레방로9길 41,010-5263-1014,분식,실내, ,목줄,음식점분식마포구실내목줄아현동아현동,대한민국 서울특별시 마포구 아현동 570-21,아현동
음식점,막걸리싸롱 마곡나루점,강서구,37.56768591,126.8259794,서울특별시 강서구 마곡서로 152,010-8121-3370,한식,실외, ,목줄,음식점한식강서구실외목줄마곡동마곡동,대한민국 서울특별시 강서구 마곡동 759-1,마곡동
음식점,육회먹은연어,강서구,37.56063122,126.8327206,서울특별시 강서구 마곡중앙6로 45,02-3665-3560,한식,실내, ,목줄,음식점한식강서구실내목줄가양1동가양1동,대한민국 서울특별시 강서구 가양1동 415-7,가양1동
음식점,조개깡패연구소 발산역점,강서구,37.5596114,126.8372423,서울특별시 강서구 공항대로 269-15,02-6213-8900,한식,실내, ,목줄,음식점한식강서구실내목줄공항대로공항대로,대한민국 서울특별시 강서구 공항대로 269-15,공항대로
음식점,클럽미식생활,강서구,37.5587038,126.8317656,서울특별시 강서구 공항대로 220,070-7677-1730,퓨전,실내, ,목줄,음식점퓨전강서구실내목줄발산1동발산1동,대한민국 서울특별시 강서구 발산1동 217-7,발산1동
음식점,이태리숲,강서구,37.56063122,126.8327206,서울특별시 강서구 마곡중앙6로 45,02-3661-1461,양식,테라스, ,목줄,음식점양식강서구테라스목줄가양1동가양1동,대한민국 서울특별시 강서구 가양1동 415-7,가양1동
음식점,오남매닭갈비,강서구,37.56731404,126.8275549,서울특별시 강서구 마곡중앙5로 6,010-8100-3400,한식,실내, ,캐리어,음식점한식강서구실내캐리어마곡동마곡동,대한민국 서울특별시 강서구 마곡동 280-3,마곡동
음식점,올바른장어,강서구,37.55882032,126.8400069,서울특별시 강서구 공항대로 291,02-2063-3530,한식,실내, ,목줄,음식점한식강서구실내목줄등촌동등촌동,대한민국 서울특별시 강서구 등촌동 673-6,등촌동
음식점,보드람치킨 독산한신점,금천구,37.45539073,126.8888778,서울특별시 금천구 한내로 62,02-898-3701,퓨전,실외, ,목줄,음식점퓨전금천구실외목줄독산동독산동,대한민국 서울특별시 금천구 독산동 1095,독산동
음식점,텐마루,금천구,37.47774088,126.8898764,서울특별시 금천구 디지털로12길 21,02-857-0199,퓨전,실내, ,목줄,음식점퓨전금천구실내목줄디지털로12길디지털로12길,대한민국 서울특별시 금천구 디지털로12길 21,디지털로12길
음식점,평일주점,금천구,37.48268295,126.8850904,서울특별시 금천구 벚꽃로38길 32-39,1800-2845,퓨전,실내, ,목줄,음식점퓨전금천구실내목줄가산동가산동,대한민국 서울특별시 금천구 가산동 597-11,가산동
음식점,로스트피그,마포구,37.55609895,126.9090201,서울특별시 마포구 동교로9길 57,02-332-9279,한식,실내, ,목줄,음식점한식마포구실내목줄동교로9길동교로9길,대한민국 서울특별시 마포구 동교로9길 57,동교로9길
음식점,문화식당,성북구,37.59275096,126.9981949,서울특별시 성북구 혜화로 88,02-763-4644,퓨전,"실내,루프탑",매일 11:30 - 21:00,목줄,음식점퓨전성북구실내 루프탑목줄성북동성북동,대한민국 서울특별시 성북구 성북동 122-7,성북동
음식점,묘한식탁,마포구,37.55045176,126.9097128,서울특별시 마포구 포은로2나길 44,02-6405-6966,양식,실내, ,목줄,음식점양식마포구실내목줄합정동합정동,대한민국 서울특별시 마포구 합정동 포은로2나길 44,합정동
음식점,와이키키마켓,마포구,37.55889604,126.8886605,서울특별시 마포구 마포나루길 332,02-854-8000,한식,실외, ,목줄,음식점한식마포구실외목줄상암동상암동,대한민국 서울특별시 마포구 상암동 1537-2,상암동
음식점,셰발레리,마포구,37.55206647,126.9069618,서울특별시 마포구 포은로 52,02-6013-0269,양식,실내, ,목줄,음식점양식마포구실내목줄합정동합정동,대한민국 서울특별시 마포구 합정동 433-61,합정동
음식점,페리도트,마포구,37.55655839,126.9048206,서울특별시 마포구 포은로 106-1,02-322-4303,양식,실내, ,목줄,음식점양식마포구실내목줄망원1동망원1동,대한민국 서울특별시 마포구 망원1동 414-17,망원1동
음식점,공작,마포구,37.55389316,126.9042692,서울특별시 마포구 희우정로12길 23,0507-1422-0227,퓨전,실내, ,목줄,음식점퓨전마포구실내목줄망원1동망원1동,대한민국 서울특별시 마포구 망원1동 희우정로12길 23,망원1동
음식점,어라운드 그린,마포구,37.55763617,126.9056102,서울특별시 마포구 망원로 79,02-6080-9797,한식,실내, ,목줄,음식점한식마포구실내목줄망원2동망원2동,대한민국 서울특별시 마포구 망원2동 423-15,망원2동
음식점,AN'CHILL,영등포구,37.5380084,126.8959941,서울특별시 영등포구 선유로53길 24,02-2671-7089,퓨전,실내, ,목줄,음식점퓨전영등포구실내목줄양평동4가양평동4가,대한민국 서울특별시 영등포구 양평동4가 240,양평동4가
음식점,레드인,영등포구,37.53511986,126.8984552,서울특별시 영등포구 선유동2로 73,070-7757-7276,퓨전,실내, ,목줄,음식점퓨전영등포구실내목줄양평동4가양평동4가,대한민국 서울특별시 영등포구 양평동4가 27-7,양평동4가
음식점,비스트로406,양천구,37.5257155,126.8719625,서울특별시 양천구 목동동로 226,02-2644-9406,양식,실내, ,목줄,음식점양식양천구실내목줄목동동로목동동로,대한민국 서울특별시 양천구 목동동로 228,목동동로
음식점,크레이지토마토 문래창작촌점,영등포구,37.51478778,126.8966103,서울특별시 영등포구 도림로128가길 9,02-2631-0308,피자,실내, ,목줄,음식점피자영등포구실내목줄문래동문래동,대한민국 서울특별시 영등포구 문래동 54-20,문래동
음식점,하코야 문래역점,영등포구,37.51746312,126.8964937,서울특별시 영등포구 당산로 34,02-2677-5399,일식,실내, ,목줄,음식점일식영등포구실내목줄문래동3가문래동3가,대한민국 서울특별시 영등포구 문래동3가 55-5,문래동3가
음식점,아씨펍크래프트,구로구,37.50578001,126.8914055,서울특별시 구로구 새말로 102,010-3362-6800,피자,실내, ,목줄,음식점피자구로구실내목줄구로5동구로5동,대한민국 서울특별시 구로구 구로5동 26,구로5동
음식점,디펍문래,영등포구,37.51417446,126.8944574,서울특별시 영등포구 도림로 433-2,070-7717-5551,퓨전,실내, ,목줄,음식점퓨전영등포구실내목줄문래동2가문래동2가,대한민국 서울특별시 영등포구 문래동2가 14-26,문래동2가
음식점,아리수만찬,영등포구,37.54534066,126.8936823,서울특별시 영등포구 노들로 111,02-2632-2100,한식,실내, ,캐리어,음식점한식영등포구실내캐리어양화동양화동,대한민국 서울특별시 영등포구 양화동 47,양화동
음식점,피맥하우스 당산동3가점,영등포구,37.52566803,126.8973389,서울특별시 영등포구 당산로30길 5,02-6013-6702,피자,실내, ,목줄,음식점피자영등포구실내목줄당산로30길당산로30길,대한민국 서울특별시 영등포구 당산로30길 5,당산로30길
음식점,대구반야월막창 영등포구청점,영등포구,37.52653358,126.897913,서울특별시 영등포구 국회대로36길 10,010-3723-7839,한식,실외, ,목줄,음식점한식영등포구실외목줄당산동3가당산동3가,대한민국 서울특별시 영등포구 당산동3가 127-5,당산동3가
음식점,브루스카,영등포구,37.51293944,126.894346,서울특별시 영등포구 경인로79길 9,010-9292-4754,퓨전,실내, ,목줄,음식점퓨전영등포구실내목줄경인로79길경인로79길,대한민국 서울특별시 영등포구 경인로79길 9-1,경인로79길
음식점,작은술집원지,영등포구,37.52705283,126.8977116,서울특별시 영등포구 국회대로34길 5-1,010-4964-7511,퓨전,실내, ,목줄,음식점퓨전영등포구실내목줄국회대로34길국회대로34길,대한민국 서울특별시 영등포구 국회대로34길 5-1,국회대로34길
음식점,무정형,영등포구,37.51565481,126.8915735,서울특별시 영등포구 도림로143길 2,010-5096-4430,퓨전,실내, ,목줄,음식점퓨전영등포구실내목줄문래동4가문래동4가,대한민국 서울특별시 영등포구 문래동4가 6-2,문래동4가
음식점,찰랑,영등포구,37.51470427,126.8946869,서울특별시 영등포구 도림로 436-3,010-8922-0302,퓨전,실내, ,캐리어,음식점퓨전영등포구실내캐리어도림로도림로,대한민국 서울특별시 영등포구 도림로 436-5,도림로
음식점,로컬비어,영등포구,37.5220662,126.8931963,서울특별시 영등포구 영등포로 103,010-3200-0829,퓨전,실내, ,목줄,음식점퓨전영등포구실내목줄당산동2가당산동2가,대한민국 서울특별시 영등포구 당산동2가 43,당산동2가
음식점,블랑,영등포구,37.52439344,126.8976215,서울특별시 영등포구 양산로23길 6,010-9150-1753,퓨전,실내, ,목줄,음식점퓨전영등포구실내목줄양산로23길양산로23길,대한민국 서울특별시 영등포구 양산로23길 6-1,양산로23길
음식점,쏘맥의달인,동작구,37.48780478,126.9811924,서울특별시 동작구 동작대로27길 16-6,02-599-9479,퓨전,실내, ,목줄,음식점퓨전동작구실내목줄사당2동사당2동,대한민국 서울특별시 동작구 사당2동 131-7,사당2동
음식점,돈페페,동작구,37.47941516,126.9808344,서울특별시 동작구 사당로30길 123-1,010-8882-8246,퓨전,실내, ,목줄,음식점퓨전동작구실내목줄사당동사당동,대한민국 서울특별시 동작구 사당동 1031-4,사당동
음식점,청춘식당,동작구,37.50789575,126.9616901,서울특별시 동작구 서달로13길 11-13,02-812-8884,한식,실내, ,목줄,음식점한식동작구실내목줄흑석동흑석동,대한민국 서울특별시 동작구 흑석동 102-34,흑석동
음식점,맥피스,동작구,37.50732722,126.9648657,서울특별시 동작구 서달로14길 38,02-6406-6456,퓨전,실내, ,목줄,음식점퓨전동작구실내목줄흑석동흑석동,대한민국 서울특별시 동작구 흑석동 43-125,흑석동
음식점,바야흐로,동작구,37.50756308,126.9647974,서울특별시 동작구 현충로 102,070-7755-2889,퓨전,실내, ,목줄,음식점퓨전동작구실내목줄흑석동흑석동,대한민국 서울특별시 동작구 흑석동 9-89,흑석동
음식점,반할,동작구,37.50717138,126.9637797,서울특별시 동작구 서달로14다길 13,010-3244-8338,퓨전,실내, ,목줄,음식점퓨전동작구실내목줄흑석동흑석동,대한민국 서울특별시 동작구 흑석동 52-18,흑석동
음식점,피맥하우스 상도1동점,동작구,37.50383013,126.9483726,서울특별시 동작구 양녕로 265-1,02-6439-1333,피자,실내, ,목줄,음식점피자동작구실내목줄양녕로양녕로,대한민국 서울특별시 동작구 양녕로 265-1,양녕로
음식점,엉터리생고기 숭실대점,동작구,37.49848001,126.952364,서울특별시 동작구 상도로37길 66,02-815-5113,한식,실내, ,목줄,음식점한식동작구실내목줄상도1동상도1동,대한민국 서울특별시 동작구 상도1동 152,상도1동
음식점,서울통닭&닭발,동작구,37.51139904,126.9442532,서울특별시 동작구 만양로 89,02-816-5891,한식,실내, ,목줄,음식점한식동작구실내목줄노량진1동노량진1동,대한민국 서울특별시 동작구 노량진1동 119-253,노량진1동
음식점,숯총각꼼장어닭발,관악구,37.48593246,126.9277934,서울특별시 관악구 신림로67길 28,010-3228-1566,한식,실내, ,목줄,음식점한식관악구실내목줄신림동신림동,대한민국 서울특별시 관악구 신림동 1432-137,신림동
음식점,낮부엉이,관악구,37.48470736,126.9272013,서울특별시 관악구 신림로65길 41,070-8845-4133,분식,실내, ,목줄,음식점분식관악구실내목줄신림동신림동,대한민국 서울특별시 관악구 신림동 1433-96,신림동
음식점,신사리즉석떡볶이,관악구,37.48306603,126.9285994,서울특별시 관악구 남부순환로176길 20,010-8414-0147,분식,실내, ,목줄,음식점분식관악구실내목줄남부순환로176길남부순환로176길,대한민국 서울특별시 관악구 남부순환로176길 20,남부순환로176길
음식점,길회뜨다횟집,관악구,37.48336039,126.929194,서울특별시 관악구 신림로59길 12,02-876-8279,일식,실내, ,캐리어,음식점일식관악구실내캐리어신림동신림동,대한민국 서울특별시 관악구 신림동 1640-42,신림동
음식점,감성필,동작구,37.48052723,126.9810841,서울특별시 동작구 동작대로9길 7,010-7149-4512,한식,실내, ,목줄,음식점한식동작구실내목줄사당1동사당1동,대한민국 서울특별시 동작구 사당1동 동작대로9길 7,사당1동
음식점,파고,관악구,37.48065351,126.9573882,서울특별시 관악구 행운1길 40,02-6368-2249,퓨전,실내, ,목줄,음식점퓨전관악구실내목줄행운1길행운1길,대한민국 서울특별시 관악구 행운1길 40,행운1길
음식점,남도반주,관악구,37.47826224,126.9559313,서울특별시 관악구 관악로14가길 6,010-9539-9446,한식,실내, ,캐리어,음식점한식관악구실내캐리어낙성대동낙성대동,대한민국 서울특별시 관악구 낙성대동 1613-5,낙성대동
음식점,호랑이,서초구,37.44853714,127.0550362,서울특별시 서초구 청계산로9길 1-3,02-577-2827,퓨전,실내, ,목줄,음식점퓨전서초구실내목줄청계산로청계산로,대한민국 서울특별시 서초구 청계산로 1-3,청계산로
음식점,양재대가원 양재점,서초구,37.46753316,127.0416458,서울특별시 서초구 강남대로6길 4,02-529-5342,한식,실내, ,목줄,음식점한식서초구실내목줄양재2동양재2동,대한민국 서울특별시 서초구 양재2동 강남대로6길 4,양재2동
음식점,타이밍 LP music bar,서초구,37.4790696,127.0421885,서울특별시 서초구 양재천로 135-4,02-575-1354,퓨전,실내, ,안기,음식점퓨전서초구실내안기양재1동양재1동,대한민국 서울특별시 서초구 양재1동 양재천로 135-4,양재1동
음식점,크로스비,서초구,37.47755596,127.041004,서울특별시 서초구 양재천로 115,02-576-7754,퓨전,테라스, ,목줄,음식점퓨전서초구테라스목줄양재천로양재천로,대한민국 서울특별시 서초구 양재천로 115,양재천로
음식점,헝그리홀스,송파구,37.51008795,127.0820593,서울특별시 송파구 백제고분로7길 28-14,02-416-3791,퓨전,"실내,테라스",매일 18:00 - 03:00,목줄,음식점퓨전송파구실내 테라스목줄잠실동잠실동,대한민국 서울특별시 송파구 잠실동 190-8,잠실동
음식점,도프피자 베이커스,서초구,37.4683249,127.0431002,서울특별시 서초구 동산로2길 41,070-4647-2040,피자,실내, ,"캐리어,안기",음식점피자서초구실내캐리어 안기동산로2길동산로2길,대한민국 서울특별시 서초구 동산로2길 41,동산로2길
음식점,라파스타앤모어,서초구,37.50796696,127.021945,서울특별시 서초구 사평대로57길 86,070-4042-3469,양식,실내, ,목줄,음식점양식서초구실내목줄반포동반포동,대한민국 서울특별시 서초구 반포동 723-10,반포동
음식점,키친야나,서초구,37.49769708,126.9988886,서울특별시 서초구 서래로6길 10,070-8833-3568,양식,실내, ,목줄,음식점양식서초구실내목줄반포4동반포4동,대한민국 서울특별시 서초구 반포4동 90-3,반포4동
음식점,크래프트브로스,서초구,37.49879152,126.9976288,서울특별시 서초구 사평대로22길 18,02-537-7451,퓨전,실내, ,목줄,음식점퓨전서초구실내목줄반포동반포동,대한민국 서울특별시 서초구 반포동 106-7,반포동
음식점,파더스오피스,서초구,37.51698263,127.0185874,서울특별시 서초구 강남대로101길 18-6,010-2576-1606,퓨전,실내, ,목줄,음식점퓨전서초구실내목줄잠원동잠원동,대한민국 서울특별시 서초구 잠원동 12-16,잠원동
음식점,J의정원,서초구,37.51398764,127.0189299,서울특별시 서초구 신반포로47길 82,010-5164-4841,퓨전,실내, ,목줄,음식점퓨전서초구실내목줄잠원동잠원동,대한민국 서울특별시 서초구 잠원동 27-9,잠원동
음식점,까사꼬숑,서초구,37.48081815,126.9999543,서울특별시 서초구 효령로34길 23-7,010-8347-8985,퓨전,"실내,실외", ,목줄,음식점퓨전서초구실내 실외목줄효령로34길효령로34길,대한민국 서울특별시 서초구 효령로34길 23-7,효령로34길
음식점,노스티모,서초구,37.4886346,126.9959226,서울특별시 서초구 서초대로 125,02-535-5375,양식,실내, ,목줄,음식점양식서초구실내목줄방배4동방배4동,대한민국 서울특별시 서초구 방배4동 880-14,방배4동
음식점,남미플랜트랩,서초구,37.48060937,126.9832304,서울특별시 서초구 방배천로4안길 55,02-522-1276,퓨전,실내, ,목줄,음식점퓨전서초구실내목줄방배동방배동,대한민국 서울특별시 서초구 방배동 455-20,방배동
음식점,카페슬로우,서초구,37.500847,127.0252737,서울특별시 서초구 서초대로77길 35,02-3482-0111,퓨전,테라스, ,목줄,음식점퓨전서초구테라스목줄서초동서초동,대한민국 서울특별시 서초구 서초동 1308-12,서초동
음식점,메이민(구. 메이찬),강동구,37.53773634,127.1462303,서울특별시 강동구 명일로 214,02-482-1611,중식,실내, ,캐리어,음식점중식강동구실내캐리어길동길동,대한민국 서울특별시 강동구 길동 125-5,길동
음식점,나주곰탕 길동점,강동구,37.53400071,127.1372905,서울특별시 강동구 천호대로 1134,02-470-2966,한식,실내, ,목줄,음식점한식강동구실내목줄성내동성내동,대한민국 서울특별시 강동구 성내동 379-1,성내동
음식점,이자카야 인,강동구,37.52979337,127.1221396,서울특별시 강동구 성내로6길 14-16,02-474-0644,일식,실내, ,목줄,음식점일식강동구실내목줄성내1동성내1동,대한민국 서울특별시 강동구 성내1동 552-3,성내1동
음식점,버거주의,강동구,37.53703716,127.1304649,서울특별시 강동구 천호대로 1065,02-6326-8610,햄버거,실내, ,목줄,음식점햄버거강동구실내목줄천호3동천호3동,대한민국 서울특별시 강동구 천호3동 450-6,천호3동
음식점,만국미식회,강동구,37.53849607,127.1274849,서울특별시 강동구 천호대로157길 18,070-8828-9798,퓨전,실내, ,캐리어,음식점퓨전강동구실내캐리어천호대로157길천호대로157길,대한민국 서울특별시 강동구 천호대로157길 18,천호대로157길
음식점,뮬바,강동구,37.55126779,127.14345,서울특별시 강동구 양재대로141길 8,010-5553-3596,퓨전,실내, ,목줄,음식점퓨전강동구실내목줄명일동명일동,대한민국 서울특별시 강동구 명일동 312-84,명일동
음식점,동촌,강동구,37.54760139,127.1555997,서울특별시 강동구 동남로65길 5,02-3426-9719,한식,실내, ,목줄,음식점한식강동구실내목줄명일동명일동,대한민국 서울특별시 강동구 명일동 158,명일동
음식점,닐리 고덕점,강동구,37.55267242,127.1544682,서울특별시 강동구 동남로73길 31,02-427-0054,양식,실내, ,목줄,음식점양식강동구실내목줄명일2동명일2동,대한민국 서울특별시 강동구 명일2동 48-1,명일2동
음식점,리틀방콕 고덕점,강동구,37.55918388,127.1537442,서울특별시 강동구 동남로79길 26,02-426-0662,퓨전,실내, ,목줄,음식점퓨전강동구실내목줄고덕1동고덕1동,대한민국 서울특별시 강동구 고덕1동 동남로79길 26 고덕아이파크아파트,고덕1동
음식점,컵앤곱,송파구,37.5102216,127.0857062,서울특별시 송파구 석촌호수로 68,02-415-2770,한식,실내, ,목줄,음식점한식송파구실내목줄잠실본동잠실본동,대한민국 서울특별시 송파구 잠실본동 208-13 2층,잠실본동
음식점,라미아파밀리아,송파구,37.50459989,127.0849311,서울특별시 송파구 백제고분로18길 5,010-4841-3941,양식,실내, ,캐리어,음식점양식송파구실내캐리어잠실동잠실동,대한민국 서울특별시 송파구 잠실동 331-12,잠실동
음식점,규정공,송파구,37.48528783,127.1151196,서울특별시 송파구 정의로7길 13,02-2622-1346,한식,실내, ,캐리어,음식점한식송파구실내캐리어문정2동문정2동,대한민국 서울특별시 송파구 문정2동 494,문정2동
음식점,옐로우팟,송파구,37.4846615,127.1209336,서울특별시 송파구 송파대로 167,02-2054-8242,퓨전,실내, ,캐리어,음식점퓨전송파구실내캐리어문정동문정동,대한민국 서울특별시 송파구 문정동 송파대로 167 테라타워 A-1411,문정동
음식점,인조이더샐러드,송파구,37.4846615,127.1209336,서울특별시 송파구 송파대로 167,02-2054-8700,퓨전,테라스, ,목줄,음식점퓨전송파구테라스목줄문정동문정동,대한민국 서울특별시 송파구 문정동 송파대로 167 테라타워 A-1411,문정동
음식점,올리브테이블,송파구,37.48261579,127.1228264,서울특별시 송파구 법원로4길 10,02-6349-2100,양식,실내,월요일 휴무    매일 11:00 - 22:00 (15:00-17:00 브레이크타임)    일요일 11:00 - 21:00 (브레이크타임 없음),목줄,음식점양식송파구실내목줄문정동문정동,대한민국 서울특별시 송파구 문정동 305-5,문정동
음식점,놀부수산,송파구,37.49453769,127.1087136,서울특별시 송파구 양재대로 932,02-408-8372,한식,실내, ,목줄,음식점한식송파구실내목줄dong가락동,F4V5+RF 대한민국 서울특별시,가락동
음식점,토탈포차,송파구,37.50549572,127.0936793,서울특별시 송파구 백제고분로27길 28,010-7710-9513,한식,실내, ,목줄,음식점한식송파구실내목줄삼전동삼전동,대한민국 서울특별시 송파구 삼전동 107,삼전동
음식점,에일크루,마포구,37.55589593,126.9304565,서울특별시 마포구 와우산로37길 7,02-332-8663,피자,테라스,"평일 15:00 - 00:00 / 토요일 15:00 - 01:00 , 1월1일 휴무","목줄,캐리어",음식점피자마포구테라스목줄 캐리어동교동동교동,대한민국 서울특별시 마포구 동교동 와우산로37길 7,동교동
음식점,매드나이트,송파구,37.50618752,127.0989685,서울특별시 송파구 송파대로49길 52,010-8824-4741,퓨전,실내, ,목줄,음식점퓨전송파구실내목줄석촌동석촌동,대한민국 서울특별시 송파구 석촌동 24,석촌동
음식점,피피샐러드,송파구,37.50627736,127.099388,서울특별시 송파구 송파대로49길 50,070-8822-7771,퓨전,실내, ,안기,음식점퓨전송파구실내안기석촌동석촌동,대한민국 서울특별시 송파구 석촌동 24-14,석촌동
음식점,하이윤,송파구,37.50419113,127.1088373,서울특별시 송파구 송파대로40길 1-26,010-4488-7457,퓨전,실내, ,안기,음식점퓨전송파구실내안기송파동송파동,대한민국 서울특별시 송파구 송파동 88-7,송파동
음식점,다운타우너 잠실,송파구,37.50903765,127.1106654,서울특별시 송파구 백제고분로45길 3,070-8868-3696,햄버거,실내, ,캐리어,음식점햄버거송파구실내캐리어송파동송파동,대한민국 서울특별시 송파구 송파동 46-4,송파동
음식점,골든타이,송파구,37.51470175,127.1194229,서울특별시 송파구 위례성대로 66,02-461-8089,퓨전,테라스, ,목줄,음식점퓨전송파구테라스목줄방이동방이동,대한민국 서울특별시 송파구 방이동 171-4,방이동
음식점,김피그 거여점,송파구,37.4941352,127.1442441,서울특별시 송파구 거마로3길 4,02-401-1761,한식,실내, ,목줄,음식점한식송파구실내목줄거여동거여동,대한민국 서울특별시 송파구 거여동 25,거여동
음식점,오늘덮밥,송파구,37.49328428,127.1467356,서울특별시 송파구 거마로2길 18,02-402-3229,한식,실내, ,목줄,음식점한식송파구실내목줄거여동거여동,대한민국 서울특별시 송파구 거여동 36-10,거여동
음식점,퀴너스화덕피자앤캠핑,송파구,37.53187564,127.1187263,서울특별시 송파구 풍성로26길 22,070-4800-5860,피자,"실내,루프탑", ,목줄,음식점피자송파구실내 루프탑목줄풍납2동풍납2동,대한민국 서울특별시 송파구 풍납2동 237-1,풍납2동
음식점,세곡포차,강남구,37.4631481,127.1034683,서울특별시 강남구 헌릉로570길 34,02-459-3366,퓨전,실내, ,목줄,음식점퓨전강남구실내목줄세곡동세곡동,대한민국 서울특별시 강남구 세곡동 175-7,세곡동
음식점,춘천닭갈비,강남구,37.466816,127.1000394,서울특별시 강남구 헌릉로569길 13,02-459-9289,한식,실내, ,목줄,음식점한식강남구실내목줄세곡동세곡동,대한민국 서울특별시 강남구 세곡동 380-1,세곡동
음식점,자주포차,강남구,37.49000771,127.0834444,서울특별시 강남구 양재대로35길 5,070-4045-4569,퓨전,실내, ,목줄,음식점퓨전강남구실내목줄일원1동일원1동,대한민국 서울특별시 강남구 일원1동 680-3,일원1동
음식점,비스트로상수,강남구,37.47531931,127.0474534,서울특별시 강남구 논현로 54,02-577-2208,퓨전, , ,목줄,음식점퓨전강남구 목줄개포4동개포4동,대한민국 서울특별시 강남구 개포4동 228-5,개포4동
음식점,삼곱식당 개포점,강남구,37.47816271,127.0463365,서울특별시 강남구 논현로20길 18,02-573-9293,한식,실내, ,목줄,음식점한식강남구실내목줄논현로20길논현로20길,대한민국 서울특별시 강남구 논현로20길 18,논현로20길
음식점,부타식당,강남구,37.47479558,127.0506349,서울특별시 강남구 논현로10길 26,02-572-8338,퓨전,실내, ,"목줄,매너벨트",음식점퓨전강남구실내목줄 매너벨트개포동개포동,대한민국 서울특별시 강남구 개포동 1184-1,개포동
음식점,비일비재,종로구,37.56877824,126.9862445,서울특별시 종로구 삼일대로15길 21,010-9938-5154,퓨전,실내,"매일 18:00 - 02:00 , 매주 일요일 정기휴무 (사회적거리두기 기간동안은 5pm ~ 9pm 으로 조정하여 운영합니다.)","목줄,매너벨트",음식점퓨전종로구실내목줄 매너벨트관철동관철동,대한민국 서울특별시 종로구 관철동 11-18,관철동
음식점,찰미당,강남구,37.48166635,127.0440248,서울특별시 강남구 논현로24길 11,02-529-3859,퓨전,테라스, ,목줄,음식점퓨전강남구테라스목줄도곡동도곡동,대한민국 서울특별시 강남구 도곡동 449-6,도곡동
음식점,모터시티바이매니멀 역삼점,강남구,37.49974405,127.0349548,서울특별시 강남구 테헤란로 142,02-2051-8877,피자,실내, ,캐리어,음식점피자강남구실내캐리어역삼동역삼동,대한민국 서울특별시 강남구 역삼동 736-1,역삼동
음식점,역삼동 쏭타이,강남구,37.50568431,127.040272,서울특별시 강남구 테헤란로39길 51,02-554-0342,퓨전,실내, ,"목줄,입마개",음식점퓨전강남구실내목줄 입마개역삼동역삼동,대한민국 서울특별시 강남구 역삼동 664-32,역삼동
음식점,모터시티바이매니멀 강남점,강남구,37.50055728,127.0278959,서울특별시 강남구 강남대로98길 12-3,02-2052-3003,피자,실내, ,캐리어,음식점피자강남구실내캐리어역삼동역삼동,대한민국 서울특별시 강남구 역삼동 817-33,역삼동
음식점,그릴1492 삼성1호점,강남구,37.50657697,127.05336,서울특별시 강남구 삼성로91길 36,02-555-1492,한식,실내, ,목줄,음식점한식강남구실내목줄삼성2동삼성2동,대한민국 서울특별시 강남구 삼성2동 143-33,삼성2동
음식점,하드워커,강남구,37.51109923,127.0569621,서울특별시 강남구 삼성로100길 23-30,070-4248-7700,피자,실내, ,목줄,음식점피자강남구실내목줄삼성1동삼성1동,대한민국 서울특별시 강남구 삼성1동 153-32,삼성1동
음식점,식물원282,강남구,37.51044109,127.0568739,서울특별시 강남구 테헤란로83길 44-1,02-525-7234,퓨전,실내, ,목줄,음식점퓨전강남구실내목줄삼성1동삼성1동,대한민국 서울특별시 강남구 삼성1동 테헤란로83길 44-1,삼성1동
음식점,조인바이트,강남구,37.5115282,127.0446121,서울특별시 강남구 선릉로112길 13,02-3444-3611,양식,실내, ,"목줄,매너벨트",음식점양식강남구실내목줄 매너벨트삼성동삼성동,대한민국 서울특별시 강남구 삼성동 36-11,삼성동
음식점,엘레나영,강남구,37.52665134,127.0494061,서울특별시 강남구 도산대로99길 47,02-511-7433,양식,실내, ,목줄,음식점양식강남구실내목줄청담동청담동,대한민국 서울특별시 강남구 청담동 121-52,청담동
음식점,누앙스,강남구,37.52606139,127.0452932,서울특별시 강남구 압구정로72길 7,02-514-8077,퓨전,실내, ,목줄,음식점퓨전강남구실내목줄압구정로72길압구정로72길,대한민국 서울특별시 강남구 압구정로72길 7,압구정로72길
음식점,루카511,강남구,37.52701682,127.0468813,서울특별시 강남구 도산대로81길 40,02-540-6640,양식,테라스, ,목줄,음식점양식강남구테라스목줄청담동청담동,대한민국 서울특별시 강남구 청담동 115-16,청담동
음식점,윌로뜨,강남구,37.52276794,127.0434057,서울특별시 강남구 선릉로148길 48,02-722-0689,양식,실내, ,목줄,음식점양식강남구실내목줄청담동청담동,대한민국 서울특별시 강남구 청담동 19-18,청담동
음식점,알로하포케 학동점,강남구,37.51489843,127.0299765,서울특별시 강남구 논현로 705,02-511-9183,퓨전,실내, ,목줄,음식점퓨전강남구실내목줄논현1동논현1동,대한민국 서울특별시 강남구 논현1동 37-18,논현1동
음식점,장생건강원,강남구,37.50937518,127.024509,서울특별시 강남구 강남대로124길 23,070-7543-1077,퓨전,실내, ,목줄,음식점퓨전강남구실내목줄논현1동논현1동,대한민국 서울특별시 강남구 논현1동 145-12,논현1동
음식점,로얄라운지다이닝,강남구,37.51529077,127.029788,서울특별시 강남구 논현로 709,02-514-1247,양식,테라스, ,목줄,음식점양식강남구테라스목줄논현로논현로,대한민국 서울특별시 강남구 논현로 709,논현로
음식점,후문포차,강남구,37.50738458,127.0258232,서울특별시 강남구 강남대로120길 28,02-3445-0701,퓨전,실내,매일 18:00 - 24:00   명절당일 휴무,목줄,음식점퓨전강남구실내목줄서울특별시서울특별시,"28, 강남대로120길 강남구 서울특별시 대한민국",서울특별시
음식점,달링키친,강남구,37.51401211,127.0375282,서울특별시 강남구 언주로126길 25,02-540-3460,양식,테라스, ,목줄,음식점양식강남구테라스목줄논현동논현동,대한민국 서울특별시 강남구 논현동 247-9,논현동
음식점,마사 타코,강남구,37.52199869,127.0217406,서울특별시 강남구 압구정로10길 30-8,02-545-6915,퓨전,실내, ,목줄,음식점퓨전강남구실내목줄압구정로10길압구정로10길,대한민국 서울특별시 강남구 압구정로10길 30-8,압구정로10길
음식점,스페인클럽 가로수본점,강남구,37.52189244,127.0218595,서울특별시 강남구 압구정로10길 26,02-515-1118,퓨전,테라스, ,목줄,음식점퓨전강남구테라스목줄압구정로10길압구정로10길,대한민국 서울특별시 강남구 압구정로10길 26,압구정로10길
음식점,보물선,강남구,37.51739225,127.0210985,서울특별시 강남구 강남대로152길 20,02-511-9093,한식,실내, ,목줄,음식점한식강남구실내목줄신사동신사동,대한민국 서울특별시 강남구 신사동 강남대로152길 20,신사동
음식점,동남방앗간,강남구,37.52328441,127.0346483,서울특별시 강남구 언주로154길 16,0507-1454-1229,퓨전,테라스, ,목줄,음식점퓨전강남구테라스목줄신사동신사동,대한민국 서울특별시 강남구 신사동 631-25,신사동
음식점,까폼,강남구,37.52487626,127.0379882,서울특별시 강남구 선릉로153길 18,02-6081-7318,퓨전,실내, ,캐리어,음식점퓨전강남구실내캐리어선릉로153길선릉로153길,대한민국 서울특별시 강남구 선릉로153길 18,선릉로153길
음식점,미드나잇몰트펍,강남구,37.52604592,127.037502,서울특별시 강남구 선릉로157길 27-3,070-4647-4727,퓨전,실내, ,목줄,음식점퓨전강남구실내목줄신사동신사동,대한민국 서울특별시 강남구 신사동 657-13,신사동
음식점,Ginos NY Pizza 압구정점,강남구,37.52537386,127.0383515,서울특별시 강남구 선릉로155길 15,02-3444-2234,피자,실내, ,목줄,음식점피자강남구실내목줄신사동신사동,대한민국 서울특별시 강남구 신사동 655-3,신사동
음식점,긴자카레,강남구,37.50061073,127.0516629,서울특별시 강남구 역삼로 406,02-3452-0988,퓨전,실내,매일 11:30 - 24:00 (브레이크타임 14:30~16:30) / 공휴일 16:30 - 24:00 / 매주 일요일 휴무,목줄,음식점퓨전강남구실내목줄대치동대치동,대한민국 서울특별시 강남구 대치동 908-2,대치동
음식점,브롱스 선릉점,강남구,37.50301306,127.0519164,서울특별시 강남구 선릉로82길 23,02-501-6149,양식,실내, ,목줄,음식점양식강남구실내목줄대치4동대치4동,대한민국 서울특별시 강남구 대치4동 896-3,대치4동
음식점,칠랑고,강남구,37.50261059,127.0526976,서울특별시 강남구 역삼로67길 19,010-3303-4511,양식,테라스, ,목줄,음식점양식강남구테라스목줄역삼로67길역삼로67길,대한민국 서울특별시 강남구 역삼로67길 19,역삼로67길
음식점,정겨운오뎅집 여의도점,영등포구,37.52070134,126.9299977,서울특별시 영등포구 여의대방로67길 22,-,퓨전,실내, ,목줄,음식점퓨전영등포구실내목줄여의도동여의도동,대한민국 서울특별시 영등포구 여의도동 44-2,여의도동
음식점,뚜띠쿠치나 공덕점,마포구,37.54632484,126.9543399,서울특별시 마포구 마포대로12길 58,02-717-3356,양식,테라스, ,목줄,음식점양식마포구테라스목줄공덕동공덕동,대한민국 서울특별시 마포구 공덕동 249-36,공덕동
음식점,술꼬마,용산구,37.53447709,126.9891818,서울특별시 용산구 녹사평대로40길 59-1,070-8861-6517,퓨전,실내, ,목줄,음식점퓨전용산구실내목줄이태원동이태원동,대한민국 서울특별시 용산구 이태원동 57-25,이태원동
음식점,Southside Parlor,용산구,37.53712267,126.9870659,서울특별시 용산구 녹사평대로 218,02-749-9522,양식,실내, ,목줄,음식점양식용산구실내목줄이태원동이태원동,대한민국 서울특별시 용산구 이태원동 521-1,이태원동
음식점,피자컴퍼니 이태원,용산구,37.53367573,126.989018,서울특별시 용산구 녹사평대로32길 3,02-790-3419,피자,실내, ,캐리어,음식점피자용산구실내캐리어녹사평대로녹사평대로,대한민국 서울특별시 용산구 녹사평대로 174-6,녹사평대로
음식점,팬케이크샵,용산구,37.53495942,126.9884557,서울특별시 용산구 녹사평대로40다길 2,02-6407-3770,양식,실내, ,목줄,음식점양식용산구실내목줄이태원1동이태원1동,대한민국 서울특별시 용산구 이태원1동 455-1,이태원1동
음식점,MOTHER OFFLINE,용산구,37.53666612,126.9990956,서울특별시 용산구 이태원로55나길 6,010-4658-0788,양식,실내, ,목줄,음식점양식용산구실내목줄한남동한남동,대한민국 서울특별시 용산구 한남동 744-5,한남동
음식점,몽크스부처,용산구,37.53545652,126.9992309,서울특별시 용산구 이태원로 228-1,02-790-1108,양식,"실내,실외", ,목줄,음식점양식용산구실내 실외목줄한남동한남동,대한민국 서울특별시 용산구 한남동 683-125,한남동
음식점,메종 앙티브,용산구,37.53738571,127.0029092,서울특별시 용산구 한남대로27가길 15,02-790-3325,양식,실내, ,목줄,음식점양식용산구실내목줄한남동한남동,대한민국 서울특별시 용산구 한남동 729-32,한남동
음식점,브루독 이태원,용산구,37.53494138,126.9969225,서울특별시 용산구 이태원로27나길 40,02-797-1240,양식,실내, ,목줄,음식점양식용산구실내목줄이태원동이태원동,대한민국 서울특별시 용산구 이태원동 124-1,이태원동
음식점,어글리소사이어티,용산구,37.53396058,126.9918135,서울특별시 용산구 보광로59길 40,010-4937-0892,양식,실내, ,목줄,음식점양식용산구실내목줄보광로59길보광로59길,대한민국 서울특별시 용산구 보광로59길 40,보광로59길
음식점,HOMER PIZZA,용산구,37.5358135,126.9998268,서울특별시 용산구 이태원로42길 19,02-793-3825,피자,실내, ,목줄,음식점피자용산구실내목줄한남동한남동,대한민국 서울특별시 용산구 한남동 이태원로 234-1,한남동
음식점,더구룸,용산구,37.53454053,126.9970562,서울특별시 용산구 이태원로 208,02-792-3113,양식,실내, ,목줄,음식점양식용산구실내목줄이태원로이태원로,대한민국 서울특별시 용산구 이태원로 208,이태원로
음식점,브라이리퍼블릭푸드,용산구,37.53354667,126.9907866,서울특별시 용산구 이태원로14길 19,070-8879-1967,양식,실내, ,목줄,음식점양식용산구실내목줄이태원1동이태원1동,대한민국 서울특별시 용산구 이태원1동 63-4,이태원1동
음식점,더테이블키친,용산구,37.53566637,127.0007607,서울특별시 용산구 이태원로54길 58-7,02-6011-1117,양식,실내, ,목줄,음식점양식용산구실내목줄한남동한남동,대한민국 서울특별시 용산구 한남동 684-36,한남동
음식점,뷰티그로서리,강남구,37.52366885,127.0367712,서울특별시 강남구 압구정로46길 77,02-546-7618,양식,"실외,테라스","매일 10:30 - 19:00 / OPEN 10:30 (Bread&Drink) / 11:30 LUNCH / Last Order 18:00 , 일요일 휴무",목줄,음식점양식강남구실외 테라스목줄신사동신사동,대한민국 서울특별시 강남구 신사동 648-17,신사동
음식점,봉심식당,종로구,37.58258777,127.0004309,서울특별시 종로구 대학로11길 38-23,070-8844-5772,양식,"실내,테라스","OPEN 17:00 - CLOSE 03:00 , 월요일 휴무",목줄,음식점양식종로구실내 테라스목줄명륜4가명륜4가,대한민국 서울특별시 종로구 명륜4가 70-3,명륜4가
음식점,웨이브스,영등포구,37.51485785,126.895043,서울특별시 영등포구 도림로 434-11,070-7681-0101,양식,실내,12:00 - 24:00,목줄,음식점양식영등포구실내목줄문래동3가문래동3가,대한민국 서울특별시 영등포구 문래동3가 58-32,문래동3가
음식점,초원가든,강북구,37.67377651,127.0050083,서울특별시 강북구 삼양로181길 251,02-993-3702,한식,"실내,실외", ,안기,음식점한식강북구실내 실외안기우이동우이동,대한민국 서울특별시 강북구 우이동 산79-1,우이동
음식점,CAMPxGRILL,중랑구,37.61333472,127.0767603,서울특별시 중랑구 동일로 929,02-6677-0043,한식,실내,17:00 - 24:00,목줄,음식점한식중랑구실내목줄묵동묵동,대한민국 서울특별시 중랑구 묵동 238-90,묵동
음식점,인디언소울,도봉구,37.6881357,127.0439613,서울특별시 도봉구 도봉산길 12-15,02-956-7448,한식,실외,11:00 - 23:00,목줄,음식점한식도봉구실외목줄도봉1동도봉1동,대한민국 서울특별시 도봉구 도봉1동 293-2,도봉1동
음식점,다 피타 시그니처,서초구,37.48603179,126.9830837,서울특별시 서초구 서초대로 3-4,02-537-1007,양식,실내,11:30 - 22:00 Last order 21:10,안기,음식점양식서초구실내안기방배4동방배4동,대한민국 서울특별시 서초구 방배4동 3001-2,방배4동
음식점,홍대씨부엉,마포구,37.55258316,126.9223769,서울특별시 마포구 와우산로21길 28-6,02-336-5253,분식,실내,11:00 - 24:00,목줄,음식점분식마포구실내목줄서교동서교동,대한민국 서울특별시 마포구 서교동 와우산로21길 28-8,서교동
음식점,버거드조선,종로구,37.57559319,126.9705106,서울특별시 종로구 사직로10길 7,02-723-1016,햄버거,"실내,실외",11:30 - 22:00 ( Break Time 15:00 ~ 17:00 ),목줄,음식점햄버거종로구실내 실외목줄내자동내자동,대한민국 서울특별시 종로구 내자동 146,내자동
음식점,양송이식당,마포구,37.54462676,126.9361439,서울특별시 마포구 토정로17안길 9,010-9189-2005,한식,실내,"화-금요일 11:30 - 20:00 (브레이크타임 2:30 ~ 5:00) / 일요일 12:00 - 14:30 (일요일은 런치만 운영) , 월요일 휴무","캐리어,안기",음식점한식마포구실내캐리어 안기신수동신수동,대한민국 서울특별시 마포구 신수동 404,신수동
음식점,포크댄스,강남구,37.5071036,127.0256359,서울특별시 강남구 강남대로118길 31,02-2038-7200,한식,실내,"매일 18:00 - 02:00 , 일요일 휴무","목줄,캐리어",음식점한식강남구실내목줄 캐리어논현동논현동,대한민국 서울특별시 강남구 논현동 182-19,논현동
음식점,초가집 (한정식),강북구,37.66247014,127.0061605,서울특별시 강북구 삼양로173길 116-28,02-993-3758,한식,"실내,실외",12:00~08:00 (예약제 운영),"목줄,캐리어",음식점한식강북구실내 실외목줄 캐리어삼양로173길삼양로173길,대한민국 서울특별시 강북구 삼양로173길 116-28,삼양로173길
음식점,엘더버거,성동구,37.54633098,127.0429788,서울특별시 성동구 서울숲2길 40-7,02-462-5612,햄버거,테라스,"매일 11:30 - 20:30 , 월요일 휴무",목줄,음식점햄버거성동구테라스목줄성수1가2동성수1가2동,대한민국 서울특별시 성동구 성수1가2동 668-105,성수1가2동
음식점,무대륙,마포구,37.54604749,126.9183619,서울특별시 마포구 토정로5길 12,02-332-8333,퓨전,실내,매일 11:00 - 01:00 BAR (KITCHEN 11am-11:30pm ),목줄,음식점퓨전마포구실내목줄합정동합정동,대한민국 서울특별시 마포구 합정동 358-7,합정동
음식점,빈티지1981,송파구,37.50624254,127.0985772,서울특별시 송파구 석촌호수로 194,010-8221-9819,피자,실내,"평일 17:00 - 23:00, 주말 12:00 - 15:30",목줄,음식점피자송파구실내목줄석촌동석촌동,대한민국 서울특별시 송파구 석촌동 1-3,석촌동
음식점,더피자보이즈,마포구,37.55529834,126.9260664,서울특별시 마포구 와우산로29마길 24-1,0507-1418-0801,피자,실내,"평일 15:00 - 23:00, 토요일,일요일13:00 - 22:00",캐리어,음식점피자마포구실내캐리어서교동서교동,대한민국 서울특별시 마포구 서교동 332-33,서교동
음식점,희게,서대문구,37.5686547,126.9318921,서울특별시 서대문구 증가로 1,010-8387-4111,양식,실내,"수~토요일 11:30 - 22:00, 일요일 11;30 - 16:00. 월,화 휴무",목줄,음식점양식서대문구실내목줄증가로증가로,대한민국 서울특별시 서대문구 증가로 1,증가로
음식점,라운지앤,광진구,37.5571967,127.0775078,서울특별시 광진구 능동로35길 28-1,02-497-4647,분식,실내,"매일 11:30 - 21:00, 월요일 정기휴무",목줄,음식점분식광진구실내목줄군자동군자동,대한민국 서울특별시 광진구 군자동 472-8,군자동
음식점,땡초우동IN포차홍대점,마포구,37.55678001,126.9266155,서울특별시 마포구 어울마당로 151,02-336-5159,퓨전,실내, ,목줄,음식점퓨전마포구실내목줄동교동동교동,대한민국 서울특별시 마포구 동교동 170-17,동교동
음식점,문어랑 상록점,강남구,37.50543547,127.0425364,서울특별시 강남구 봉은사로44길 64,02-508-7701,한식,"실내,실외","평일 16:00 - 04:00, 주말 17:00 - 02:00(일요일 격주 휴무)",목줄,음식점한식강남구실내 실외목줄역삼1동역삼1동,대한민국 서울특별시 강남구 역삼1동 봉은사로44길 64,역삼1동
음식점,팔레드신,중구,37.55973234,126.9795234,서울특별시 중구 퇴계로 67,02-317-4001,중식,실내,매일 11:30 - 22:00,없음,음식점중식중구실내없음회현동1가회현동1가,대한민국 서울특별시 중구 회현동1가 194-18,회현동1가
음식점,빠리가옥,종로구,37.57332452,126.9902021,서울특별시 종로구 수표로28길 33-4,02-6083-1626,퓨전,실내,매일 11:30 - 22:00,목줄,음식점퓨전종로구실내목줄종로1.2.3.4가동종로1.2.3.4가동,대한민국 서울특별시 종로구 종로1.2.3.4가동 돈화문로11다길,종로1.2.3.4가동
음식점,술노리아,송파구,37.48893604,127.1235647,서울특별시 송파구 문정로1길 31,010-6279-2387,퓨전,실내,"매일 18:00 - 03:30, 매주 월요일휴무",목줄,음식점퓨전송파구실내목줄문정로1길문정로1길,대한민국 서울특별시 송파구 문정로1길 31,문정로1길
음식점,카키스터프,용산구,37.54078351,126.9920243,서울특별시 용산구 회나무로13가길 46-8,02-794-5131,양식,"실내,테라스",매일 11:30 - 22:00(월요일 휴무),목줄,음식점양식용산구실내 테라스목줄회나무로13가길회나무로13가길,대한민국 서울특별시 용산구 회나무로13가길 42,회나무로13가길
음식점,노네임드키친,광진구,37.53132042,127.0763181,서울특별시 광진구 자양번영로4길 18,02-457-0623,퓨전,실내,매일 18:00 - 24:00(일요일 휴무),목줄,음식점퓨전광진구실내목줄자양번영로4길자양번영로4길,대한민국 서울특별시 광진구 자양번영로4길 18,자양번영로4길
음식점,베란다,마포구,37.55902367,126.9077363,서울특별시 마포구 월드컵로 120,02-333-0250,양식,실내,"매일 11:30 - 22:00, 일요일 휴무",목줄,음식점양식마포구실내목줄월드컵로월드컵로,대한민국 서울특별시 마포구 월드컵로 120,월드컵로
음식점,다운타우너 한남점,용산구,37.5348433,127.0008582,서울특별시 용산구 대사관로5길 12,070-8806-3696,햄버거,"실내,테라스",매일 11:30 - 21:30,"목줄,캐리어",음식점햄버거용산구실내 테라스목줄 캐리어한남동한남동,대한민국 서울특별시 용산구 한남동 대사관로5길 12,한남동
음식점,효뜨,용산구,37.53035094,126.9713078,서울특별시 용산구 한강대로40가길 6,02-794-0526,퓨전,테라스,"평일 11:30 - 15:00, 17:30 - 22:00, 토요일 12:30 - 21:00, 일요일 12:30 - 21:00(2,4주 휴무)",없음,음식점퓨전용산구테라스없음한강로2가한강로2가,대한민국 서울특별시 용산구 한강로2가 75-5,한강로2가
음식점,문화식당 성신여대점,성북구,37.59107617,127.0203091,서울특별시 성북구 보문로30나길 37,02-6381-4644,양식,실내,매일 11:30 - 24:00,목줄,음식점양식성북구실내목줄동선동2가동선동2가,대한민국 서울특별시 성북구 동선동2가 150,동선동2가
음식점,이런씨불닭발,노원구,37.62457897,127.077286,서울특별시 노원구 동일로184길 66,070-4078-1858,한식,실내,"매일 17:00 - 01:00, 일요일 휴무",목줄,음식점한식노원구실내목줄공릉동공릉동,대한민국 서울특별시 노원구 공릉동 559-28,공릉동
음식점,정거장뒤,은평구,37.58736031,126.920349,서울특별시 은평구 가좌로 185,070-7370-0828,퓨전,실내,"매일 11:00 - 21:00, 일요일 휴무",안기,음식점퓨전은평구실내안기가좌로가좌로,대한민국 서울특별시 은평구 가좌로 185,가좌로
음식점,72420,송파구,37.50962568,127.110152,서울특별시 송파구 백제고분로45길 12,02-417-2420,퓨전,"실내,실외",매일 11:30 - 22:00,목줄,음식점퓨전송파구실내 실외목줄송파동송파동,대한민국 서울특별시 송파구 송파동 51-10,송파동
음식점,지하102호,마포구,37.5493873,126.9180791,서울특별시 마포구 양화로6길 57-22,010-6315-8648,퓨전,실내,매일 17:00 - 03:00,없음,음식점퓨전마포구실내없음서교동서교동,대한민국 서울특별시 마포구 서교동 양화로6길 57-24,서교동
음식점,발리인망원,마포구,37.55329028,126.9060359,서울특별시 마포구 포은로 67,02-336-0527,퓨전,실내,"매일 11:30 - 21:00/라스트 오더 14:30&20:00 / 브레이크타임 15~17시, 일요일 휴무라스트오더 20:00","목줄,캐리어,입마개",음식점퓨전마포구실내목줄 캐리어 입마개포은로포은로,대한민국 서울특별시 마포구 포은로 67 2층,포은로
음식점,마레스타,마포구,37.55720574,126.9206379,서울특별시 마포구 월드컵북로4길 15,02-322-8588,양식,실내,매일 11:30 - 22:0015시30분부터 17시까지 재료준비시간. 매주 일요일 휴무,목줄,음식점양식마포구실내목줄동교동동교동,대한민국 서울특별시 마포구 동교동 203-19,동교동
음식점,38도씨식당,마포구,37.54942988,126.9216152,서울특별시 마포구 와우산로17길 19-17,070-4045-8387,양식,실내,매일 16:00 - 02:00 일요일 휴무,없음,음식점양식마포구실내없음서교동서교동,대한민국 서울특별시 마포구 서교동 409-11,서교동
음식점,아티초크0125,강남구,37.52614974,127.0470028,서울 강남구 압구정로75길 6,02-544-2415,양식,테라스,매일 11:30 - 23:00,목줄,음식점양식강남구테라스목줄압구정로75길압구정로75길,대한민국 서울특별시 강남구 압구정로75길 6,압구정로75길
음식점,카페 나하,마포구,37.5545466,126.9037593,서울 마포구 희우정로16길 32,070-8834-1632,양식,실내,"화,수,목,금,토 12:00 - 22:00 재료준비 : 15-17시    일요일 12:00 - 15:00 재료소진시까지 운영    월요일 휴무",목줄,음식점양식마포구실내목줄망원1동망원1동,대한민국 서울특별시 마포구 망원1동 398-2,망원1동
음식점,청계산 장수촌,서초구,37.44294446,127.0574706,서울 서초구 원터5길 14,02-578-5078,한식,"실내,실외",매일 10:00 - 21:00,목줄,음식점한식서초구실내 실외목줄원터5길원터5길,대한민국 서울특별시 서초구 원터5길 14,원터5길
음식점,바스버거 후암점,용산구,37.55023665,126.9740602,서울특별시 용산구 한강대로104길 32,02-318-6649,햄버거,테라스,평일 11:00 - 23:00,없음,음식점햄버거용산구테라스없음동자동동자동,대한민국 서울특별시 용산구 동자동 24-39,동자동
음식점,칠사칠,용산구,37.5336349,126.9923217,서울 용산구 이태원로20가길 1,02-749-7470,양식,실내,평일 17:00~24:00 금 16:00-02:00 토 11:00-02:00일11:00-24:00,목줄,음식점양식용산구실내목줄이태원동이태원동,대한민국 서울특별시 용산구 이태원동 74-7,이태원동
음식점,르팔러,마포구,37.5515008,126.9139502,서울 마포구 양화로 45,02-6013-7649,양식,실내,매일 11:00 - 24:00,목줄,음식점양식마포구실내목줄서교동서교동,대한민국 서울특별시 마포구 서교동 388-19,서교동
음식점,루나씨엘로,마포구,37.56085393,126.9255687,서울 마포구 동교로34길 21,070-4110-3815,양식,테라스,평일 16:00 - 01:00주말 16:00 - 02:00,"목줄,안기",음식점양식마포구테라스목줄 안기연남동연남동,대한민국 서울특별시 마포구 연남동 동교로34길 21,연남동
음식점,NY BnB,강남구,37.49661395,127.0310961,서울 강남구 테헤란로6길 30,02-553-7792,햄버거,"실내,테라스",일요일 10:00 - 21:00  매일 10:00 - 22:00,목줄,음식점햄버거강남구실내 테라스목줄테헤란로6길테헤란로6길,대한민국 서울특별시 강남구 테헤란로6길 30,테헤란로6길
음식점,개편한 포차 탄이네,광진구,37.54223276,127.0660549,서울 광진구 동일로22길 31,02-499-0851,퓨전,실내,18:00~05:00,목줄,음식점퓨전광진구실내목줄서울특별시서울특별시,"31, 동일로22길 광진구 서울특별시 대한민국",서울특별시
음식점,슬로우캘리,마포구,37.56135693,126.9258126,서울 마포구 동교로38길 35,02-336-0688,퓨전,실내,"  11:30~20:30, 월요일 휴무  브레이크 타임 15:00~17:00",목줄,음식점퓨전마포구실내목줄390-41번지390-41번지,대한민국 서울특별시 연남동 390-41번지 하동 1층 일부 마포구 서울특별시 KR 용정,390-41번지
음식점,비어바나,영등포구,37.51333325,126.8953279,서울특별시 영등포구 도림로129길 5-1,02-2634-6277,퓨전,"실내,실외",  평일 17:00~01:00  토요일 15:00~01:00  일요일 15:00~24:00,목줄,음식점퓨전영등포구실내 실외목줄도림로129길도림로129길,대한민국 서울특별시 영등포구 도림로129길 5-1,도림로129길
음식점,비어포스트 바,영등포구,37.51379073,126.8941628,서울 영등포구 도림로131길 15,02-2068-6277,퓨전,실내, ,목줄,음식점퓨전영등포구실내목줄문래동문래동,대한민국 서울특별시 영등포구 문래동 14-29,문래동
음식점,라샌독오스테리아,용산구,37.53545878,127.0007421,서울 용산구 이태원로54길 62-9,070-8614-9903,양식,실내,  11:30~21:00  브레이크 타임 14:30~15:30  일요일 19:00 영업종료,목줄,음식점양식용산구실내목줄한남동한남동,대한민국 서울특별시 용산구 한남동 684-19,한남동
음식점,훌라훌라,마포구,37.55263327,126.9046839,서울 마포구 희우정로10길 4,010-6284-5787,퓨전,실내,"  화~일요일 11:00~22:00  브레이크 타임 15:00~17:00 (주말 제외)  매주 월요일 휴무, 임시휴무 인스타 공지",목줄,음식점퓨전마포구실내목줄희우정로10안길희우정로10안길,대한민국 서울특별시 마포구 희우정로10안길 6,희우정로10안길
음식점,펍피맥 오목교본점,양천구,37.52383272,126.8773484,서울 양천구 신목로2길 68,02-2061-2620,피자,실내,"  평일 17:00~02:00  주말 16:00~02:00, 연중무휴",목줄,음식점피자양천구실내목줄신목로2길신목로2길,대한민국 서울특별시 양천구 신목로2길 68,신목로2길
음식점,파이브테이블즈,마포구,37.5561118,126.9035208,서울 마포구 망원로6길 19,02-3141-1555,퓨전,실내,"11:00~22:30, 오픈시간 유동적",목줄,음식점퓨전마포구실내목줄망원1동망원1동,대한민국 서울특별시 마포구 망원1동 415-53,망원1동
음식점,코시나,성동구,37.54921954,127.0507897,서울 성동구 성수일로11길 8,070-7622-2176,양식,실내,  평일 11:00~22:00  주말 12:00~22:00,목줄,음식점양식성동구실내목줄성수1가2동성수1가2동,대한민국 서울특별시 성동구 성수1가2동 13-202,성수1가2동
음식점,장화신은고양이,마포구,37.556749,126.9081711,서울 마포구 월드컵로19길 16,02-333-2825,퓨전,"실내,실외","  평일 18:00~24:00, 휴무일 인스타 공지  토요일 12:30~24:00, 재료 소진 시 조기마감  일요일 18:00~18:30, 예약제 비프웰링턴 코스",목줄,음식점퓨전마포구실내 실외목줄망원1동망원1동,대한민국 서울특별시 마포구 망원1동 월드컵로19길 16 지층,망원1동
음식점,인딕 슬로우,강남구,37.52189857,127.0203335,서울 강남구 압구정로4길 13,02-511-0139,퓨전,테라스,"  11:00~22:00, 브레이크 타임 15시~17시  연중무휴",목줄,음식점퓨전강남구테라스목줄신사동신사동,대한민국 서울특별시 강남구 신사동 525-4,신사동
음식점,얼띵앤키친,마포구,37.54641425,126.9185728,서울 마포구 토정로5길 22,070-7766-6028,양식,실내,  화~금요일 12:00~21:30  주말 12:00~22:00  월요일 휴무,목줄,음식점양식마포구실내목줄합정동합정동,대한민국 서울특별시 마포구 합정동 357-25,합정동
음식점,아이노테이블,마포구,37.54798076,126.9156603,서울 마포구 성지1길 39,02-336-0118,한식,실내,"11:00~22:00, 연중무휴",목줄,음식점한식마포구실내목줄364-38364-38,대한민국 서울특별시 마포구 364-38 1층,364-38
음식점,아루감,마포구,37.557097,126.9084601,서울 마포구 월드컵로19길 8,02-322-3213,퓨전,실내,"18:00~02:00, 연중무휴",목줄,음식점퓨전마포구실내목줄망원동망원동,대한민국 서울특별시 마포구 망원동 월드컵로19길 8,망원동
음식점,복덕방 막걸리집,마포구,37.55643163,126.9050494,서울 마포구 포은로8길 5,070-8864-1414,한식,실내,"  화~금 18:00~02:00, 오더마감 01:00  토요일 17:00~02:00, 오더마감 01:00  일, 월요일 휴무",목줄,음식점한식마포구실내목줄망원1동망원1동,대한민국 서울특별시 마포구 망원1동 414-14,망원1동
음식점,미자카야,마포구,37.55643163,126.9050494,서울 마포구 포은로8길 5,010-4800-7637,퓨전,실내,"  월~금 18:00~02:00  토요일 18:00~01:00  매주 일요일, 첫재 셋재 월요일 휴무",안기,음식점퓨전마포구실내안기망원1동망원1동,대한민국 서울특별시 마포구 망원1동 414-14,망원1동
음식점,무슈,마포구,37.55623373,126.9156815,서울 마포구 동교로17길 28,070-8955-2295,한식,"실내,실외","11:30~22:00, 연중무휴",목줄,음식점한식마포구실내 실외목줄서교동서교동,대한민국 서울특별시 마포구 서교동 451-3,서교동
음식점,라오삐약,마포구,37.55273281,126.9044379,서울 마포구 희우정로10길 5,02-322-7735,퓨전,"실내,실외","  11:00~21:00, 브레이크 타임 15시~17시  주말 11:00~21:00, 브레이크 타임 없음  월요일 휴무",목줄,음식점퓨전마포구실내 실외목줄희우정로10길희우정로10길,대한민국 서울특별시 마포구 희우정로10길 5,희우정로10길
음식점,라몽림,마포구,37.55132073,126.9072203,서울 마포구 포은로 42,-,퓨전,실내, ,목줄,음식점퓨전마포구실내목줄합정동합정동,대한민국 서울특별시 마포구 합정동 434-8,합정동
음식점,드렁캔 자양점,광진구,37.5307025,127.0788093,서울 광진구 뚝섬로52길 30,02-6326-0422,퓨전,"실내,실외","17:00~02:00, 연중무휴",목줄,음식점퓨전광진구실내 실외목줄뚝섬로52길뚝섬로52길,대한민국 서울특별시 광진구 뚝섬로52길 30,뚝섬로52길
음식점,다운타우너 청담,강남구,37.5240649,127.0385739,서울 강남구 도산대로53길 14,070-8833-3696,햄버거,실내,"11:30~21:30, 휴뮤일 인스타 공지",캐리어,음식점햄버거강남구실내캐리어신사동신사동,대한민국 서울특별시 강남구 신사동 653-4,신사동
음식점,망원 그곳,마포구,37.55512604,126.9093556,서울 마포구 월드컵로13길 19-19,010-3745-7037,퓨전,실내,주말 18:00 - 03:00  평일 18:00 - 02:00,목줄,음식점퓨전마포구실내목줄망원동망원동,대한민국 서울특별시 마포구 망원동 379-35,망원동
음식점,길모퉁이칠리차차,마포구,37.55623149,126.9140751,서울 마포구 동교로15길 34,02-6014-7770,양식,실외,"  평일 11:30~22:30, 주말 11:30~22:00  2번째 토, 일 휴무",목줄,음식점양식마포구실외목줄서교동서교동,대한민국 서울특별시 마포구 서교동 468-15,서교동
음식점,규스홈,서초구,37.48208101,126.9828247,서울 서초구 방배천로 62,02-598-5584,양식,실내,  평일 11:00~22:00 / 오후 3~5시 브레이크 타임  주말 12:00~22:00 / 브레이크 타임 없음  일요일 휴무,목줄,음식점양식서초구실내목줄방배천로방배천로,대한민국 서울특별시 서초구 방배천로 62,방배천로
음식점,구운,마포구,37.55668031,126.9045013,서울 마포구 포은로 109,02-322-5545,퓨전,실내,"17:00~02:00, 연중무휴",목줄,음식점퓨전마포구실내목줄포은로포은로,대한민국 서울특별시 마포구 포은로 109,포은로
음식점,차고버거(Chag.oB),송파구,37.51552183,127.113963,서울 송파구 오금로11길 61-11,070-8878-0601,햄버거,"실외,테라스","  화~토 11:30~21:30,  브레이크 타임 15:00~17:00",목줄,음식점햄버거송파구실외 테라스목줄방이동방이동,대한민국 서울특별시 송파구 방이동 49-8,방이동
음식점,벤조롱,은평구,37.59562679,126.9157585,서울 은평구 불광천길 486,010-3384-2870,퓨전,실내,평일)17:30 - 02:00 주말)16:30 - 02:00 (월요일 휴무),목줄,음식점퓨전은평구실내목줄불광천길불광천길,대한민국 서울특별시 은평구 불광천길 486,불광천길
음식점,제니스,서대문구,37.56701331,126.9289078,서울 서대문구 연희맛로 17-49,02-3789-7817,양식,"실내,테라스","11:30~22:00, 연중무휴",목줄,음식점양식서대문구실내 테라스목줄연희동연희동,대한민국 서울특별시 서대문구 연희동 190-1,연희동
음식점,JULy16th,마포구,37.55457669,126.9233154,서울 마포구 와우산로23길 35-6,02-336-0716,퓨전,실내,"매달 2째주4째주 월요일휴무
월~목 15:00 - 01:00
금~일 15:00 - 02:00","목줄,안기",음식점퓨전마포구실내목줄 안기와우산로23길와우산로23길,대한민국 서울특별시 마포구 와우산로23길 35-6,와우산로23길
음식점,꾸띠자르당,용산구,37.5334478,126.9946076,서울 용산구 보광로 120,02-793-5072,양식,실외,평일 10:30 - 01:00 B.T 15시~17시   금~토 12:00 - 06:00 B.T 16시~17시   일요일 12:00 - 24:00 B.T 16시~17시,목줄,음식점양식용산구실외목줄이태원1동이태원1동,대한민국 서울특별시 용산구 이태원1동 131-23,이태원1동
음식점,아날로그 키친,광진구,37.54105663,127.0656692,서울 광진구 아차산로 200,02-2122-1265,양식,"실외,테라스",  11:00 ~ 22:00 주문마감 21:00  명절당일 휴무,목줄,음식점양식광진구실외 테라스목줄자양동자양동,대한민국 서울특별시 광진구 자양동 17-14,자양동
음식점,난장캠프 논현점,강남구,37.505752,127.0251993,서울 강남구 강남대로114길 10,02-516-1446,한식,실내,"17:00 ~ 24:00, 연중무휴",목줄,음식점한식강남구실내목줄강남대로114길강남대로114길,대한민국 서울특별시 강남구 강남대로114길 10,강남대로114길
음식점,김봉남 포장마차 가로수길 근처점,강남구,37.51951311,127.0248596,서울 강남구 도산대로17길 12,02-3217-9292,한식,테라스,"10:00 ~ 22:00, 연중무휴","목줄,안기",음식점한식강남구테라스목줄 안기도산대로17길도산대로17길,대한민국 서울특별시 강남구 도산대로17길 12,도산대로17길
음식점,바토스 이태원점,용산구,37.53461873,126.9901904,서울 용산구 이태원로15길 1,02-797-8226,퓨전,테라스,  일~목 11:30 ~ 23:00 마지막 주문 22:00  금/토 11:30 ~ 24:00 마지막 주문 23:00  연중무휴,목줄,음식점퓨전용산구테라스목줄이태원동이태원동,대한민국 서울특별시 용산구 이태원동 181-8,이태원동
음식점,코레아노스키친,용산구,37.5343987,126.988211,서울 용산구 녹사평대로40길 46,02-795-4427,퓨전,테라스,"12:00 ~ 23:00, 연중무휴",목줄,음식점퓨전용산구테라스목줄이태원1동이태원1동,대한민국 서울특별시 용산구 이태원1동 457-3 승진 빌딩 코레아 노스 2 층,이태원1동
음식점,윤세영 식당,용산구,37.54255575,127.0024763,서울 용산구 한남대로 164,0507-1431-3376,양식,테라스,"  11:30 ~ 21:30, 마지막 주문 20:30  브레이크 타임 15:00 ~ 17:00",목줄,음식점양식용산구테라스목줄한남대로한남대로,대한민국 서울특별시 용산구 한남대로 164,한남대로
음식점,봉쥬르스고이,용산구,37.53926224,126.9905153,서울 용산구 회나무로 26길,070-8868-1119,퓨전,실내,  평일 17:00 ~ 01:00  주말 13:00 ~ 01:00,목줄,음식점퓨전용산구실내목줄회나무로26길회나무로26길,대한민국 서울특별시 용산구 회나무로26길 26,회나무로26길
음식점,1989 비스트로,용산구,37.54104315,0,서울 용산구 회나무로 13가길,070-8778-0025,햄버거,실내,"  11:00 ~ 02:00, 마지막 주문 23:00  연중무휴",목줄,음식점햄버거용산구실내목줄dong이태원동,8F92G2R2+C2,이태원동
