type,name,gu,lat,lng,address,tel,typedetail,indoor,businesshours,conditions,cate_mix,dong,Adress
카페,이어커피로스터스,마포구,37.54596561,126.9452365,서울특별시 마포구 백범로24길 9,02-706-9313,카페,실내,월(8/15)   광복절11:00 - 19:00      화   08:30 - 21:00   20:30 라스트오더      수   08:30 - 21:00   20:30 라스트오더      목   08:30 - 21:00   20:30 라스트오더      금   08:30 - 21:00   20:30 라스트오더      토   11:00 - 19:00   18:30 라스트오더      일   11:00 - 19:00   18:30 라스트오더,목줄,카페카페마포구실내목줄염리동염리동,염리동,대한민국 서울특별시 마포구 염리동 157-18
카페,코스모스상점,성동구,37.54157394,127.0534386,서울특별시 성동구 성수이로7길 27,02-498-7878,카페,"실내,실외",월   11:00 - 20:00   19:30 라스트오더      화   11:00 - 20:00   19:30 라스트오더      수   11:00 - 22:00   21:30 라스트오더      목   11:00 - 22:00   21:30 라스트오더      금   11:00 - 22:00   21:30 라스트오더      토   11:00 - 22:00   21:30 라스트오더      일   11:00 - 20:00   19:30 라스트오더,"목줄,안기",카페카페성동구실내 실외목줄 안기성수동2가성수동2가,성수동2가,대한민국 서울특별시 성동구 성수동2가 333-140
카페,옐로우 라인,마포구,37.55918241,126.9170647,서울특별시 마포구 월드컵북로 57,010-6837-2626,카페,실내, ,"목줄,안기",카페카페마포구실내목줄 안기성산1동성산1동,성산1동,대한민국 서울특별시 마포구 성산1동 631-6
카페,88커피,금천구,37.46173792,126.9001911,서울특별시 금천구 시흥대로88가길 17,010-3263-1492,카페,실내,월   08:00 - 20:00   19:30 라스트오더      화   08:00 - 20:00   19:30 라스트오더      수   정기휴무 (매주 수요일)      목   08:00 - 20:00   19:30 라스트오더      금   08:00 - 20:00   19:30 라스트오더      토   09:00 - 19:00   18:30 라스트오더      일   09:00 - 19:00   18:30 라스트오더      - 매주 수요일 휴무,"목줄,안기",카페카페금천구실내목줄 안기독산동독산동,독산동,대한민국 서울특별시 금천구 독산동 1064-25
카페,스톤앤워터,송파구,37.5131209,127.1198219,서울특별시 송파구 가락로 283,02-6013-9593,카페,실내,월   10:00 - 21:00   20:30 라스트오더      화   10:00 - 21:00   20:30 라스트오더      수   10:00 - 21:00   20:30 라스트오더      목   10:00 - 21:00   20:30 라스트오더      금   10:00 - 21:00   20:30 라스트오더      토   10:00 - 21:00   20:30 라스트오더      일   10:00 - 21:00   20:30 라스트오더,목줄,카페카페송파구실내목줄방이2동방이2동,방이2동,대한민국 서울특별시 송파구 방이2동 168-5
카페,유니버스 스튜디오,성동구,37.5375126,127.0536208,서울특별시 성동구 성덕정길 92,070-7563-2071,카페,실내,매일 11:00 - 22:00    21:30 라스트오더    정기휴무 (매주 화요일),"목줄,매너벨트",카페카페성동구실내목줄 매너벨트성수동2가성수동2가,성수동2가,대한민국 서울특별시 성동구 성수동2가 532-38
카페,Cafe4gil25,강남구,37.52143853,127.0207982,서울특별시 강남구 압구정로4길 25,070-8888-4025,브런치,"실내,실외",매일 10:00 - 22:00    21:00 라스트오더,"목줄,매너벨트",카페브런치강남구실내 실외목줄 매너벨트압구정로4길압구정로4길,압구정로4길,대한민국 서울특별시 강남구 압구정로4길 25
카페,사이이커피,광진구,37.54007821,127.0635726,서울특별시 광진구 동일로18길 11,010-7643-4220,카페,"실내,실외",11:30 - 21:00    20:30 라스트오더    매주 월요일 휴무,"목줄,매너벨트",카페카페광진구실내 실외목줄 매너벨트자양4동자양4동,자양4동,대한민국 서울특별시 광진구 자양4동 24-5
카페,타우너스 에스프레소 바,강남구,37.49846487,127.0398413,서울특별시 강남구 테헤란로28길 41,02-2135-1467,카페,"실외,테라스",평일 08:00 - 22:00    21:30 라스트오더    토요일 09:00 - 22:00    21:30 라스트오더    일요일 09:00 - 20:00    19:30 라스트오더,"목줄,매너벨트",카페카페강남구실외 테라스목줄 매너벨트역삼동역삼동,역삼동,대한민국 서울특별시 강남구 역삼동 725-57
카페,러프러프,성동구,37.54169627,127.0582472,서울특별시 성동구 연무장길 81,010-4796-8203,카페,실내,Mon-Fri 11:00 - 22:00    21:30 라스트오더    Sat-Sun 12:00 - 23:00    21:30 라스트오더    매달 2번째 월요일 정기 휴무(추후 변동 가능),"목줄,캐리어",카페카페성동구실내목줄 캐리어성수동2가성수동2가,성수동2가,대한민국 서울특별시 성동구 성수동2가 271-24
카페,한옥카페 선운각,강북구,37.65551562,126.9987085,서울특별시 강북구 삼양로173길 223,010-3019-1105,카페,실외,매일 11:00 - 21:00    20:00 라스트오더,"목줄,캐리어",카페카페강북구실외목줄 캐리어우이동우이동,우이동,대한민국 서울특별시 강북구 우이동 260-9
카페,dooop,성동구,37.54705168,127.0401828,서울특별시 성동구 서울숲2길 16-8,02-465-1209,브런치,"실내,테라스",Brunch cafe : 12:00pm - 4:00pm    Break time : 4:00pm - 6:00pm    Natural wine bar : 6:00pm - 00:00am,캐리어,카페브런치성동구실내 테라스캐리어성수동1가성수동1가,성수동1가,대한민국 서울특별시 성동구 성수동1가 685-464
카페,33Acre,강동구,37.5631669,127.1498303,서울특별시 강동구 아리수로61길 33,02-3426-3754,카페,실외,* 월 : 휴무일    * 화 : 10:00am ~ 15:00pm    * 수 - 일 : 10:00am ~ 9:00pm    Break time    * 평일 / 15:00pm - 17:00pm    * 주말 / (브레이크타임 없습니다.),목줄,카페카페강동구실외목줄고덕1동고덕1동,고덕1동,대한민국 서울특별시 강동구 고덕1동 584-8
카페,카페별뜨락,종로구,37.59209694,126.9670686,서울특별시 종로구 창의문로 119,010-8446-9832,카페,"실외,테라스",매일 11:00~21:00,목줄,카페카페종로구실외 테라스목줄청운동청운동,청운동,대한민국 서울특별시 종로구 청운동 3-65
카페,메리푸리데이,은평구,37.62009569,126.9192558,서울특별시 은평구 연서로29길 20-25,02-352-1227,카페,"실내,테라스",화요일-일요일 10:00 - 22:00    21:30 라스트오더    월 정기휴무 (매주 월요일),"캐리어,안기",카페카페은평구실내 테라스캐리어 안기갈현동갈현동,갈현동,대한민국 서울특별시 은평구 갈현동 402-29
카페,클로드커피,마포구,37.54643698,126.9432463,서울특별시 마포구 백범로16안길 21,02-701-2608,카페,실외,월요일-토요일 12:00 - 20:00    정기휴무 매주 일요일 (대관X),목줄,카페카페마포구실외목줄대흥동대흥동,대흥동,대한민국 서울특별시 마포구 대흥동 244-2
카페,테이크어샤워,송파구,37.50749097,127.1043493,서울특별시 송파구 송파대로47길 1,070-4307-0910,카페,"실내,실외",매일 12:00 - 22:00,안기,카페카페송파구실내 실외안기석촌동석촌동,석촌동,대한민국 서울특별시 송파구 석촌동 181-1
카페,코너드커피,강남구,37.51688383,127.0238726,서울특별시 강남구 도산대로12길 14,070-4184-1186,카페,실내, ,"목줄,매너벨트",카페카페강남구실내목줄 매너벨트논현동논현동,논현동,대한민국 서울특별시 강남구 논현동 12-15
카페,찰스앤다이애나,동대문구,37.5641643,127.0698351,서울특별시 동대문구 천호대로91길 57,010-5857-1223,카페,실내,매일 11:00 - 새벽 01:00    14:00 - 17:00 브레이크타임    새벽 00:30 라스트오더    정기휴무 (매주 화요일),매너벨트,카페카페동대문구실내매너벨트장안동장안동,장안동,대한민국 서울특별시 동대문구 장안동 444-2
카페,더숲,강서구,37.55898099,126.8290341,서울특별시 강서구 공항대로 194,02-6309-9200,브런치,실내,월~금 10:00 - 20:00    토요일 11:00 - 16:00    공식 빨간날 휴무,캐리어,카페브런치강서구실내캐리어내발산동내발산동,내발산동,대한민국 서울특별시 강서구 내발산동 327-3
카페,위드멍,송파구,37.50084376,127.1070174,서울특별시 송파구 가락로 98,010-4299-0514,애견카페,"실내,루프탑",매일 11:00 - 22:00   21:00 라스트오더,없음,카페애견카페송파구실내 루프탑없음가락로가락로,가락로,대한민국 서울특별시 송파구 가락로 98 1층
카페,개판카페,관악구,37.47692805,126.9520627,서울특별시 관악구 관악로 133,02-877-3573,애견카페,실내,매일 10:00 - 21:00,없음,카페애견카페관악구실내없음봉천동봉천동,봉천동,대한민국 서울특별시 관악구 봉천동 1701
카페,마리앤독,중랑구,37.60420344,127.0774844,서울특별시 중랑구 중랑역로 122,02-487-3424,애견카페,실내,월 : 10:00 - 21:00   화 : 10:00 - 21:00   수 : 10:00 - 21:00   목 : 10:00 - 21:00   금 : 10:00 - 21:00   토 : (12/25)10:00 - 18:00   일 : 11:00 - 20:00,없음,카페애견카페중랑구실내없음중화동중화동,중화동,대한민국 서울특별시 중랑구 중화동 307-63
카페,어야가자애견카페,강남구,37.50661323,127.0397744,서울특별시 강남구 테헤란로39길 66,070-8830-0808,애견카페,실내,매일 10:00 - 21:30,없음,카페애견카페강남구실내없음역삼1동역삼1동,역삼1동,대한민국 서울특별시 강남구 역삼1동 662-1
카페,런닝독,은평구,37.59145765,126.9151541,서울특별시 은평구 가좌로 251,010-6871-7770,애견카페,실내,월 : 13:00 - 22:00   화 : 13:00 - 22:00   수 : 정기휴무 (매주 수요일)   목 : 13:00 - 22:00   금 : 13:00 - 22:00   토 : 13:00 - 22:00   일 : 13:00 - 22:00,없음,카페애견카페은평구실내없음응암동응암동,응암동,대한민국 서울특별시 은평구 응암동 585-10
카페,도그인시티,관악구,37.48010256,126.9309352,서울특별시 관악구 신림로 286,02-6408-0995,애견카페,실내,월 : 13:00 - 21:00   화 : 13:00 - 21:00   수 : 13:00 - 21:00   목 : 13:00 - 21:00   금 : 13:00 - 21:00   토 : (12/25)(성탄절)13:00 - 19:00   일 : 13:00 - 21:00,없음,카페애견카페관악구실내없음신림로신림로,신림로,대한민국 서울특별시 관악구 신림로 286 2층
카페,오늘도댕댕,강서구,37.56584614,126.812091,서울특별시 강서구 방화동로 59,02-6080-1389,애견카페,"실내,루프탑",매일 00:00 - 24:00 카페는 주말 13:00 - 21:00까지 운영합니다:),없음,카페애견카페강서구실내 루프탑없음방화2동방화2동,방화2동,대한민국 서울특별시 강서구 방화2동 606-112
카페,동건s애견카페,서초구,37.49314709,126.9861724,서울특별시 서초구 방배중앙로 157,02-533-8146,애견카페,실내,수 : 14:00 - 22:00   목 : 14:00 - 22:00   금 : 14:00 - 22:00   토 : 14:00 - 22:00   일 : 14:00 - 22:00   월 : 정기휴무 (매주 월요일)   화 : 14:00 - 22:00,없음,카페애견카페서초구실내없음방배동방배동,방배동,대한민국 서울특별시 서초구 방배동 778-20
카페,맘마,송파구,37.50803505,127.1335516,서울특별시 송파구 중대로 312,070-7792-7770,카페,"실내,실외",매일 10:00 - 22:00,매너벨트,카페카페송파구실내 실외매너벨트중대로중대로,중대로,대한민국 서울특별시 송파구 중대로 312
카페,두젠틀장승배기역점,동작구,37.50543138,126.9428728,서울특별시 동작구 상도로 217-4,02-6014-2120,애견카페,실내,매일 11:00 - 22:00,없음,카페애견카페동작구실내없음상도2동상도2동,상도2동,대한민국 서울특별시 동작구 상도2동 26-27
카페,카페곳,서대문구,37.58484503,126.936418,서울특별시 서대문구 홍제내2나길 2,070-4406-9090,애견카페,실내,"평일 12:00 - 22:00 시간외 애견호텔,유치원 문의   토요일 12:00 - 21:00   일요일 휴무",없음,카페애견카페서대문구실내없음홍제1동홍제1동,홍제1동,대한민국 서울특별시 서대문구 홍제1동 361-5
카페,디어도그 본점,은평구,37.5868254,126.9199703,서울특별시 은평구 응암로12길 32-1,010-4258-9699,애견카페,실내,"매일 09:00 - 20:00 데이케어,유치원,호텔   토요일 13:00 - 20:00 카페   일요일 13:00 - 19:00 카페",없음,카페애견카페은평구실내없음응암3동응암3동,응암3동,대한민국 서울특별시 은평구 응암3동 752-5
카페,김바니네,동대문구,37.5680105,127.0574061,서울특별시 동대문구 전농로 36,010-7550-9873,애견카페,실내,매일 11:00 - 21:00 [매주 금요일 휴무],없음,카페애견카페동대문구실내없음답십리동답십리동,답십리동,대한민국 서울특별시 동대문구 답십리동 전농로 36
카페,펫티 애견카페,강서구,37.55866871,126.8321734,서울특별시 강서구 공항대로 222,02-2064-0043,애견카페,"실내,실외",매일 10:30 - 21:30,없음,카페애견카페강서구실내 실외없음공항대로공항대로,공항대로,대한민국 서울특별시 강서구 공항대로 194
카페,두젠틀,강남구,37.50411917,127.0358075,서울특별시 강남구 논현로 534,02-6259-1436,애견카페,실내,매일 10:00 - 21:00 위탁   매일 12:00 - 21:00 카페,없음,카페애견카페강남구실내없음논현로논현로,논현로,대한민국 서울특별시 강남구 논현로 534
카페,킨더독,송파구,37.50389477,127.0872663,서울특별시 송파구 삼전로 53,02-6959-5979,애견카페,실내,매일 09:00 - 21:00 유치원 9:00-21:00   매일 12:00 - 21:00 카페 10:00-21:00,없음,카페애견카페송파구실내없음잠실동잠실동,잠실동,대한민국 서울특별시 송파구 잠실동 336-8
카페,루프독,노원구,37.6218244,127.0738814,서울특별시 노원구 동일로 1027,010-3764-1024,애견카페,실내,매일 09:00 - 21:00 유치원 호텔 위탁 가능시간   매일 11:00 - 21:00 카페 오픈 시간,없음,카페애견카페노원구실내없음공릉동공릉동,공릉동,대한민국 서울특별시 노원구 공릉동 576-24
카페,구름뜬하늘,마포구,37.55414552,126.9271001,서울특별시 마포구 와우산로27길 21,02-3144-4978,애견카페,실내,월 : 11:00 - 22:00   화 : 정기휴무 (매주 화요일)   수 : 11:00 - 22:00   목 : 11:00 - 22:00   금 : 11:00 - 22:00   토 : (12/25) (성탄절)11:00 - 22:00,없음,카페애견카페마포구실내없음서울특별시서울특별시,서울특별시,대한민국 서울특별시 대한민국 서울특별시 마포구 서교동 339-5
카페,퍼피앤커피,관악구,37.48151935,126.9294695,서울특별시 관악구 신원로 40-16,02-883-1143,애견카페,실내,매일 12:00 - 21:00 매주 수요일 휴일,없음,카페애견카페관악구실내없음서원동서원동,서원동,대한민국 서울특별시 관악구 서원동 1637-18 퍼피앤커피
카페,독특하개,관악구,37.48689166,126.9261601,서울특별시 관악구 신림동길 23-1,070-7655-4550,애견카페,실내,월14:00 - 새벽 00:00   화14:00 - 새벽 00:00   수14:00 - 새벽 00:00   목14:00 - 새벽 00:00   금14:00 - 새벽 00:00   토14:00 - 새벽 00:00,없음,카페애견카페관악구실내없음신림동신림동,신림동,대한민국 서울특별시 관악구 신림동 1438-13
카페,개상전 애견카페,은평구,37.61021895,126.9292017,서울특별시 은평구 통일로 727-5,070-4404-1212,애견카페,실내,월11:00 - 22:00   화11:00 - 22:00   수11:00 - 22:00   목11:00 - 22:00   금11:00 - 22:00   토12:00 - 22:00   일12:00 - 22:00,없음,카페애견카페은평구실내없음대조동대조동,대조동,대한민국 서울특별시 은평구 대조동 14-26
카페,커멍커멍,강서구,37.56009264,126.8383041,서울특별시 강서구 강서로 385,02-6013-5949,애견카페,실내,평일 07:30 - 21:00 카페 마감 20:30 / 유치원 마감 21:00   주말 10:00 - 21:00 카페 마감 20:30 / 유치원 마감 21:00   공휴일 10:00 - 21:00 카페 마감 20:30 / 유치원 마감 21:00,없음,카페애견카페강서구실내없음가양동가양동,가양동,대한민국 서울특별시 강서구 가양동 1131
카페,카페 루,송파구,37.50580225,127.1385826,서울특별시 송파구 동남로29길 8-10,02-443-5559,애견카페,"실내,루프탑",매일 11:00 - 21:00,없음,카페애견카페송파구실내 루프탑없음오금동오금동,오금동,대한민국 서울특별시 송파구 오금동 99-13
카페,전설의강아지,강남구,37.51201752,127.0411656,서울특별시 강남구 선릉로115길 22,010-5773-0515,애견카페,"실내,실외",매일 08:30 - 21:30,없음,카페애견카페강남구실내 실외없음논현동논현동,논현동,대한민국 서울특별시 강남구 논현동 265-23
카페,반려문화,강남구,37.51596415,127.0332896,서울특별시 강남구 언주로133길 23,02-2088-3375,애견카페,"실내,실외",매일 10:00 - 21:30   오후 10시 이후 방문 하시는 분은 매장으로 연락 부탁드립니다.,없음,카페애견카페강남구실내 실외없음논현2동논현2동,논현2동,대한민국 서울특별시 강남구 논현2동 85-13
카페,리리앤펫,강북구,37.63792536,127.0268907,서울특별시 강북구 한천로131길 33,02-6368-4473,애견카페,실내,매일 09:00 - 22:00 놀이방&호텔 OPEN   매일 12:00 - 22:00 카페OPEN   수요일 휴무 빨간날은 정상영업 합니다:),없음,카페애견카페강북구실내없음한천로131길한천로131길,한천로131길,대한민국 서울특별시 강북구 한천로131길 33
카페,애니멀고파크,강남구,37.51810688,127.0538886,서울특별시 강남구 삼성로120길 36,02-6204-5960,애견카페,"실내,실외",매일 10:00 - 23:00, ,카페애견카페강남구실내 실외 삼성로120길삼성로120길,삼성로120길,대한민국 서울특별시 강남구 삼성로120길 36
카페,포포앤미루,강동구,37.52526883,127.1342446,서울특별시 강동구 양재대로89가길 30,02-471-8825,애견카페,실내,화 : 정기휴무 (매주 화요일)   수 : 13:00 - 21:00   목 : 13:00 - 21:00   금 : 13:00 - 21:00   토 : 12:00 - 21:00   일 : 12:00 - 21:00   월 : 13:00 - 21:00,없음,카페애견카페강동구실내없음성내동성내동,성내동,대한민국 서울특별시 강동구 성내동 439-10
카페,강아지대학로,종로구,37.58009773,127.0036835,서울특별시 종로구 대학로12길 92,010-6899-2004,애견카페,실내,매일 13:00 - 20:30,없음,카페애견카페종로구실내없음동숭동동숭동,동숭동,대한민국 서울특별시 종로구 동숭동 1-139
카페,카페멍 목동점,양천구,37.52521098,126.8753673,서울특별시 양천구 오목로 337-10,02-2644-1351,애견카페,실내,매일 12:00 ~ 22:00,없음,카페애견카페양천구실내없음목동목동,목동,대한민국 서울특별시 양천구 목동 406-271
카페,강아지카페카페개네,성북구,37.5911725,127.0197083,서울특별시 성북구 보문로34길 80,02-926-3004,애견카페,실내,매일 12:00 - 21:00,없음,카페애견카페성북구실내없음동선동2가동선동2가,동선동2가,대한민국 서울특별시 성북구 동선동2가 135-1
카페,뭉스벨리,강동구,37.53747971,127.1284338,서울특별시 강동구 천호대로 1045,010-2900-8412,애견카페,"실내,실외",화 : 12:00 - 22:00   수 : 12:00 - 22:00   목 : 12:00 - 22:00   금 : 12:00 - 22:00   토 : 11:00 - 22:00   일 : 11:00 - 22:00   월 : 정기휴무 (매주 월요일),없음,카페애견카페강동구실내 실외없음천호동천호동,천호동,대한민국 서울특별시 강동구 천호동 452
카페,애견카페히릿 건대점,광진구,37.5469693,127.0744061,서울특별시 광진구 광나루로 404,070-8870-4442,애견카페,실내,매일 12:00 - 22:00,매너벨트,카페애견카페광진구실내매너벨트화양동화양동,화양동,대한민국 서울특별시 광진구 화양동 111-72
카페,써니네애견카페,마포구,37.55672181,126.9254795,서울특별시 마포구 양화로18안길 16,02-334-3712,애견카페,실내,"매일 11:00 - 22:00 유치원, 호텔   매일 13:00 - 22:00 카페   목요일 13:00 - 19:00 미용",없음,카페애견카페마포구실내없음양화로18안길양화로18안길,양화로18안길,대한민국 서울특별시 마포구 양화로18안길 16
카페,도그존,송파구,37.50910777,127.0831908,서울특별시 송파구 올림픽로12길 28,070-7720-0427,애견카페,실내,월 : 12:00 - 21:00   화 : 정기휴무 (매주 화요일)   수 : 12:00 - 21:00   목 : 12:00 - 21:00   금 : 12:00 - 21:00   토 : 12:00 - 21:00   일 : 12:00 - 21:00,없음,카페애견카페송파구실내없음잠실동잠실동,잠실동,대한민국 서울특별시 송파구 잠실동 204-8
카페,혼자두면장판뜯어서차린개카페,관악구,37.48512152,126.9356761,서울특별시 관악구 남부순환로 1665,010-2400-9999,애견카페,"실내,실외","매일 11:00 - 22:00 카페 연중무휴   매일 08:30 - 22:00 운동장.호텔,유치원,수영장,애견미용,훈련",없음,카페애견카페관악구실내 실외없음봉천동봉천동,봉천동,대한민국 서울특별시 관악구 봉천동 959-2
카페,다시사랑받개,중랑구,37.61897034,127.1036036,서울특별시 중랑구 용마산로139나길 83,02-6958-6225,애견카페,실내,월 : 13:00 - 20:00   화 : 13:00 - 20:00   수 : 정기휴무 (매주 수요일)   목 : 13:00 - 20:00   금 : 13:00 - 20:00   토 : 13:00 - 20:00   일 : 13:00 - 20:00,없음,카페애견카페중랑구실내없음용마산로139나길용마산로139나길,용마산로139나길,대한민국 서울특별시 중랑구 용마산로139나길 83
카페,똥강아지카페,중랑구,37.57520556,127.0884853,서울특별시 중랑구 용마산로 248,02-435-0722,애견카페,실내,월 : 정기휴무 (매주 월요일)   화 : 12:00 - 20:00   수 : 12:00 - 20:00   목 : 12:00 - 20:00   금 : 12:00 - 20:00   토 : 11:00 - 20:00   일 : 11:00 - 20:00,매너벨트,카페애견카페중랑구실내매너벨트면목동면목동,면목동,대한민국 서울특별시 중랑구 면목동 1502-2
카페,테디랩,양천구,37.52071163,126.8585579,서울특별시 양천구 신월로36길 11,070-8722-4441,브런치,"실외,테라스",매일 11:00 - 21:59 설/추석 이틀 휴무외 연중무휴    매일 11:00 - 21:00 식사가능한시간/식사마감시간,캐리어,카페브런치양천구실외 테라스캐리어신정동신정동,신정동,대한민국 서울특별시 양천구 신정동 1024-1
카페,코코샌드,마포구,37.55967262,126.9252524,서울특별시 마포구 양화로23길 22-7,02-3144-1112,카페,"실내,루프탑",매일 12:00 - 22:00,"목줄,매너벨트",카페카페마포구실내 루프탑목줄 매너벨트동교동동교동,동교동,대한민국 서울특별시 마포구 동교동 148-7
카페,데이즈커피,영등포구,37.51942067,126.9386104,서울특별시 영등포구 63로 36,02-782-5979,카페,실내,"평일 10:30 - 17:30    주말, 공휴일휴무","캐리어,안기",카페카페영등포구실내캐리어 안기63로63로,63로,대한민국 서울특별시 영등포구 63로 36
카페,카페 아리네,양천구,37.52537042,126.8727156,서울특별시 양천구 목동동로 222-11,02-2648-5735,카페,"실내,테라스",주말 12:00 - 23:00    평일 11:00 - 23:00,"목줄,매너벨트",카페카페양천구실내 테라스목줄 매너벨트목동목동,목동,대한민국 서울특별시 양천구 목동 406-101
카페,디저트라인업,성북구,37.60691106,127.0286769,서울특별시 성북구 동소문로 304,070-7704-9997,카페,"실내,실외",평일 09:00 - 21:00    주말 11:00 - 21:00,목줄,카페카페성북구실내 실외목줄월곡1동월곡1동,월곡1동,대한민국 서울특별시 성북구 월곡1동 88-429
카페,테라스461,종로구,37.60015066,126.956821,서울특별시 종로구 홍지문길 7,070-8650-0328,카페,"실내,테라스","평일 09:00 - 20:00    주말 09:00 - 17:00    공휴일 09:00 - 17:00, 1월1일/설날/추석 당일휴무","목줄,캐리어",카페카페종로구실내 테라스목줄 캐리어홍지동홍지동,홍지동,대한민국 서울특별시 종로구 홍지동 46-1
카페,멍멍벅스,마포구,37.55205953,126.9206602,서울특별시 마포구 잔다리로6길 28-1,070-4512-3435,애견카페,"실내,실외",매일 10:30 - 21:00 오후 8시 주문 마감    연중무휴,매너벨트,카페애견카페마포구실내 실외매너벨트서교동서교동,서교동,대한민국 서울특별시 마포구 서교동 366-29
카페,슬라이스룸,마포구,37.54613892,126.9220638,서울특별시 마포구 와우산로3길 16,070-7630-0603,카페,"실내,테라스",매일 11:30 - 23:00    월요일 휴무,"목줄,매너벨트",카페카페마포구실내 테라스목줄 매너벨트서강동서강동,서강동,대한민국 서울특별시 마포구 서강동 와우산로3길
카페,그랜마,마포구,37.55845905,126.9036051,서울특별시 마포구 포은로 131,02-9192-0096,카페,실내,"매일12:30-22:00 , 매주 월요일 휴무(유동적 휴무 인스타공지)","목줄,매너벨트",카페카페마포구실내목줄 매너벨트망원2동망원2동,망원2동,대한민국 서울특별시 마포구 망원2동 426-13
카페,커피빈 위례2차아이파크점,송파구,37.47861711,127.1437588,서울특별시 송파구 위례광장로 230,02-449-9703,카페,"실내,실외",평일 08:30 - 21:00    주말 09:00 - 21:00    공휴일 09:00 - 21:00,"목줄,캐리어,매너벨트",카페카페송파구실내 실외목줄 캐리어 매너벨트dong장지동,장지동,대한민국 서울특별시 서울위례별초교
카페,피알앤티,종로구,37.57513242,127.0215822,서울특별시 종로구 종로 399,010-8960-3826,카페,실내, ,목줄,카페카페종로구실내목줄숭인동숭인동,숭인동,대한민국 서울특별시 종로구 숭인동 1051
카페,시월생,종로구,37.57958127,127.017724,서울특별시 종로구 동망산1길 2,010-8780-3516,카페,실내, ,"목줄,안기",카페카페종로구실내목줄 안기숭인1동숭인1동,숭인1동,대한민국 서울특별시 종로구 숭인1동 31-1
카페,바람이 살랑,종로구,37.5841279,126.9972426,서울특별시 종로구 창경궁로29길 35,02-766-1013,카페,실외, ,목줄,카페카페종로구실외목줄명륜3가명륜3가,명륜3가,대한민국 서울특별시 종로구 명륜3가 216-3
카페,비스까미노,종로구,37.58184047,126.997781,서울특별시 종로구 창경궁로26길 4,010-5028-9272,카페,실외, ,목줄,카페카페종로구실외목줄명륜4가명륜4가,명륜4가,대한민국 서울특별시 종로구 명륜4가 206-54
카페,어웨이크커피바,종로구,37.58453137,127.0026976,서울특별시 종로구 대학로14길 26-1,010-2746-0232,카페,실내, ,목줄,카페카페종로구실내목줄혜화동혜화동,혜화동,대한민국 서울특별시 종로구 혜화동 163-43
카페,오후홍콩 대학로점,종로구,37.58172859,127.0001743,서울특별시 종로구 대학로9길 31-3,02-741-2028,카페,실내, ,목줄,카페카페종로구실내목줄대학로9길대학로9길,대학로9길,대한민국 서울특별시 종로구 대학로9길 33
카페,별달밤,종로구,37.5860307,126.996887,서울특별시 종로구 성균관로 38,010-5094-2700,카페,실내, ,목줄,카페카페종로구실내목줄명륜1가명륜1가,명륜1가,대한민국 서울특별시 종로구 명륜1가 98-1
카페,보통의,종로구,37.58055641,127.0041907,서울특별시 종로구 동숭길 51,010-6410-2506,카페,실내, ,목줄,카페카페종로구실내목줄동숭동동숭동,동숭동,대한민국 서울특별시 종로구 동숭동 1-147
카페,카인드플레이트,종로구,37.57572021,126.9990064,서울특별시 종로구 율곡로 182,070-8887-1700,카페,실내, ,목줄,카페카페종로구실내목줄종로1.2.3.4가동종로1.2.3.4가동,종로1.2.3.4가동,대한민국 서울특별시 종로구 종로1.2.3.4가동 49-5
카페,순라길 예카페 비비,종로구,37.57296477,126.9930084,서울특별시 종로구 서순라길 55,02-3672-1599,카페,실외, ,목줄,카페카페종로구실외목줄봉익동봉익동,봉익동,대한민국 서울특별시 종로구 봉익동 12-4
카페,무위낙원,종로구,37.57344951,126.9894593,서울특별시 종로구 수표로28길 17-25,02-766-3982,카페,실내,월   Kitchen 11:30 - 22:00   21:00 라스트오더   Cafe 11:00 - 18:00      화   Kitchen 11:30 - 22:00   21:00 라스트오더   Cafe 11:00 - 18:00      수   Kitchen 11:30 - 22:00   21:00 라스트오더   Cafe 11:00 - 18:00      목   Kitchen 11:30 - 22:00   21:00 라스트오더   Cafe 11:00 - 18:00      금   Kitchen 11:30 - 22:00   21:00 라스트오더   Cafe 11:00 - 18:00      토   Kitchen 11:30 - 22:00   21:00 라스트오더   Cafe 11:00 - 18:00      일   Kitchen 정기휴무 (매주 일요일)   Cafe 정기휴무 (매주 일요일)      Kitchen - 휴무일이 일요일로 변경되었습니다.   Cafe - 휴무일이 일요일로 변경되었습니다.,목줄,카페카페종로구실내목줄익선동익선동,익선동,대한민국 서울특별시 종로구 익선동 166-86
카페,스테이지28 웁시데이지,강동구,37.56582639,127.1469487,서울특별시 강동구 아리수로61길 105,02-3426-1928,카페,"실내,실외",월 정기휴무 (매주 월요일)   화 11:00 - 19:00   수 11:00 - 19:00   목 11:00 - 19:00   금 11:00 - 19:00   토 11:00 - 20:00   일 11:00 - 20:00      7월 28일 ~ 7월 31일 행사 진행으로 인한 휴관,"목줄,매너벨트",카페카페강동구실내 실외목줄 매너벨트아리수로61길아리수로61길,아리수로61길,대한민국 서울특별시 강동구 아리수로61길 105
카페,제이스킹커피 창덕궁점,종로구,37.57678931,126.9894068,서울특별시 종로구 율곡로6길 11,02-6013-0254,카페,실내, ,목줄,카페카페종로구실내목줄종로1.2.3.4가동종로1.2.3.4가동,종로1.2.3.4가동,대한민국 서울특별시 종로구 종로1.2.3.4가동 14
카페,커피살롱,종로구,37.57183803,126.9822341,서울특별시 종로구 삼봉로 94,010-2796-5985,카페,실외, ,목줄,카페카페종로구실외목줄공평동공평동,공평동,대한민국 서울특별시 종로구 공평동 삼봉로 94 1층 105호
카페,카페퀸,종로구,37.57543874,126.9788262,서울특별시 종로구 종로1길 55-1,02-733-0729,카페,실내, ,목줄,카페카페종로구실내목줄중학동중학동,중학동,대한민국 서울특별시 종로구 중학동 110-7
카페,에레스뚜,종로구,37.56933925,126.9813777,서울특별시 종로구 청계천로 35,010-2371-8707,카페,테라스, ,목줄,카페카페종로구테라스목줄청계천로청계천로,청계천로,대한민국 서울특별시 종로구 청계천로 35
카페,카페더한옥,종로구,37.58066043,126.9866955,서울특별시 종로구 계동길 75,02-743-7470,카페,실내, ,목줄,카페카페종로구실내목줄계동계동,계동,대한민국 서울특별시 종로구 계동 76-2
카페,실리그린,종로구,37.57992494,126.9866114,서울특별시 종로구 계동길 59,02-6397-6144,카페,실내, ,목줄,카페카페종로구실내목줄계동계동,계동,대한민국 서울특별시 종로구 계동 100-3
카페,오니로,종로구,37.5708611,126.9623523,서울특별시 종로구 송월길 99,010-9907-2629,카페,실내, ,목줄,카페카페종로구실내목줄교북동교북동,교북동,대한민국 서울특별시 종로구 교북동 50-4
카페,다다 갤러리 카페,종로구,37.61115839,126.9747382,서울특별시 종로구 평창30길 15,02-379-0297,카페,실내, ,"목줄,안기",카페카페종로구실내목줄 안기평창동평창동,평창동,"2F, 15 평창30길 평창동 종로구 서울특별시 대한민국"
카페,카페디,종로구,37.6123632,126.9748046,서울특별시 종로구 평창30길 27,02-395-0522,카페,실내, ,목줄,카페카페종로구실내목줄평창동평창동,평창동,대한민국 서울특별시 종로구 평창동 97
카페,순카페,종로구,37.59420085,126.9683883,서울특별시 종로구 백석동1길 2,02-397-6399,카페,테라스, ,목줄,카페카페종로구테라스목줄부암동부암동,부암동,대한민국 서울특별시 종로구 부암동 46-1
카페,에이커피 서울,종로구,37.59408987,126.9671574,서울특별시 종로구 백석동1가길 19,070-7757-0163,카페,실내, ,목줄,카페카페종로구실내목줄부암동부암동,부암동,대한민국 서울특별시 종로구 부암동 44-5
카페,서궁 갤러리&카페,종로구,37.5687341,126.9691496,서울특별시 종로구 새문안로 35-20,0507-1336-9601,카페,실내, ,목줄,카페카페종로구실내목줄새문안로새문안로,새문안로,대한민국 서울특별시 종로구 새문안로 35-20
카페,심플리커피,종로구,37.57222662,126.9694561,서울특별시 종로구 경희궁1길 27,02-733-5123,카페,테라스, ,목줄,카페카페종로구테라스목줄신문로2가신문로2가,신문로2가,대한민국 서울특별시 종로구 신문로2가 1-196
카페,종로살롱,종로구,37.5763581,126.9738037,서울특별시 종로구 자하문로2길 20,010-3060-9964,카페,실내, ,목줄,카페카페종로구실내목줄적선동적선동,적선동,대한민국 서울특별시 종로구 적선동 19
카페,Say Something,종로구,37.57924853,126.9720278,서울특별시 종로구 자하문로10길 10-12,02-725-2271,카페,실내, ,목줄,카페카페종로구실내목줄통의동통의동,통의동,대한민국 서울특별시 종로구 통의동 91-44
카페,오늘도다온치즈,종로구,37.57776533,126.9685209,서울특별시 종로구 필운대로1길 16-1,070-7720-7942,카페,실내, ,목줄,카페카페종로구실내목줄필운대로1길필운대로1길,필운대로1길,대한민국 서울특별시 종로구 필운대로1길 16-1
카페,서촌다방,종로구,37.57668522,126.9728819,서울특별시 종로구 자하문로2길 3,02-733-6245,카페,실내, ,안기,카페카페종로구실내안기자하문로2길자하문로2길,자하문로2길,대한민국 서울특별시 종로구 자하문로2길 3
카페,와이엔,종로구,37.57918183,126.9832934,서울특별시 종로구 윤보선길 71,02-735-6701,카페,실내, ,목줄,카페카페종로구실내목줄윤보선길윤보선길,윤보선길,대한민국 서울특별시 종로구 윤보선길 73
카페,가배도 삼청,종로구,37.57989498,126.98218,서울특별시 종로구 북촌로5길 56-8,02-732-4542,카페,실내, ,목줄,카페카페종로구실내목줄소격동소격동,소격동,대한민국 서울특별시 종로구 소격동 142-2
카페,덴고의 커피,종로구,37.58537668,126.9703564,서울특별시 종로구 자하문로 106,02-720-7279,카페,실내, ,목줄,카페카페종로구실내목줄청운효자동청운효자동,청운효자동,대한민국 서울특별시 종로구 청운효자동 자하문로 106
카페,스탠딩커피 궁정동점,종로구,37.58363223,126.9712852,서울특별시 종로구 효자로 107,02-720-0427,카페,실외, ,목줄,카페카페종로구실외목줄효자동효자동,효자동,대한민국 서울특별시 종로구 효자동 29-2
카페,황학동에서,중구,37.5701852,127.0196969,서울특별시 중구 마장로9길 40,070-8865-8297,카페,실내, ,목줄,카페카페중구실내목줄황학동황학동,황학동,대한민국 서울특별시 중구 황학동 1783
카페,카페 의외의조합,중구,37.55380141,127.004624,서울특별시 중구 동호로17길 121,02-2235-3560,카페,실내, ,목줄,카페카페중구실내목줄장충동2가장충동2가,장충동2가,대한민국 서울특별시 중구 장충동2가 432-1866
카페,스윙,중구,37.54716677,127.0056772,서울특별시 중구 다산로 32,010-2818-3980,카페,실내, ,목줄,카페카페중구실내목줄신당3동신당3동,신당3동,대한민국 서울특별시 중구 신당3동 432-2111
카페,소담소담,중구,37.56276411,127.0157933,서울특별시 중구 다산로36길 8,010-8685-8216,카페,실내, ,목줄,카페카페중구실내목줄다산로36길다산로36길,다산로36길,대한민국 서울특별시 중구 다산로36길 8
카페,이유유 커피,중구,37.56342015,127.0203374,서울특별시 중구 퇴계로88길 47,070-7543-0598,카페,실내, ,목줄,카페카페중구실내목줄신당동신당동,신당동,대한민국 서울특별시 중구 신당동 67-44 101호
카페,호야 동대문점,중구,37.55792704,127.0134332,서울특별시 중구 다산로24길 15,02-2234-1811,카페,실내, ,목줄,카페카페중구실내목줄다산로24길다산로24길,다산로24길,대한민국 서울특별시 중구 다산로24길 15
카페,mwm,중구,37.56442914,126.989897,서울특별시 중구 수표로 35-1,070-7913-7407,카페,실내, ,목줄,카페카페중구실내목줄저동2가저동2가,저동2가,대한민국 서울특별시 중구 저동2가 69-1
카페,카페157,중구,37.5671459,126.9954512,서울특별시 중구 을지로 157,02-766-4237,카페,실내, ,목줄,카페카페중구실내목줄산림동산림동,산림동,대한민국 서울특별시 중구 산림동 207-2
카페,add coffee,중구,37.56810716,126.9990018,서울특별시 중구 을지로27길 29,070-4209-7272,카페,"실내,루프탑", ,목줄,카페카페중구실내 루프탑목줄주교동주교동,주교동,대한민국 서울특별시 중구 주교동 111
카페,을지빈,중구,37.56526139,126.9922159,서울특별시 중구 을지로14길 21,02-2278-8818,카페,실내, ,목줄,카페카페중구실내목줄을지로동을지로동,을지로동,대한민국 서울특별시 중구 을지로동 296-7
카페,베로나,중구,37.56547478,126.9914835,서울특별시 중구 충무로5길 24,02-2272-0228,카페,실내, ,캐리어,카페카페중구실내캐리어을지로3가을지로3가,을지로3가,대한민국 서울특별시 중구 을지로3가 320-24
카페,호텔수선화,중구,37.56569833,126.991666,서울특별시 중구 충무로7길 17,070-8950-2649,카페,실내, ,목줄,카페카페중구실내목줄을지로3가을지로3가,을지로3가,대한민국 서울특별시 중구 을지로3가 충무로7길 17
카페,하이데어,중구,37.56597174,126.9899265,서울특별시 중구 수표로 54-1,010-8643-2648,카페,실외, ,목줄,카페카페중구실외목줄을지로을지로,을지로,대한민국 서울특별시 중구 을지로 108
카페,설빙 동대문점,중구,37.56599299,127.0062974,서울특별시 중구 을지로 254,02-2276-0992,카페,테라스, ,목줄,카페카페중구테라스목줄광희동광희동,광희동,대한민국 서울특별시 중구 광희동 23-24
카페,티프,중구,37.56425101,127.0043304,서울특별시 중구 퇴계로53길 6-17,02-2273-8922,카페,실내, ,목줄,카페카페중구실내목줄쌍림동쌍림동,쌍림동,대한민국 서울특별시 중구 쌍림동 22-23
카페,말베르크,중구,37.5593257,127.0045262,서울특별시 중구 동호로 264,02-2273-1999,카페,테라스, ,목줄,카페카페중구테라스목줄장충동2가장충동2가,장충동2가,대한민국 서울특별시 중구 장충동2가 189-2
카페,불독커피 충무로점,중구,37.56303695,126.9914355,서울특별시 중구 마른내로2길 35,010-5220-3201,카페,실내, ,목줄,카페카페중구실내목줄필동필동,필동,대한민국 서울특별시 중구 필동 25-5 3 층
카페,분카샤충무로,중구,37.56189284,126.9924056,서울특별시 중구 퇴계로31길 16,070-8844-6947,카페,실내, ,안기,카페카페중구실내안기충무로3가충무로3가,충무로3가,대한민국 서울특별시 중구 충무로3가 51-6
카페,MAKING UNION,중구,37.55640935,126.9953147,서울특별시 중구 퇴계로36가길 89,010-7419-7799,카페,실내, ,"목줄,매너벨트",카페카페중구실내목줄 매너벨트필동필동,필동,대한민국 서울특별시 중구 필동 122-1
카페,빠우,중구,37.5671459,126.9954512,서울특별시 중구 을지로 157,02-2268-9285,베이커리,실외, ,목줄,카페베이커리중구실외목줄산림동산림동,산림동,대한민국 서울특별시 중구 산림동 207-2
카페,카페 구할구,중구,37.55820982,126.9870087,서울특별시 중구 퇴계로20길 73,02-3789-5953,카페,"실내,루프탑", ,목줄,카페카페중구실내 루프탑목줄소파로소파로,소파로,대한민국 서울특별시 중구 소파로 121
카페,가배도 명동,중구,37.56042135,126.9850297,서울특별시 중구 퇴계로18길 10,02-3789-4542,카페,실내, ,목줄,카페카페중구실내목줄명동명동,명동,대한민국 서울특별시 중구 명동 5-2
카페,다예쁘다,용산구,37.52892317,126.9981149,서울특별시 용산구 보광로 57,010-2144-7155,카페,실내, ,목줄,카페카페용산구실내목줄보광로보광로,보광로,대한민국 서울특별시 용산구 보광로 57
카페,ROASTACHE,용산구,37.53204515,126.9993953,서울특별시 용산구 우사단로10길 74,010-6330-2546,카페,실내, ,목줄,카페카페용산구실내목줄우사단로10길우사단로10길,우사단로10길,대한민국 서울특별시 용산구 우사단로10길 76
카페,Take c,용산구,37.53357154,127.0011024,서울특별시 용산구 대사관로12길 4-8,02-790-3397,카페,실내, ,목줄,카페카페용산구실내목줄대사관로12길대사관로12길,대사관로12길,대한민국 서울특별시 용산구 대사관로12길 4-8
카페,웻커피,용산구,37.53760537,127.0031568,서울특별시 용산구 한남대로27가길 10,02-6497-3000,카페,실내, ,목줄,카페카페용산구실내목줄한남대로27가길한남대로27가길,한남대로27가길,대한민국 서울특별시 용산구 한남대로27가길 10
카페,카페&펍 방학동안,도봉구,37.66189524,127.0392883,서울특별시 도봉구 도봉로143길 50,02-3493-7070,카페,실내,"매일 11:00 - 00:00 , 매주 월요일 휴무",목줄,카페카페도봉구실내목줄방학동방학동,방학동,대한민국 서울특별시 도봉구 방학동 675-38
카페,커피프레지던트,용산구,37.54005395,126.9876381,서울특별시 용산구 녹사평대로 252,02-797-3578,카페,실내, ,목줄,카페카페용산구실내목줄이태원2동이태원2동,이태원2동,대한민국 서울특별시 용산구 이태원2동 667
카페,님부스커피,용산구,37.5326395,126.9926497,서울특별시 용산구 녹사평대로26가길 19,02-796-7676,카페,실내, ,목줄,카페카페용산구실내목줄이태원1동이태원1동,이태원1동,대한민국 서울특별시 용산구 이태원1동 74-62
카페,민지카페,광진구,37.54078908,127.0836883,서울특별시 광진구 자양로 148,070-4136-9962,카페,실내,매일 09:30 - 18:50,"목줄,매너벨트",카페카페광진구실내목줄 매너벨트구의동구의동,구의동,대한민국 서울특별시 광진구 구의동 251-21
카페,시온,용산구,37.52432632,126.9621193,서울특별시 용산구 한강대로7길 13,02-792-4688,카페,실내, ,목줄,카페카페용산구실내목줄한강로3가한강로3가,한강로3가,대한민국 서울특별시 용산구 한강로3가 40-339
카페,파이드파이퍼,용산구,37.52493484,126.9646593,서울특별시 용산구 한강대로14길 8,02-2135-2174,카페,실내, ,목줄,카페카페용산구실내목줄한강로동한강로동,한강로동,대한민국 서울특별시 용산구 한강로동 65-156
카페,커피 테르미니,용산구,37.5297718,126.9647415,서울특별시 용산구 한강대로23길 55,02-2012-0123,카페,실외, ,목줄,카페카페용산구실외목줄용산구용산구,용산구,대한민국 서울특별시 서울특별시 용산구 한강대로23길 55 (한강로3가) 6층 633호
카페,그라노반디,용산구,37.53021426,126.9716801,서울특별시 용산구 한강대로40길 43,010-7612-4262,카페,실내, ,목줄,카페카페용산구실내목줄한강대로40길한강대로40길,한강대로40길,대한민국 서울특별시 용산구 한강대로40길 43
카페,마이쥬스 신용산점,용산구,37.52735855,126.9688617,서울특별시 용산구 한강대로30길 25,02-797-8686,카페,실내, ,목줄,카페카페용산구실내목줄한강대로30길한강대로30길,한강대로30길,"대한민국 서울특별시 용산구 한강대로30길 25, 8층(센트레빌 아스테리움)"
카페,에이셉커피,용산구,37.52735855,126.9688617,서울특별시 용산구 한강대로30길 25,02-794-4924,카페,실내, ,목줄,카페카페용산구실내목줄한강대로30길한강대로30길,한강대로30길,"대한민국 서울특별시 용산구 한강대로30길 25, 8층(센트레빌 아스테리움)"
카페,엣파니니,용산구,37.53668353,126.9728087,서울특별시 용산구 한강대로 205,02-2071-8877,카페,실내, ,목줄,"카페카페용산구실내목줄Seoul Seoul,","Seoul,","Hangangno 1(il)-ga،Yongsan-gu, سئول،، Seoul, 대한민국"
카페,로스트앤파운드,용산구,37.53522182,126.9531842,서울특별시 용산구 효창원로 36,070-4115-4721,카페,실외, ,목줄,카페카페용산구실외목줄신창동신창동,신창동,대한민국 서울특별시 용산구 신창동 99-1
카페,카페로찌,용산구,37.53306896,126.9522719,서울특별시 용산구 원효로19길 7,02-706-4036,카페,실내, ,목줄,카페카페용산구실내목줄원효로4가원효로4가,원효로4가,대한민국 서울특별시 용산구 원효로4가 120-3
카페,테이블스 용산점,용산구,37.53261789,126.9551869,서울특별시 용산구 원효로 103-3,070-4417-1478,베이커리,테라스, ,목줄,카페베이커리용산구테라스목줄원효로원효로,원효로,대한민국 서울특별시 용산구 원효로 103
카페,외계인방앗간 원효점,용산구,37.53774654,126.9688331,서울특별시 용산구 백범로90길 90,02-713-4111,베이커리,실내, ,목줄,카페베이커리용산구실내목줄문배동문배동,문배동,대한민국 서울특별시 용산구 문배동 11-10
카페,TOLSWIZ,용산구,37.53703801,126.9621005,서울특별시 용산구 원효로53길 30,010-8761-6189,카페,실내, ,목줄,카페카페용산구실내목줄원효로2가원효로2가,원효로2가,대한민국 서울특별시 용산구 원효로2가 78-25
카페,카페 아임히어,용산구,37.5381476,126.9650511,서울특별시 용산구 백범로 326,0505-314-0415,카페,실내, ,안기,카페카페용산구실내안기백범로백범로,백범로,대한민국 서울특별시 용산구 백범로 326
카페,도렐 육지2호점,용산구,37.52879118,126.9686736,서울특별시 용산구 한강대로 100,02-6365-3675,카페,실내, ,목줄,카페카페용산구실내목줄한강로2가한강로2가,한강로2가,대한민국 서울특별시 용산구 한강로2가 161-9
카페,로지커피,용산구,37.53930866,126.9694032,서울특별시 용산구 백범로87길 48-5,02-6013-8020,카페,실내, ,안기,카페카페용산구실내안기원효로1가원효로1가,원효로1가,대한민국 서울특별시 용산구 원효로1가 43-14
카페,만리서재,용산구,37.55390375,126.966696,서울특별시 용산구 청파로93길 42,02-780-8416,카페,실내, ,목줄,카페카페용산구실내목줄만리재로만리재로,만리재로,대한민국 서울특별시 용산구 만리재로 182-7
카페,카페틸데,용산구,37.54410654,126.9685713,서울특별시 용산구 청파로43가길 23,010-9057-0857,카페,실내, ,목줄,카페카페용산구실내목줄청파로43가길청파로43가길,청파로43가길,대한민국 서울특별시 용산구 청파로43가길 23
카페,카페 퓨엔테,용산구,37.54388098,126.967755,서울특별시 용산구 청파로43길 53,010-8098-2945,카페,실내, ,목줄,카페카페용산구실내목줄청파동청파동,청파동,대한민국 서울특별시 용산구 청파동 118-374
카페,슬로우슬로우,용산구,37.54522804,126.9693516,서울특별시 용산구 청파로49길 17,010-4676-5061,카페,실내, ,목줄,카페카페용산구실내목줄청파동2가청파동2가,청파동2가,대한민국 서울특별시 용산구 청파동2가 90-39
카페,청파맨션,용산구,37.54567227,126.967148,서울특별시 용산구 청파로47나길 20,02-706-9093,카페,실내, ,목줄,카페카페용산구실내목줄청파로47나길청파로47나길,청파로47나길,대한민국 서울특별시 용산구 청파로47나길 20
카페,mtl 효창,용산구,37.54203159,126.9609022,서울특별시 용산구 효창원로69길 25,070-4259-3113,카페,실내, ,목줄,카페카페용산구실내목줄효창동효창동,효창동,대한민국 서울특별시 용산구 효창동 5-160
카페,카페미우,용산구,37.53918497,126.9585163,서울특별시 용산구 새창로14길 7,02-813-0315,카페,실내, ,목줄,카페카페용산구실내목줄새창로14길새창로14길,새창로14길,대한민국 서울특별시 용산구 새창로14길 7
카페,쿱,용산구,37.53929922,126.9580225,서울특별시 용산구 새창로12길 3,010-7774-5990,카페,실내, ,목줄,카페카페용산구실내목줄도원동도원동,도원동,대한민국 서울특별시 용산구 도원동 3-5
카페,AUZ,용산구,37.53793867,126.9679734,서울특별시 용산구 백범로 341,02-704-8685,브런치,실내, ,목줄,카페브런치용산구실내목줄원효로1동원효로1동,원효로1동,대한민국 서울특별시 용산구 원효로1동 40-72
카페,펍스테이,용산구,37.54375935,126.973176,서울특별시 용산구 한강대로84길 11,010-3844-2862,카페,실내, ,목줄,카페카페용산구실내목줄남영동남영동,남영동,대한민국 서울특별시 용산구 남영동 35-3
카페,N214,용산구,37.53088388,126.9709186,서울특별시 용산구 한강대로44길 17,010-9770-9194,카페,"실내,테라스", ,목줄,카페카페용산구실내 테라스목줄한강로2가한강로2가,한강로2가,대한민국 서울특별시 용산구 한강로2가 107-10
카페,헬카페 스피리터스,용산구,37.51938659,126.975026,서울특별시 용산구 이촌로 248,070-7612-4687,카페,실내, ,목줄,카페카페용산구실내목줄이촌로이촌로,이촌로,대한민국 서울특별시 용산구 이촌로 ２６４ 1층 104호
카페,카페올리버,용산구,37.54494961,126.9851696,서울특별시 용산구 소월로20길 36-1,010-4159-3630,카페,실내, ,목줄,카페카페용산구실내목줄용산2가동용산2가동,용산2가동,대한민국 서울특별시 용산구 용산2가동 1-57
카페,풀리쉬랩,용산구,37.54538007,126.9863084,서울특별시 용산구 신흥로 82,010-2370-1488,카페,실내, ,목줄,카페카페용산구실내목줄신흥로신흥로,신흥로,대한민국 서울특별시 용산구 신흥로 82
카페,머드거트,용산구,37.54414828,126.984573,서울특별시 용산구 소월로20길 55,070-8770-1223,카페,실내, ,목줄,카페카페용산구실내목줄소월로20길소월로20길,소월로20길,대한민국 서울특별시 용산구 소월로20길 55
카페,르시앙블랑,용산구,37.54035706,126.9868636,서울특별시 용산구 신흥로2길 7,070-7720-1211,베이커리,실내, ,목줄,카페베이커리용산구실내목줄용산동2가용산동2가,용산동2가,대한민국 서울특별시 용산구 용산동2가 46-5
카페,글래드유케임,용산구,37.54463007,126.9834543,서울특별시 용산구 신흥로 111,010-8913-0621,카페,실내, ,목줄,카페카페용산구실내목줄신흥로23길신흥로23길,신흥로23길,대한민국 서울특별시 용산구 신흥로23길 2
카페,론드리프로젝트,용산구,37.54504446,126.9864941,서울특별시 용산구 신흥로 78,02-6405-8488,카페,실내, ,목줄,카페카페용산구실내목줄용산2가동용산2가동,용산2가동,대한민국 서울특별시 용산구 용산2가동 15-13
카페,드도트,용산구,37.54323453,126.9881031,서울특별시 용산구 신흥로2길 78,02-794-2419,카페,실내, ,목줄,카페카페용산구실내목줄신흥로2길신흥로2길,신흥로2길,대한민국 서울특별시 용산구 신흥로2길 78
카페,미암미암,용산구,37.54265322,126.987396,서울특별시 용산구 신흥로9길 4,02-715-9905,카페,실내, ,목줄,카페카페용산구실내목줄용산동2가용산동2가,용산동2가,대한민국 서울특별시 용산구 용산동2가 37-5
카페,코타티,용산구,37.54347492,126.9881718,서울특별시 용산구 신흥로12길 7,070-4042-0228,카페,실내, ,"목줄,입마개",카페카페용산구실내목줄 입마개용산2가동용산2가동,용산2가동,대한민국 서울특별시 용산구 용산2가동 26-6
카페,르몽블랑,용산구,37.54490876,126.9848572,서울특별시 용산구 신흥로 99-4,070-8887-8200,카페,실내, ,목줄,카페카페용산구실내목줄용산2가동용산2가동,용산2가동,대한민국 서울특별시 용산구 용산2가동 1-1466
카페,꾸에바마테라,용산구,37.54527839,126.9852144,서울특별시 용산구 소월로20길 28-1,010-9793-7999,카페,실내, ,목줄,카페카페용산구실내목줄소월로20길소월로20길,소월로20길,대한민국 서울특별시 용산구 소월로20길 28
카페,바이두부,용산구,37.54608848,126.985188,서울특별시 용산구 소월로20길 10,070-8228-7019,카페,실내, ,목줄,카페카페용산구실내목줄용산동2가용산동2가,용산동2가,대한민국 서울특별시 용산구 용산동2가 1-467
카페,카페무자기,용산구,37.54536289,126.9843833,서울특별시 용산구 신흥로26길 35,010-5549-9383,카페,실내, ,목줄,카페카페용산구실내목줄용산2가동용산2가동,용산2가동,대한민국 서울특별시 용산구 용산2가동 1-551
카페,Sunday arvo,용산구,37.54161686,126.9910257,서울특별시 용산구 회나무로13길 52-43,010-5748-3399,브런치,실내, ,목줄,카페브런치용산구실내목줄회나무로13길회나무로13길,회나무로13길,대한민국 서울특별시 용산구 회나무로13길 52-41
카페,카페길,용산구,37.54724656,126.9815338,서울특별시 용산구 두텁바위로 89,070-5029-3323,카페,실내, ,목줄,카페카페용산구실내목줄후암동후암동,후암동,대한민국 서울특별시 용산구 후암동 415-1
카페,카페우리다,용산구,37.54957026,126.9761584,서울특별시 용산구 후암로35길 43,070-8886-1210,카페,실내, ,목줄,카페카페용산구실내목줄후암동후암동,후암동,대한민국 서울특별시 용산구 후암동 114-31
카페,마모에,용산구,37.55128562,126.9813928,서울특별시 용산구 두텁바위로 137,070-4009-8857,카페,실내, ,목줄,카페카페용산구실내목줄후암동후암동,후암동,대한민국 서울특별시 용산구 후암동 30-127
카페,곰발커피,용산구,37.5467109,126.9808865,서울특별시 용산구 두텁바위로 81,02-779-0428,카페,실내, ,목줄,카페카페용산구실내목줄두텁바위로두텁바위로,두텁바위로,대한민국 서울특별시 용산구 두텁바위로 81-1
카페,REDLEAF coffeefactory,용산구,37.54981766,126.9789046,서울특별시 용산구 후암로28길 27,010-4519-9007,카페,실내, ,목줄,카페카페용산구실내목줄후암동후암동,후암동,대한민국 서울특별시 용산구 후암동 55-26
카페,시트러스테이블,용산구,37.55169479,126.9799323,서울특별시 용산구 두텁바위로 155,02-318-8415,카페,실내, ,목줄,카페카페용산구실내목줄후암동후암동,후암동,대한민국 서울특별시 용산구 후암동 30-119
카페,카페후암동,용산구,37.54874413,126.9775127,서울특별시 용산구 후암로 33,010-2251-8232,카페,실내, ,목줄,카페카페용산구실내목줄후암동후암동,후암동,대한민국 서울특별시 용산구 후암동 105-6
카페,더모놀로그하우스,용산구,37.54882437,126.9820326,서울특별시 용산구 두텁바위로 111,02-512-7106,카페,실내, ,목줄,카페카페용산구실내목줄후암동후암동,후암동,대한민국 서울특별시 용산구 후암동 398-6
카페,테라커피,성동구,37.55469245,127.0707927,서울특별시 성동구 동일로 257-1,02-465-3121,카페,실내, ,목줄,카페카페성동구실내목줄송정동송정동,송정동,대한민국 서울특별시 성동구 송정동 87-20
카페,309디저트카페,성동구,37.54148195,127.0544094,서울특별시 성동구 성수이로7길 24,02-466-3330,카페,실내, ,목줄,카페카페성동구실내목줄성수2가1동성수2가1동,성수2가1동,대한민국 서울특별시 성동구 성수2가1동 309-59
카페,에이투비,성동구,37.54394328,127.0589669,서울특별시 성동구 아차산로 135,070-4617-0812,카페,실내, ,목줄,카페카페성동구실내목줄성수2가3동성수2가3동,성수2가3동,대한민국 서울특별시 성동구 성수2가3동 277-56
카페,오프커피,성동구,37.54361342,127.052683,서울특별시 성동구 연무장길 29-17,010-3004-0039,카페,"실내,실외", ,목줄,카페카페성동구실내 실외목줄성수2가3동성수2가3동,성수2가3동,대한민국 서울특별시 성동구 성수2가3동 316-5
카페,높은산,성동구,37.53685382,127.0541476,서울특별시 성동구 성수이로 18-1,010-6835-8194,카페,실외, ,목줄,카페카페성동구실외목줄성수이로성수이로,성수이로,대한민국 서울특별시 성동구 성수이로 18-1
카페,카페소울,성동구,37.53576839,127.0554925,서울특별시 성동구 둘레15길 11,02-6081-8882,카페,실내, ,안기,카페카페성동구실내안기성수동2가성수동2가,성수동2가,대한민국 서울특별시 성동구 성수동2가 700-3
카페,BNHR,성동구,37.54443911,127.0526591,서울특별시 성동구 연무장5길 9-16,070-4175-6118,카페,실내, ,목줄,카페카페성동구실내목줄성수동2가성수동2가,성수동2가,대한민국 서울특별시 성동구 성수동2가 302-8
카페,Time After Time,성동구,37.54298842,127.0522357,서울특별시 성동구 연무장길 28-16,070-8891-9629,카페,실내, ,목줄,카페카페성동구실내목줄성수동2가성수동2가,성수동2가,대한민국 서울특별시 성동구 성수동2가 310-60
카페,무브모브,성동구,37.54533784,127.0504264,서울특별시 성동구 성수일로 56,02-466-0878,카페,실내, ,캐리어,카페카페성동구실내캐리어성수일로성수일로,성수일로,대한민국 서울특별시 성동구 성수일로 56
카페,헬로헬씨,성동구,37.54799827,127.0519631,서울특별시 성동구 성수일로10가길 4,02-6326-8696,카페,실내, ,목줄,카페카페성동구실내목줄성수2가3동성수2가3동,성수2가3동,대한민국 서울특별시 성동구 성수2가3동 284-44
카페,어페어 커피,성동구,37.536696,127.0550458,서울특별시 성동구 성수이로6길 11,02-6338-7005,카페,실내, ,목줄,카페카페성동구실내목줄성수동2가성수동2가,성수동2가,대한민국 서울특별시 성동구 성수동2가 559-4
카페,카페 봇봇봇,성동구,37.54476087,127.0581989,서울특별시 성동구 아차산로9길 8,02-499-9219,카페,실외, ,"목줄,입마개",카페카페성동구실외목줄 입마개성수동2가성수동2가,성수동2가,대한민국 서울특별시 성동구 성수동2가 아차산로9길 8
카페,BBC,성동구,37.53860394,127.0564101,서울특별시 성동구 뚝섬로 413,02-6339-5528,카페,실내, ,목줄,카페카페성동구실내목줄성수동2가성수동2가,성수동2가,대한민국 서울특별시 성동구 성수동2가 331-123
카페,인덱스카라멜,성동구,37.54140761,127.0569083,서울특별시 성동구 성수이로14길 14,02-790-8399,카페,실내, ,안기,카페카페성동구실내안기성수동2가성수동2가,성수동2가,대한민국 서울특별시 성동구 성수동2가 322-4
카페,도렐 육지3호점,성동구,37.54378977,127.0544169,서울특별시 성동구 연무장7길 11,02-516-3675,카페,실내, ,목줄,카페카페성동구실내목줄성수2가3동성수2가3동,성수2가3동,대한민국 서울특별시 성동구 성수2가3동 연무장7길 11
카페,비비비커피,성동구,37.53955999,127.0476317,서울특별시 성동구 성덕정3길 8,010-7193-7656,카페,"실내,실외", ,목줄,카페카페성동구실내 실외목줄성덕정3길성덕정3길,성덕정3길,대한민국 서울특별시 성동구 성덕정3길 8
카페,엘라,성동구,37.54683277,127.0469355,서울특별시 성동구 왕십리로4길 26-18,010-6835-1963,카페,실내, ,목줄,카페카페성동구실내목줄성수1가2동성수1가2동,성수1가2동,대한민국 서울특별시 성동구 성수1가2동 8-29
카페,camouflage coffee,성동구,37.54899097,127.0456913,서울특별시 성동구 아차산로1길 9,010-5350-1530,카페,실내, ,목줄,카페카페성동구실내목줄아차산로1길아차산로1길,아차산로1길,대한민국 서울특별시 성동구 아차산로1길 9
카페,과일파는 덕이언니,성동구,37.54473662,127.0495183,서울특별시 성동구 성수일로 47,010-9233-9899,카페,실내, ,목줄,카페카페성동구실내목줄성수일로성수일로,성수일로,대한민국 서울특별시 성동구 성수일로 47
카페,erolpa,성동구,37.53803436,127.0490695,서울특별시 성동구 둘레7길 15,070-8821-4965,카페,실내, ,목줄,카페카페성동구실내목줄성수1가1동성수1가1동,성수1가1동,대한민국 서울특별시 성동구 성수1가1동 219-2
카페,El Patio,성동구,37.54367362,127.0505828,서울특별시 성동구 연무장길 10-5,070-8822-5628,카페,실내, ,목줄,카페카페성동구실내목줄성수1가1동성수1가1동,성수1가1동,대한민국 서울특별시 성동구 성수1가1동 16-29
카페,커피오스,성동구,37.5419981,127.0485059,서울특별시 성동구 성수일로3길 1,02-462-7140,카페,실내, ,목줄,카페카페성동구실내목줄성수일로3길성수일로3길,성수일로3길,대한민국 서울특별시 성동구 성수일로3길 1
카페,구욱희씨,성동구,37.54711029,127.0418677,서울특별시 성동구 서울숲4길 12-22,070-4282-7799,베이커리,"실내,루프탑", ,안기,카페베이커리성동구실내 루프탑안기성수동1가성수동1가,성수동1가,대한민국 서울특별시 성동구 성수동1가 서울숲4길 12-22
카페,카페시트러스페이퍼,성동구,37.54278385,127.0127667,서울특별시 성동구 독서당로 194-1,02-2291-1941,카페,실내, ,목줄,카페카페성동구실내목줄옥수동옥수동,옥수동,대한민국 서울특별시 성동구 옥수동 244-11
카페,코페아커피 옥수점,성동구,37.54084963,127.0113829,서울특별시 성동구 독서당로 168,02-2295-6553,카페,실외, ,목줄,카페카페성동구실외목줄옥수동옥수동,옥수동,대한민국 서울특별시 성동구 옥수동 450-1
카페,랑데자뷰 약수점,중구,37.55770284,127.0089767,서울특별시 중구 동호로 222,070-7797-3344,카페,실내, ,목줄,카페카페중구실내목줄신당동신당동,신당동,대한민국 서울특별시 중구 신당동 377-59
카페,커피그래,중구,37.55628036,127.0099297,서울특별시 중구 동호로 204,0507-1348-1256,카페,실내, ,목줄,카페카페중구실내목줄신당동신당동,신당동,대한민국 서울특별시 중구 신당동 동호로 204
카페,힘들땐 마카롱,중구,37.55549679,127.0124852,서울특별시 중구 다산로12길 21,02-2231-3516,카페,실내, ,목줄,카페카페중구실내목줄신당동신당동,신당동,대한민국 서울특별시 중구 신당동 347-355
카페,오프셋커피,중구,37.55737733,127.0126662,서울특별시 중구 다산로20길 7,070-8790-2650,카페,실내, ,안기,카페카페중구실내안기신당동신당동,신당동,대한민국 서울특별시 중구 신당동 340-83
카페,하이디하우스,중구,37.55597234,127.0124498,서울특별시 중구 다산로14길 17,02-2233-4107,카페,"실내,테라스", ,목줄,카페카페중구실내 테라스목줄다산로14길다산로14길,다산로14길,대한민국 서울특별시 중구 다산로14길 17
카페,도도네케이크,성동구,37.55160942,127.0262728,서울특별시 성동구 금호로 102,010-8950-3035,카페,실내, ,목줄,카페카페성동구실내목줄금호동1가금호동1가,금호동1가,대한민국 서울특별시 성동구 금호동1가 633 금호벽산아파트 상가 1층
카페,폰슨비,성동구,37.55009441,127.0266171,서울특별시 성동구 독서당로51길 22-1,010-8931-9234,카페,실내, ,목줄,카페카페성동구실내목줄금호1가동금호1가동,금호1가동,대한민국 서울특별시 성동구 금호1가동 독서당로51길 22-1 1층
카페,별미양과점,성동구,37.55083656,127.0258275,서울특별시 성동구 금호로 84,010-5291-3673,카페,실내, ,안기,카페카페성동구실내안기금호로금호로,금호로,대한민국 서울특별시 성동구 금호로 84
카페,BELOW SEONGSOO,성동구,37.54723876,127.0424051,서울특별시 성동구 서울숲4길 16-10,0507-1327-9148,카페,실내, ,목줄,카페카페성동구실내목줄성수1가2동성수1가2동,성수1가2동,대한민국 서울특별시 성동구 성수1가2동 668-87
카페,파인와플,성동구,37.54729914,127.0426246,서울특별시 성동구 서울숲4길 16-1,02-6015-1616,카페,실내, ,목줄,카페카페성동구실내목줄서울숲4길서울숲4길,서울숲4길,대한민국 서울특별시 성동구 서울숲4길 16-1
카페,어라운드데이,성동구,37.54686967,127.0412711,서울특별시 성동구 서울숲2길 24-1,010-9116-3695,카페,실내, ,목줄,카페카페성동구실내목줄성수1가2동성수1가2동,성수1가2동,대한민국 서울특별시 성동구 성수1가2동 685-483
카페,업사이드커피 뚝섬점,성동구,37.54877104,127.0459158,서울특별시 성동구 왕십리로14길 19-1,070-8802-7579,카페,실내, ,목줄,카페카페성동구실내목줄왕십리로14길왕십리로14길,왕십리로14길,대한민국 서울특별시 성동구 왕십리로14길 19-1
카페,JOFREE CAKE,성동구,37.53854178,127.0482712,서울특별시 성동구 성덕정길 42,010-8938-6925,베이커리,실내, ,목줄,카페베이커리성동구실내목줄성덕정길성덕정길,성덕정길,대한민국 서울특별시 성동구 성덕정길 42
카페,&meal,성동구,37.54423479,127.0513634,서울특별시 성동구 연무장3길 5-1,070-8888-0919,브런치,실내,매일 11:00 - 20:00   19:00 라스트오더,목줄,카페브런치성동구실내목줄성수2가3동성수2가3동,성수2가3동,대한민국 서울특별시 성동구 성수2가3동 301-18
카페,인더매스 마장,성동구,37.56554401,127.0399679,서울특별시 성동구 마장로 270,02-6084-8996,카페,실내, ,목줄,카페카페성동구실내목줄마장동마장동,마장동,대한민국 서울특별시 성동구 마장동 마장로 270
카페,밀버슈,성동구,37.5622717,127.0309094,서울특별시 성동구 무학봉21길 9,010-4530-5960,베이커리,실내, ,목줄,카페베이커리성동구실내목줄하왕십리동하왕십리동,하왕십리동,대한민국 서울특별시 성동구 하왕십리동 973-5
카페,cafe lazes,성동구,37.5665905,127.0240825,서울특별시 성동구 왕십리로 410,010-2421-4658,카페,실내, ,안기,카페카페성동구실내안기상왕십리동상왕십리동,상왕십리동,대한민국 서울특별시 성동구 상왕십리동 난계로 160
카페,커먼센스커피,성동구,37.5665905,127.0240825,서울특별시 성동구 왕십리로 410,010-8815-8412,카페,실내, ,목줄,카페카페성동구실내목줄상왕십리동상왕십리동,상왕십리동,대한민국 서울특별시 성동구 상왕십리동 난계로 160
카페,두번째마카롱,성동구,37.56324578,127.0305139,서울특별시 성동구 무학봉15길 24,010-4338-4817,베이커리,실내, ,목줄,카페베이커리성동구실내목줄무학봉15길무학봉15길,무학봉15길,대한민국 서울특별시 성동구 무학봉15길 24
카페,로쿠커피,광진구,37.55405957,127.0734837,서울특별시 광진구 군자로15길 14,010-8475-3737,카페,실내, ,목줄,카페카페광진구실내목줄군자로15길군자로15길,군자로15길,대한민국 서울특별시 광진구 군자로15길 14
카페,서울230,광진구,37.54437207,127.0718174,서울특별시 광진구 군자로2길 4,010-9931-9045,카페,실내, ,목줄,카페카페광진구실내목줄군자로2길군자로2길,군자로2길,대한민국 서울특별시 광진구 군자로2길 4
카페,Mau,광진구,37.5450151,127.0688137,서울특별시 광진구 능동로13길 77,010-9850-7499,카페,실내, ,목줄,카페카페광진구실내목줄화양동화양동,화양동,대한민국 서울특별시 광진구 화양동 33-30
카페,인서트카페,광진구,37.54567909,127.0691861,서울특별시 광진구 군자로7길 25,010-3129-1067,카페,실내, ,목줄,카페카페광진구실내목줄화양동화양동,화양동,대한민국 서울특별시 광진구 화양동 16-54
카페,모지니,광진구,37.54510669,127.0696439,서울특별시 광진구 군자로5길 22,010-6690-9015,카페,실내, ,"캐리어,안기",카페카페광진구실내캐리어 안기화양동화양동,화양동,대한민국 서울특별시 광진구 화양동 16-20
카페,카페롱,광진구,37.54787123,127.0699437,서울특별시 광진구 광나루로 360,02-466-4255,카페,실내, ,목줄,카페카페광진구실내목줄화양동화양동,화양동,대한민국 서울특별시 광진구 화양동 18-6
카페,키랩보드게임카페 건대본점,광진구,37.54250819,127.0707314,서울특별시 광진구 아차산로33길 49,070-8098-7300,카페,실내, ,캐리어,카페카페광진구실내캐리어화양동화양동,화양동,대한민국 서울특별시 광진구 화양동 11-7
카페,카페 26,광진구,37.54686686,127.0716461,서울특별시 광진구 능동로17길 34,070-8672-3050,카페,"실내,루프탑", ,목줄,카페카페광진구실내 루프탑목줄화양동화양동,화양동,대한민국 서울특별시 광진구 화양동 110-40
카페,에스페란자로스터즈,서대문구,37.57749834,126.9287152,서울특별시 서대문구 증가로4길 58-15,070-8837-1105,카페,"실내,실외","매일 11:00 - 18:00, 월요일 휴무, 대관문의환영",목줄,카페카페서대문구실내 실외목줄홍은동홍은동,홍은동,대한민국 서울특별시 서대문구 홍은동 405-36
카페,카페704호,광진구,37.53863773,127.0774064,서울특별시 광진구 아차산로41길 44,010-4424-3860,카페,실내, ,목줄,카페카페광진구실내목줄아차산로41길아차산로41길,아차산로41길,대한민국 서울특별시 광진구 아차산로41길 44
카페,케이크라움,광진구,37.54646346,127.0755816,서울특별시 광진구 광나루로 416,010-2206-8140,베이커리,실내, ,목줄,카페베이커리광진구실내목줄화양동화양동,화양동,대한민국 서울특별시 광진구 화양동 199-1
카페,Six Degrees Coffee,광진구,37.53464072,127.0623051,서울특별시 광진구 동일로2길 38,02-6954-0161,카페,실내, ,안기,카페카페광진구실내안기자양동자양동,자양동,대한민국 서울특별시 광진구 자양동 57-160
카페,브링미커피 자양점,광진구,37.53138727,127.0749226,서울특별시 광진구 자양번영로 19,070-7633-2870,카페,실내, ,캐리어,카페카페광진구실내캐리어자양동자양동,자양동,대한민국 서울특별시 광진구 자양동 584-5
카페,리버커피,광진구,37.55107291,127.1106155,서울특별시 광진구 아차산로78길 90,02-730-4143,카페,실외, ,목줄,카페카페광진구실외목줄광장동광장동,광장동,대한민국 서울특별시 광진구 광장동 아차산로78길 90
카페,카페드노보,광진구,37.54814428,127.1091023,서울특별시 광진구 아차산로78길 157,010-7133-1537,브런치,실외, ,목줄,카페브런치광진구실외목줄광장동광장동,광장동,대한민국 서울특별시 광진구 광장동 187-14
카페,37.5 광진직영점,광진구,37.54720014,127.1076063,서울특별시 광진구 아차산로76가길 5,02-453-3705,브런치,실외, ,목줄,카페브런치광진구실외목줄광장동광장동,광장동,대한민국 서울특별시 광진구 광장동 322-6
카페,오늘도내일도,광진구,37.53787688,127.0874032,서울특별시 광진구 아차산로 403-6,02-455-9511,카페,실내, ,목줄,카페카페광진구실내목줄구의1동구의1동,구의1동,대한민국 서울특별시 광진구 구의1동 243-17
카페,메이로즈마카롱,광진구,37.54960143,127.0900101,서울특별시 광진구 자양로 261,010-8188-2121,카페,실내, ,목줄,카페카페광진구실내목줄자양로자양로,자양로,대한민국 서울특별시 광진구 자양로 261
카페,천계월,광진구,37.54886197,127.0910762,서울특별시 광진구 자양로42길 20,010-5752-3394,카페,실내, ,목줄,카페카페광진구실내목줄구의동구의동,구의동,대한민국 서울특별시 광진구 구의동 자양로42길 20
카페,펠어커피 구의점,광진구,37.54124621,127.0908106,서울특별시 광진구 아차산로59길 63,070-7702-0053,카페,실내, ,목줄,카페카페광진구실내목줄1층1층,1층,대한민국 서울특별시 광진구 1층 펠어커피
카페,92도,광진구,37.55551544,127.0792661,서울특별시 광진구 천호대로110길 40,02-2201-2292,카페,테라스, ,목줄,카페카페광진구테라스목줄능동능동,능동,대한민국 서울특별시 광진구 능동 221-13
카페,커피에반하다 중곡제일점,광진구,37.5640685,127.0800898,서울특별시 광진구 면목로 117,070-7732-3659,카페,실내, ,목줄,카페카페광진구실내목줄중곡동중곡동,중곡동,대한민국 서울특별시 광진구 중곡동 231-7
카페,델리롱,광진구,37.5621182,127.0868459,서울특별시 광진구 능동로48길 77,010-9203-4628,카페,실내, ,"안기,매너벨트",카페카페광진구실내안기 매너벨트능동로48길능동로48길,능동로48길,대한민국 서울특별시 광진구 능동로48길 77
카페,번트시에나,광진구,37.56151098,127.0759309,서울특별시 광진구 동일로66길 14,02-6368-9095,카페,실내, ,안기,카페카페광진구실내안기중곡동중곡동,중곡동,대한민국 서울특별시 광진구 중곡동 615-1
카페,카페 알틴,광진구,37.56643707,127.0848183,서울특별시 광진구 능동로 420-1,02-468-4201,카페,실내, ,목줄,카페카페광진구실내목줄중곡3동중곡3동,중곡3동,대한민국 서울특별시 광진구 중곡3동 29-71
카페,카페반창고,동대문구,37.5925719,127.0516652,서울특별시 동대문구 경희대로1가길 18,02-969-4254,카페,실내, ,목줄,카페카페동대문구실내목줄회기동회기동,회기동,대한민국 서울특별시 동대문구 회기동 경희대로1가길 18
카페,카페 브레멘,동대문구,37.5867461,127.0520262,서울특별시 동대문구 왕산로 293,010-7375-8182,카페,실내, ,목줄,카페카페동대문구실내목줄청량리동청량리동,청량리동,대한민국 서울특별시 동대문구 청량리동 18-4
카페,비바라비다,동대문구,37.56371275,127.0645654,서울특별시 동대문구 천호대로81길 32,010-2093-1980,카페,실내, ,안기,카페카페동대문구실내안기장안동장안동,장안동,대한민국 서울특별시 동대문구 장안동 423-13
카페,바르다펫 장안점,동대문구,37.58085702,127.0706144,서울특별시 동대문구 사가정로25길 41,070-7799-8956,카페,실내, ,목줄,카페카페동대문구실내목줄장안동장안동,장안동,대한민국 서울특별시 동대문구 장안동 94-30
카페,톤톤,동대문구,37.57324734,127.067955,서울특별시 동대문구 답십리로63길 11,010-7749-3343,카페,테라스, ,목줄,카페카페동대문구테라스목줄장안동장안동,장안동,대한민국 서울특별시 동대문구 장안동 140-2
카페,올데이 베이커리,동대문구,37.56339564,127.0697226,서울특별시 동대문구 천호대로91길 42,02-3394-5370,베이커리,실내, ,안기,카페베이커리동대문구실내안기장안동장안동,장안동,대한민국 서울특별시 동대문구 장안동 천호대로91길 42
카페,이야기Café,동대문구,37.57247402,127.056118,서울특별시 동대문구 전농로3길 106,010-9733-5799,카페,실내, ,목줄,카페카페동대문구실내목줄답십리1동답십리1동,답십리1동,대한민국 서울특별시 동대문구 답십리1동 246-11
카페,호매호,동대문구,37.57301228,127.0595906,서울특별시 동대문구 답십리로 173-1,02-3390-2113,카페,실내, ,목줄,카페카페동대문구실내목줄답십리2동답십리2동,답십리2동,대한민국 서울특별시 동대문구 답십리2동 64-40
카페,문인커피,동대문구,37.57237579,127.0493106,서울특별시 동대문구 서울시립대로2길 68,070-4210-0061,카페,실내, ,목줄,카페카페동대문구실내목줄답십리1동답십리1동,답십리1동,대한민국 서울특별시 동대문구 답십리1동 468-23
카페,프리카페,동대문구,37.56937507,127.0575582,서울특별시 동대문구 답십리로48길 76,070-8824-1004,카페,실내, ,목줄,카페카페동대문구실내목줄답십리동답십리동,답십리동,대한민국 서울특별시 동대문구 답십리동 35-8
카페,너디블루,동대문구,37.58542701,127.0529291,서울특별시 동대문구 전농로36길 9,010-4402-1310,카페,실내, ,목줄,카페카페동대문구실내목줄전농로36길전농로36길,전농로36길,대한민국 서울특별시 동대문구 전농로36길 9
카페,우더스커피바,동대문구,37.57375723,127.0414894,서울특별시 동대문구 천호대로37길 11,010-8930-2831,카페,실내, ,목줄,카페카페동대문구실내목줄용신동용신동,용신동,대한민국 서울특별시 동대문구 용신동 39-895
카페,카페림,동대문구,37.57449423,127.037486,서울특별시 동대문구 천호대로27길 8-2,02-968-1497,카페,실내, ,목줄,카페카페동대문구실내목줄천호대로27길천호대로27길,천호대로27길,대한민국 서울특별시 동대문구 천호대로27길 8-2
카페,숲속카페,중랑구,37.60304881,127.0953448,서울특별시 중랑구 신내로7가길 10-14,010-2606-7265,카페,실내, ,목줄,카페카페중랑구실내목줄신내동신내동,신내동,대한민국 서울특별시 중랑구 신내동 537-17
카페,커파코너,중랑구,37.5994226,127.102435,서울특별시 중랑구 망우로72길 16,02-6448-2369,카페,실내, ,캐리어,카페카페중랑구실내캐리어망우로72길망우로72길,망우로72길,대한민국 서울특별시 중랑구 망우로72길 16
카페,카페다온,중랑구,37.5919203,127.0984265,서울특별시 중랑구 용마산로 458,010-4560-7789,카페,실내, ,목줄,카페카페중랑구실내목줄망우동망우동,망우동,대한민국 서울특별시 중랑구 망우동 444-26
카페,달달행행복행,중랑구,37.61801505,127.0828101,서울특별시 중랑구 공릉로12가길 63,02-977-0909,베이커리,실내, ,목줄,카페베이커리중랑구실내목줄묵동묵동,묵동,대한민국 서울특별시 중랑구 묵동 154-1
카페,커피앤바복길이,중랑구,37.59915345,127.0751617,서울특별시 중랑구 봉화산로4길 62,070-7590-8528,카페,실내, ,안기,카페카페중랑구실내안기중화동중화동,중화동,대한민국 서울특별시 중랑구 중화동 327-1
카페,슈가버터,중랑구,37.59936596,127.0951868,서울특별시 중랑구 송림길 5,02-6212-1119,카페,실내, ,목줄,카페카페중랑구실내목줄송림길송림길,송림길,대한민국 서울특별시 중랑구 송림길 5
카페,소년커피,중랑구,37.59491281,127.0864075,서울특별시 중랑구 면목로92길 7,010-9342-0085,카페,실내, ,안기,카페카페중랑구실내안기상봉동상봉동,상봉동,대한민국 서울특별시 중랑구 상봉동 102-79
카페,빈스로드,중랑구,37.60295637,127.0865696,서울특별시 중랑구 봉화산로 111,010-7672-7072,카페,실외, ,목줄,카페카페중랑구실외목줄봉화산로봉화산로,봉화산로,대한민국 서울특별시 중랑구 봉화산로 111
카페,이디야커피 동원사거리점,중랑구,37.58963661,127.09417,서울특별시 중랑구 겸재로 240,02-432-6717,카페,테라스, ,목줄,카페카페중랑구테라스목줄면목3.8동면목3.8동,면목3.8동,대한민국 서울특별시 중랑구 면목3.8동 23-13
카페,카페1호기,강북구,37.61055801,127.0324609,서울특별시 강북구 월계로7길 5,070-8844-1338,카페,실내,영업시간 매일 11:00 - 22:00,"목줄,매너벨트",카페카페강북구실내목줄 매너벨트월계로7길월계로7길,월계로7길,대한민국 서울특별시 강북구 월계로7길 5
카페,루앤비카페,강북구,37.64020435,127.033127,서울특별시 강북구 도봉로102길 70,010-3803-6218,카페,테라스,매일11:00~22:00 (동절기),목줄,카페카페강북구테라스목줄도봉로102길도봉로102길,도봉로102길,대한민국 서울특별시 강북구 도봉로102길 70
카페,닭봉씨 창동점,도봉구,37.63716092,127.0387185,서울특별시 도봉구 덕릉로60가길 59,02-900-7004,카페,실내, ,목줄,카페카페도봉구실내목줄덕릉로60가길덕릉로60가길,덕릉로60가길,대한민국 서울특별시 도봉구 덕릉로60가길 59
카페,호일카페,중랑구,37.58749495,127.097166,서울특별시 중랑구 용마산로90길 22,070-7773-9022,카페,실내, ,목줄,카페카페중랑구실내목줄면목동면목동,면목동,대한민국 서울특별시 중랑구 면목동 52-14
카페,셀렉토커피 돌곶이역스타점,성북구,37.6104055,127.0569062,서울특별시 성북구 화랑로 248,010-2474-4292,카페,실내, ,안기,카페카페성북구실내안기석관동석관동,석관동,대한민국 서울특별시 성북구 석관동 349-1
카페,카페연,성북구,37.609021,127.0510871,서울특별시 성북구 화랑로19길 70-14,010-6666-5683,카페,실내, ,목줄,카페카페성북구실내목줄상월곡동상월곡동,상월곡동,대한민국 서울특별시 성북구 상월곡동 7-164
카페,메이븐커피,성북구,37.59403931,127.0351039,서울특별시 성북구 북악산로31길 34,02-923-4197,카페,실내, ,목줄,카페카페성북구실내목줄종암동종암동,종암동,대한민국 서울특별시 성북구 종암동 북악산로31길 34
카페,카페 오드마인드,성북구,37.60158486,127.0426801,서울특별시 성북구 월곡로18나길 1,070-8868-3582,카페,실내, ,목줄,카페카페성북구실내목줄월곡로18나길월곡로18나길,월곡로18나길,대한민국 서울특별시 성북구 월곡로18나길 1
카페,카페그냥그냥,성북구,37.6006488,127.0111509,서울특별시 성북구 아리랑로5길 151,02-943-1579,카페,실외, ,목줄,카페카페성북구실외목줄정릉2동정릉2동,정릉2동,대한민국 서울특별시 성북구 정릉2동 549-1
카페,오감공간,성북구,37.60171725,127.0167973,서울특별시 성북구 정릉로38다길 34,010-5015-6698,카페,실내, ,목줄,카페카페성북구실내목줄정릉1동정릉1동,정릉1동,대한민국 서울특별시 성북구 정릉1동 16-290
카페,감구당,성북구,37.61073414,127.0088627,서울특별시 성북구 보국문로 71,010-9016-1290,카페,실내, ,목줄,카페카페성북구실내목줄보국문로보국문로,보국문로,대한민국 서울특별시 성북구 보국문로 71
카페,KINFOLKS COFFEE,성북구,37.61182945,127.0078458,서울특별시 성북구 보국문로 87-22,02-943-7920,카페,"실내,테라스", ,"목줄,캐리어",카페카페성북구실내 테라스목줄 캐리어정릉동정릉동,정릉동,대한민국 서울특별시 성북구 정릉동 보국문로 87-22
카페,팬도로시 고려대점,성북구,37.58870342,127.0316983,서울특별시 성북구 안암로 145,02-923-5999,카페,테라스, ,목줄,카페카페성북구테라스목줄안암로안암로,안암로,대한민국 서울특별시 성북구 안암로 145
카페,데클렌 커피,성북구,37.58072045,127.0236052,서울특별시 성북구 보문로14길 25,02-922-6247,카페,실내, ,목줄,카페카페성북구실내목줄안암동4가안암동4가,안암동4가,대한민국 서울특별시 성북구 안암동4가 14
카페,스틸커피,성북구,37.58488107,127.0216545,서울특별시 성북구 고려대로8길 23,010-5099-7018,카페,실내, ,목줄,카페카페성북구실내목줄안암동안암동,안암동,대한민국 서울특별시 성북구 안암동 1
카페,히든폼,성북구,37.58270041,127.0225142,서울특별시 성북구 고려대로8길 73,010-4296-0042,카페,실내, ,목줄,카페카페성북구실내목줄안암동안암동,안암동,대한민국 서울특별시 성북구 안암동 103
카페,스스쿠,성북구,37.58887179,127.0203634,서울특별시 성북구 고려대로11길 65,070-8833-3167,베이커리,실내, ,목줄,카페베이커리성북구실내목줄안암동1가안암동1가,안암동1가,대한민국 서울특별시 성북구 안암동1가 43
카페,레인커피,성북구,37.58869474,127.0193226,서울특별시 성북구 고려대로7길 70,02-6368-1109,카페,"실내,실외", ,목줄,카페카페성북구실내 실외목줄안암동1가안암동1가,안암동1가,대한민국 서울특별시 성북구 안암동1가 4-7
카페,유즈리스어덜트,성북구,37.58247515,127.0226056,서울특별시 성북구 보문로18길 25,010-6255-7003,카페,실내, ,"목줄,입마개",카페카페성북구실내목줄 입마개안암동안암동,안암동,대한민국 서울특별시 성북구 안암동 107-4
카페,카페오영,성북구,37.59495478,127.0212156,서울특별시 성북구 동소문로26가길 39,010-4932-8910,카페,실내, ,목줄,카페카페성북구실내목줄동선동3가동선동3가,동선동3가,대한민국 서울특별시 성북구 동선동3가 66
카페,디스러프,성북구,37.59040431,127.0207694,서울특별시 성북구 보문로32길 84,010-8962-8657,카페,실내, ,목줄,카페카페성북구실내목줄동선동동선동,동선동,대한민국 서울특별시 성북구 동선동 보문로32길 84
카페,카페 뮬,성북구,37.59027116,127.0185161,서울특별시 성북구 동소문로22길 64,02-6084-6083,카페,실내, ,목줄,카페카페성북구실내목줄동선동2가동선동2가,동선동2가,대한민국 서울특별시 성북구 동선동2가 6
카페,카페b,성북구,37.59062688,127.0195693,서울특별시 성북구 보문로30길 71,02-921-7797,카페,실내, ,목줄,카페카페성북구실내목줄동선동동선동,동선동,대한민국 서울특별시 성북구 동선동 보문로30길 71
카페,디프 커피,성북구,37.59500809,127.021902,서울특별시 성북구 동소문로26가길 56,010-5385-2890,카페,실내, ,안기,카페카페성북구실내안기동선동동선동,동선동,대한민국 서울특별시 성북구 동선동 83-105
카페,유목커피바,성북구,37.59161117,127.0187586,서울특별시 성북구 동소문로24길 47,010-2738-3690,카페,실내, ,목줄,카페카페성북구실내목줄동선동1가동선동1가,동선동1가,대한민국 서울특별시 성북구 동선동1가 85-56
카페,파도의숲,성북구,37.58840688,127.0163391,서울특별시 성북구 삼선교로24길 40,010-2332-2754,카페,실내, ,목줄,카페카페성북구실내목줄삼선동5가삼선동5가,삼선동5가,대한민국 서울특별시 성북구 삼선동5가 218 삼선동5가 218번지 성북구 서울특별시 KR 02862
카페,Bright Side,종로구,37.577681,127.022883,서울특별시 종로구 보문로7길 3,010-7565-1780,카페,실내, ,"목줄,입마개",카페카페종로구실내목줄 입마개숭인동숭인동,숭인동,대한민국 서울특별시 종로구 숭인동 325
카페,루틴,성북구,37.59171005,127.0201268,서울특별시 성북구 보문로34가길 6,02-6489-4589,카페,실내, ,목줄,카페카페성북구실내목줄동선동3가동선동3가,동선동3가,대한민국 서울특별시 성북구 동선동3가 230
카페,바른마카롱,성북구,37.59382963,127.0014314,서울특별시 성북구 성북로14길 10,070-8864-0206,베이커리,실내, ,목줄,카페베이커리성북구실내목줄성북로14길성북로14길,성북로14길,대한민국 서울특별시 성북구 성북로14길 10
카페,패밀리앤프렌즈,성북구,37.58654321,127.0104249,서울특별시 성북구 삼선교로14길 37,010-6341-3574,카페,실내, ,목줄,카페카페성북구실내목줄삼선동2가삼선동2가,삼선동2가,대한민국 서울특별시 성북구 삼선동2가 191
카페,샌드위치 하우스,성북구,37.59157455,127.0200765,서울특별시 성북구 보문로34가길 2,02-928-8450,베이커리,실내, ,안기,카페베이커리성북구실내안기동선동3가동선동3가,동선동3가,대한민국 서울특별시 성북구 동선동3가 232
카페,피알디,성북구,37.59470065,127.0182774,서울특별시 성북구 동소문로25길 9,010-6720-1378,카페,실내, ,"목줄,매너벨트",카페카페성북구실내목줄 매너벨트동선동4가동선동4가,동선동4가,대한민국 서울특별시 성북구 동선동4가 127
카페,카페 디터틀,성북구,37.58996274,127.0051529,서울특별시 성북구 성북로6길 12,02-3674-0294,카페,실내, ,목줄,카페카페성북구실내목줄성북동성북동,성북동,대한민국 서울특별시 성북구 성북동 184-39
카페,서울노마드,성북구,37.5915844,127.0119084,서울특별시 성북구 동소문로11길 5,02-921-8049,카페,실내, ,목줄,카페카페성북구실내목줄동소문동4가동소문동4가,동소문동4가,대한민국 서울특별시 성북구 동소문동4가 133-3
카페,네이버후드,성북구,37.6007187,126.9951254,서울특별시 성북구 대사관로 133,02-747-6730,카페,실내, ,목줄,카페카페성북구실내목줄대사관로대사관로,대사관로,대한민국 서울특별시 성북구 대사관로 133
카페,혜화문아래,성북구,37.58870958,127.004376,서울특별시 성북구 창경궁로43길 16,02-733-9901,카페,테라스, ,"목줄,입마개",카페카페성북구테라스목줄 입마개성북동1가성북동1가,성북동1가,대한민국 서울특별시 성북구 성북동1가 35-4
카페,에이머그,강북구,37.63755505,127.0226542,서울특별시 강북구 노해로 21,02-6953-2629,카페,실내, ,목줄,카페카페강북구실내목줄수유3동수유3동,수유3동,대한민국 서울특별시 강북구 수유3동 2-2
카페,카페평화,강북구,37.64357381,127.0046373,서울특별시 강북구 4.19로25길 13,010-3302-6263,카페,실외, ,목줄,카페카페강북구실외목줄수유동수유동,수유동,대한민국 서울특별시 강북구 수유동 535-79
카페,스파웃커피,강북구,37.64672082,127.0218646,서울특별시 강북구 노해로33길 49,010-6697-5576,카페,실내, ,목줄,카페카페강북구실내목줄수유2동수유2동,수유2동,대한민국 서울특별시 강북구 수유2동 659-32
카페,키치,강북구,37.64150593,127.0289574,서울특별시 강북구 도봉로 387,070-8244-0030,카페,실내, ,목줄,카페카페강북구실내목줄수유동수유동,수유동,대한민국 서울특별시 강북구 수유동 173-15
카페,더달다 카페,강북구,37.64446268,127.0056524,서울특별시 강북구 4.19로21길 18,010-3489-0190,베이커리,실내, ,안기,카페베이커리강북구실내안기4.194.19,4.19,대한민국 서울특별시 강북구 4.19 로 21 길 18
카페,수유리조트,강북구,37.64009497,127.0233137,서울특별시 강북구 노해로8가길 45,02-990-9882,카페,실내, ,목줄,카페카페강북구실내목줄노해로8가길노해로8가길,노해로8가길,대한민국 서울특별시 강북구 노해로8가길 45
카페,카페앤제이,강북구,37.62845706,127.0438129,서울특별시 강북구 한천로109길 3,02-987-1253,카페,테라스, ,목줄,카페카페강북구테라스목줄번3동번3동,번3동,대한민국 서울특별시 강북구 번3동 268-2
카페,컴 폴 커피,강북구,37.63483939,127.0280785,서울특별시 강북구 덕릉로 130,010-6832-9199,카페,실내, ,목줄,카페카페강북구실내목줄번2동번2동,번2동,대한민국 서울특별시 강북구 번2동 441-9
카페,유월보름,강북구,37.62061138,127.0272738,서울특별시 강북구 도봉로29길 16,070-4184-0615,카페,실내, ,목줄,카페카페강북구실내목줄미아동미아동,미아동,대한민국 서울특별시 강북구 미아동 323-51
카페,카페 라온,강북구,37.61211068,127.0349832,서울특별시 강북구 오패산로 114,02-987-0831,카페,실내, ,목줄,카페카페강북구실내목줄미아동미아동,미아동,대한민국 서울특별시 강북구 미아동 49-164
카페,카페문나잇,강북구,37.62613743,127.0271454,서울특별시 강북구 솔매로50길 7,070-4046-0915,카페,실내, ,목줄,카페카페강북구실내목줄솔매로50길솔매로50길,솔매로50길,대한민국 서울특별시 강북구 솔매로50길 7
카페,하루당,강북구,37.626002,127.0256215,서울특별시 강북구 솔매로 122,010-8430-2830,카페,"실내,테라스", ,목줄,카페카페강북구실내 테라스목줄미아동미아동,미아동,대한민국 서울특별시 강북구 미아동 304-25
카페,매로우,도봉구,37.63759741,127.0391017,서울특별시 도봉구 덕릉로60다길 34,010-6352-1038,카페,실내, ,목줄,카페카페도봉구실내목줄창동창동,창동,대한민국 서울특별시 도봉구 창동 560-44
카페,카페7179,도봉구,37.64662516,127.0389048,서울특별시 도봉구 도봉로110길 97,010-9870-9717,카페,실내, ,목줄,카페카페도봉구실내목줄창동창동,창동,대한민국 서울특별시 도봉구 창동 676-77
카페,카페 그리너리티,도봉구,37.64777801,127.0385003,서울특별시 도봉구 노해로62길 80,010-2514-6469,카페,실내, ,안기,카페카페도봉구실내안기노해로62길노해로62길,노해로62길,대한민국 서울특별시 도봉구 노해로62길 80
카페,키웨스트 연산군묘점,도봉구,37.66259114,127.0210688,서울특별시 도봉구 방학로17길 85,02-562-3356,카페,테라스, ,목줄,카페카페도봉구테라스목줄방학동방학동,방학동,대한민국 서울특별시 도봉구 방학동 586-7
카페,다니맘,노원구,37.65969337,127.0710165,서울특별시 노원구 한글비석로23길 26,010-9090-9507,카페,"실내,루프탑","평일&주말 11:00 - 21:00 , 매주 화요일 휴무",목줄,카페카페노원구실내 루프탑목줄상계동상계동,상계동,대한민국 서울특별시 노원구 상계동 389-343
카페,제이제곱 카페,강북구,37.61384767,127.0315744,서울특별시 강북구 도봉로10나길 17,010-4883-4249,카페,실내,"매일 12:00 - 22:00 , 매주 월요일 휴무",매너벨트,카페카페강북구실내매너벨트송중동송중동,송중동,대한민국 서울특별시 강북구 송중동 54-40
카페,하루당,강북구,37.626002,127.0256215,서울특별시 강북구 솔매로 122,010-8430-2830,카페,"실내,테라스","매일 10:00 - 22:00 , 매주 월요일 휴무",목줄,카페카페강북구실내 테라스목줄미아동미아동,미아동,대한민국 서울특별시 강북구 미아동 304-25
카페,카페 에덴,도봉구,37.66294522,127.0183998,서울특별시 도봉구 방학로 306,02-3491-3331,카페,실외, ,없음,카페카페도봉구실외없음방학로방학로,방학로,대한민국 서울특별시 도봉구 방학로 306
카페,스위트가든,도봉구,37.66196512,127.0374795,서울특별시 도봉구 방학로5길 16,02-900-1232,브런치,실외, ,목줄,카페브런치도봉구실외목줄방학동방학동,방학동,대한민국 서울특별시 도봉구 방학동 264-62
카페,카페아크,도봉구,37.65941764,127.0300835,서울특별시 도봉구 시루봉로6길 53,02-903-9193,카페,테라스, ,목줄,카페카페도봉구테라스목줄쌍문동쌍문동,쌍문동,대한민국 서울특별시 도봉구 쌍문동 243-4
카페,달콤Pick,도봉구,37.66079026,127.0376882,서울특별시 도봉구 방학로5길 44,02-907-2701,카페,실내, ,목줄,카페카페도봉구실내목줄쌍문2동쌍문2동,쌍문2동,대한민국 서울특별시 도봉구 쌍문2동 8-8
카페,휘드카페,도봉구,37.65769624,127.0384146,서울특별시 도봉구 방학로3길 127,02-990-7333,카페,테라스, ,목줄,카페카페도봉구테라스목줄쌍문2동쌍문2동,쌍문2동,대한민국 서울특별시 도봉구 쌍문2동 571
카페,커피배우다,도봉구,37.65060312,127.0137654,서울특별시 도봉구 삼양로142길 7,010-4643-5712,카페,실내, ,목줄,카페카페도봉구실내목줄쌍문동쌍문동,쌍문동,대한민국 서울특별시 도봉구 쌍문동 423-94
카페,마이림,도봉구,37.64976788,127.0231486,서울특별시 도봉구 우이천로34길 13,010-2031-7967,카페,실내, ,목줄,카페카페도봉구실내목줄쌍문동쌍문동,쌍문동,대한민국 서울특별시 도봉구 쌍문동 449-7
카페,카페티끌,도봉구,37.65138757,127.0342784,서울특별시 도봉구 노해로 235,010-7477-5772,카페,실내, ,캐리어,카페카페도봉구실내캐리어쌍문동쌍문동,쌍문동,대한민국 서울특별시 도봉구 쌍문동 85-39
카페,우리행성,노원구,37.6554957,127.0694952,서울특별시 노원구 노원로32길 42-22,02-933-1214,카페,실외, ,"목줄,입마개",카페카페노원구실외목줄 입마개상계동상계동,상계동,대한민국 서울특별시 노원구 상계동 321-30
카페,케슬리,노원구,37.65944318,127.0615323,서울특별시 노원구 상계로1길 74,02-933-8537,카페,실외, ,목줄,카페카페노원구실외목줄상계동상계동,상계동,대한민국 서울특별시 노원구 상계동 581-6
카페,요거프레소 노원문화점,노원구,37.65759626,127.0673021,서울특별시 노원구 상계로 113,070-8959-3391,카페,실내, ,목줄,카페카페노원구실내목줄상계2동상계2동,상계2동,대한민국 서울특별시 노원구 상계2동 374-1
카페,케어프리,노원구,37.67635957,127.0560312,서울특별시 노원구 동일로242가길 14-6,070-7808-2018,카페,실내, ,목줄,카페카페노원구실내목줄상계동상계동,상계동,대한민국 서울특별시 노원구 상계동 1119-22
카페,빵순희,노원구,37.64958708,127.0789128,서울특별시 노원구 중계로 195,070-4415-9747,카페,실내, ,목줄,카페카페노원구실내목줄중계본동중계본동,중계본동,대한민국 서울특별시 노원구 중계본동 364
카페,시즌,노원구,37.65786907,127.0627251,서울특별시 노원구 상계로3길 38-2,010-8769-7050,카페,실내, ,목줄,카페카페노원구실내목줄상계동상계동,상계동,대한민국 서울특별시 노원구 상계동 358-26
카페,502세컨즈카페,노원구,37.63661517,127.0656682,서울특별시 노원구 섬밭로 232,070-4465-7996,카페,실내, ,목줄,카페카페노원구실내목줄하계2동하계2동,하계2동,대한민국 서울특별시 노원구 하계2동 132
카페,이너모스트,노원구,37.62382614,127.0729961,서울특별시 노원구 동일로183길 12-14,010-8737-5593,카페,실내, ,목줄,카페카페노원구실내목줄공릉동공릉동,공릉동,대한민국 서울특별시 노원구 공릉동 494-4
카페,카페밤비,은평구,37.62765154,126.9364951,서울특별시 은평구 연서로44길 55,010-3207-2773,카페,실외, ,목줄,카페카페은평구실외목줄진관동진관동,진관동,대한민국 서울특별시 은평구 진관동 151-28
카페,스윗인,은평구,37.63456957,126.9268349,서울특별시 은평구 진관2로 77,02-356-9096,카페,실내, ,목줄,카페카페은평구실내목줄진관동진관동,진관동,대한민국 서울특별시 은평구 진관동 312-69
카페,라파엘스,은평구,37.63419225,126.9176955,서울특별시 은평구 통일로 1030,070-7576-2564,카페,실내, ,안기,카페카페은평구실내안기통일로통일로,통일로,대한민국 서울특별시 은평구 통일로 1030
카페,지브릭커피,은평구,37.63714222,126.9359283,서울특별시 은평구 연서로48길 12,02-517-1474,카페,실외, ,목줄,카페카페은평구실외목줄진관동진관동,진관동,대한민국 서울특별시 은평구 진관동 144-7
카페,카페볼가심,은평구,37.64190251,126.9395689,서울특별시 은평구 진관길 10,02-356-3631,카페,테라스, ,목줄,카페카페은평구테라스목줄진관동진관동,진관동,대한민국 서울특별시 은평구 진관동 127-22
카페,YM ESPRESSO ROOM,은평구,37.64066733,126.9203998,서울특별시 은평구 진관3로 43-9,010-4176-0301,카페,실내, ,목줄,카페카페은평구실내목줄진관동진관동,진관동,대한민국 서울특별시 은평구 진관동 65-17
카페,풍경A,은평구,37.5981159,126.9087701,서울특별시 은평구 가좌로 334,070-8270-1717,카페,실내, ,목줄,카페카페은평구실내목줄신사1동신사1동,신사1동,대한민국 서울특별시 은평구 신사1동 19-99
카페,hoffen coffee,은평구,37.60568913,126.9161303,서울특별시 은평구 역말로 50-1,010-5304-8017,카페,실내, ,목줄,카페카페은평구실내목줄역촌동역촌동,역촌동,대한민국 서울특별시 은평구 역촌동 22-52
카페,빈트리,은평구,37.59314121,126.922853,서울특별시 은평구 백련산로 83,010-3712-1773,카페,실내, ,목줄,카페카페은평구실내목줄응암2동응암2동,응암2동,대한민국 서울특별시 은평구 응암2동 241-42
카페,필구커피,은평구,37.59300241,126.9155533,서울특별시 은평구 불광천길 442-29,02-2135-2180,카페,실내, ,목줄,카페카페은평구실내목줄응암동응암동,응암동,대한민국 서울특별시 은평구 응암동 582-18
카페,응암동커피,은평구,37.58963624,126.9186722,서울특별시 은평구 가좌로 212-10,010-9926-9325,카페,실내, ,목줄,카페카페은평구실내목줄응암3동응암3동,응암3동,대한민국 서울특별시 은평구 응암3동 325-7
카페,앤슬로,은평구,37.5903811,126.917512,서울특별시 은평구 응암로 206,010-3232-4318,카페,실내, ,목줄,카페카페은평구실내목줄응암로응암로,응암로,대한민국 서울특별시 은평구 응암로 206
카페,미미샌드위치 앤 커피,은평구,37.61470107,126.9214586,서울특별시 은평구 통일로73길 28-1,02-356-9599,카페,실내, ,목줄,카페카페은평구실내목줄대조동대조동,대조동,대한민국 서울특별시 은평구 대조동 205-14
카페,이연,은평구,37.61247342,126.9262814,서울특별시 은평구 통일로71길 24-17,010-3669-5780,카페,실내, ,목줄,카페카페은평구실내목줄대조동대조동,대조동,대한민국 서울특별시 은평구 대조동 83-35
카페,카페 달력,은평구,37.61197028,126.9205484,서울특별시 은평구 연서로18길 28-2,070-7376-0910,카페,실내, ,목줄,카페카페은평구실내목줄연서로18길연서로18길,연서로18길,대한민국 서울특별시 은평구 연서로18길 28-2
카페,공음,은평구,37.61255394,126.9300881,서울특별시 은평구 통일로68길 14,070-7576-3264,카페,실내, ,목줄,카페카페은평구실내목줄불광동불광동,불광동,대한민국 서울특별시 은평구 불광동 268-3
카페,피포유 카페,은평구,37.60284497,126.9359558,서울특별시 은평구 통일로 630,010-8523-6888,베이커리,실내, ,목줄,카페베이커리은평구실내목줄녹번동녹번동,녹번동,대한민국 서울특별시 은평구 녹번동 21-158
카페,디저트솜,은평구,37.60157316,126.9335565,서울특별시 은평구 은평로21길 6,070-7677-9988,카페,"실내,테라스", ,목줄,카페카페은평구실내 테라스목줄녹번동녹번동,녹번동,대한민국 서울특별시 은평구 녹번동 43-39
카페,녹음커피바,은평구,37.60647945,126.9323603,서울특별시 은평구 녹번로6길 5-24,010-3159-4232,카페,실내, ,"목줄,안기",카페카페은평구실내목줄 안기녹번동녹번동,녹번동,대한민국 서울특별시 은평구 녹번동 27-2
카페,flot,은평구,37.603088,126.9262938,서울특별시 은평구 서오릉로 20-1,02-355-4862,카페,실내, ,목줄,카페카페은평구실내목줄녹번동녹번동,녹번동,대한민국 서울특별시 은평구 녹번동 82-42
카페,커피사피엔스 가재울점,서대문구,37.57548326,126.9160975,서울특별시 서대문구 거북골로 120,010-8312-3914,카페,실내, ,목줄,카페카페서대문구실내목줄남가좌2동남가좌2동,남가좌2동,대한민국 서울특별시 서대문구 남가좌2동 240-8
카페,모과나무카페,서대문구,37.5748018,126.9244912,서울특별시 서대문구 모래내로 231,02-302-9952,카페,실내, ,목줄,카페카페서대문구실내목줄남가좌동남가좌동,남가좌동,대한민국 서울특별시 서대문구 남가좌동 330-43
카페,앵두네과자점,서대문구,37.57946565,126.9257811,서울특별시 서대문구 증가로10길 70-8,070-7576-3710,카페,실내, ,목줄,카페카페서대문구실내목줄증가로10길증가로10길,증가로10길,대한민국 서울특별시 서대문구 증가로10길 70-8
카페,slowly,서대문구,37.58493431,126.9486298,서울특별시 서대문구 통일로 392,070-7545-0693,카페,실내, ,목줄,카페카페서대문구실내목줄통일로통일로,통일로,대한민국 서울특별시 서대문구 통일로 392
카페,더그커피바,서대문구,37.59209515,126.9466363,서울특별시 서대문구 세검정로 52-10,010-5185-4758,카페,실내, ,목줄,카페카페서대문구실내목줄홍제3동홍제3동,홍제3동,대한민국 서울특별시 서대문구 홍제3동 266-41
카페,이알커피,서대문구,37.57645623,126.9309471,서울특별시 서대문구 홍연길 80,010-3463-1105,카페,실내, ,목줄,카페카페서대문구실내목줄연희동연희동,연희동,대한민국 서울특별시 서대문구 연희동 715-3
카페,모그커피,서대문구,37.56818343,126.9304256,서울특별시 서대문구 연희맛로 31-10,010-4650-0629,카페,실내, ,목줄,카페카페서대문구실내목줄연희동연희동,연희동,대한민국 서울특별시 서대문구 연희동 연희맛로 31-10
카페,라우터커피,서대문구,37.56900188,126.927996,서울특별시 서대문구 연희로11마길 12,070-4226-0815,카페,실내, ,목줄,카페카페서대문구실내목줄연희동연희동,연희동,대한민국 서울특별시 서대문구 연희동 115-7 1층 102호
카페,래핑폭스,서대문구,37.56749391,126.9283211,서울특별시 서대문구 연희로11나길 5,02-6401-2999,카페,실내, ,목줄,카페카페서대문구실내목줄연희로11나길연희로11나길,연희로11나길,대한민국 서울특별시 서대문구 연희로11나길 5
카페,Coloured Bean,서대문구,37.56814033,126.929007,서울특별시 서대문구 연희로11가길 8-8,010-4515-4887,카페,실내, ,목줄,카페카페서대문구실내목줄연희동연희동,연희동,대한민국 서울특별시 서대문구 연희동 129-6
카페,디폴트벨류,서대문구,37.56618579,126.9273531,서울특별시 서대문구 성산로 333,02-2293-3889,카페,실내, ,목줄,카페카페서대문구실내목줄연희동연희동,연희동,대한민국 서울특별시 서대문구 연희동 192-17
카페,행복감,서대문구,37.56634872,126.9275497,서울특별시 서대문구 연희로11가길 51,02-6052-5380,카페,실내, ,"목줄,매너벨트",카페카페서대문구실내목줄 매너벨트연희동연희동,연희동,대한민국 서울특별시 서대문구 연희동 192-28
카페,tuuli,서대문구,37.5790483,126.9349226,서울특별시 서대문구 홍제천로 198,02-6351-1510,카페,실내, ,목줄,카페카페서대문구실내목줄연희동연희동,연희동,대한민국 서울특별시 서대문구 연희동 170-219
카페,앤트러사이트 연희점,서대문구,37.56969292,126.9328373,서울특별시 서대문구 연희로 135,02-332-7650,카페,실내, ,목줄,카페카페서대문구실내목줄연희동연희동,연희동,대한민국 서울특별시 서대문구 연희동 89-19
카페,sum,서대문구,37.56552131,126.9458158,서울특별시 서대문구 성산로 553,010-6222-4196,카페,실내, ,목줄,카페카페서대문구실내목줄신촌동신촌동,신촌동,대한민국 서울특별시 서대문구 신촌동 111-12
카페,양카페플랜트,종로구,37.57572903,126.9693336,서울특별시 종로구 사직로 94,02-733-9504,카페,실내, ,목줄,카페카페종로구실내목줄필운동필운동,필운동,대한민국 서울특별시 종로구 필운동 246-1
카페,veganique,서대문구,37.55946622,126.9449683,서울특별시 서대문구 이화여대길 52-35,010-4518-8290,카페,실내, ,목줄,카페카페서대문구실내목줄이화여대길이화여대길,이화여대길,대한민국 서울특별시 서대문구 이화여대길 52-35
카페,휘겔리,종로구,37.57397419,126.9712467,서울특별시 종로구 사직로8길 24,070-4193-4833,브런치,테라스, ,목줄,카페브런치종로구테라스목줄내수동내수동,내수동,대한민국 서울특별시 종로구 내수동 72
카페,북한산제빵소 광화문점,종로구,37.57278804,126.9712687,서울특별시 종로구 경희궁2길 10,070-8833-3546,베이커리,테라스, ,목줄,카페베이커리종로구테라스목줄내수동내수동,내수동,대한민국 서울특별시 종로구 내수동 110-9
카페,사직커피,종로구,37.5738226,126.9650574,서울특별시 종로구 사직로 49-4,070-8845-3527,카페,실내, ,목줄,카페카페종로구실내목줄사직로사직로,사직로,대한민국 서울특별시 종로구 사직로 49-4
카페,소이로움,종로구,37.57971024,126.9685883,서울특별시 종로구 필운대로 41,02-586-8088,카페,실내, ,목줄,카페카페종로구실내목줄청운효자동청운효자동,청운효자동,대한민국 서울특별시 종로구 청운효자동 59
카페,풍류관,종로구,37.58027458,126.9674567,서울특별시 종로구 필운대로5나길 20-12,010-7923-0006,카페,실내, ,목줄,카페카페종로구실내목줄필운대로5가길필운대로5가길,필운대로5가길,대한민국 서울특별시 종로구 필운대로5가길 31
카페,우아시스 카페,서대문구,37.55745409,126.9491356,서울특별시 서대문구 신촌로27길 39-2,070-7779-5052,카페,실내, ,목줄,카페카페서대문구실내목줄신촌로27길신촌로27길,신촌로27길,대한민국 서울특별시 서대문구 신촌로27길 41
카페,레이첼티 카페,서대문구,37.55969,126.9528112,서울특별시 서대문구 북아현로1길 50,010-7327-7771,카페,실내, ,목줄,카페카페서대문구실내목줄북아현로5라길북아현로5라길,북아현로5라길,대한민국 서울특별시 서대문구 북아현로5라길 9-8
카페,커피 스니퍼,중구,37.5633802,126.9784369,서울특별시 중구 세종대로16길 27,02-3789-1781,카페,실내, ,목줄,카페카페중구실내목줄북창동북창동,북창동,대한민국 서울특별시 중구 북창동 11-3
카페,시엠프레꼬모도밍고,용산구,37.55131113,126.9777915,서울특별시 용산구 후암로34길 11,070-4150-0123,카페,실내, ,목줄,카페카페용산구실내목줄후암동후암동,후암동,대한민국 서울특별시 용산구 후암동 41-2
카페,풀오브파운드,종로구,37.57560715,126.9712443,서울특별시 종로구 사직로12길 1-2,02-720-4009,카페,실내, ,목줄,카페카페종로구실내목줄내자동내자동,내자동,대한민국 서울특별시 종로구 내자동 109-2
카페,내자상회,종로구,37.57578139,126.9704692,서울특별시 종로구 사직로10길 3,070-7755-0142,카페,실내, ,목줄,카페카페종로구실내목줄내자동내자동,내자동,대한민국 서울특별시 종로구 내자동 260-1
카페,도깨비코티지,용산구,37.55326904,126.9770569,서울특별시 용산구 소월로2나길 6-1,02-717-0435,브런치,실내, ,목줄,카페브런치용산구실내목줄소월로2나길소월로2나길,소월로2나길,대한민국 서울특별시 용산구 소월로2나길 6-1
카페,도미니칸조,마포구,37.5771097,126.8914039,서울특별시 마포구 월드컵북로 361,02-6393-0774,카페,실내, ,안기,카페카페마포구실내안기상암동상암동,상암동,대한민국 서울특별시 마포구 상암동 1653
카페,듀이커피,마포구,37.57650472,126.89647,서울특별시 마포구 성암로15길 56,010-6256-9955,카페,실내, ,목줄,카페카페마포구실내목줄상암동상암동,상암동,대한민국 서울특별시 마포구 상암동 2-127
카페,행복커피,마포구,37.58209264,126.8889847,서울특별시 마포구 월드컵북로54길 25,02-308-7984,카페,실내, ,목줄,카페카페마포구실내목줄상암동상암동,상암동,대한민국 서울특별시 마포구 상암동 256-2
카페,세이트커피,마포구,37.57541731,126.8967731,서울특별시 마포구 월드컵북로42가길 28,010-6886-1575,카페,실내, ,목줄,카페카페마포구실내목줄상암동상암동,상암동,대한민국 서울특별시 마포구 상암동 2-192
카페,공상온도,마포구,37.55765748,126.9198091,서울특별시 마포구 동교로23길 40,02-336-0247,카페,실내, ,목줄,카페카페마포구실내목줄동교로23길동교로23길,동교로23길,대한민국 서울특별시 마포구 동교로23길 40
카페,W.P 2호점,마포구,37.55809956,126.9091815,서울특별시 마포구 성미산로 8,010-5641-2909,카페,테라스, ,목줄,카페카페마포구테라스목줄성산동성산동,성산동,대한민국 서울특별시 마포구 성산동 293-10
카페,오베스트,마포구,37.56522841,126.9166121,서울특별시 마포구 연남로11길 41,070-8098-5430,카페,실내, ,목줄,카페카페마포구실내목줄연남로11길연남로11길,연남로11길,대한민국 서울특별시 마포구 연남로11길 41
카페,쓰리고카페,마포구,37.56403299,126.9107263,서울특별시 마포구 성산로6길 20,02-332-6040,카페,실내, ,목줄,카페카페마포구실내목줄성산동성산동,성산동,대한민국 서울특별시 마포구 성산동 82
카페,언더독 커피,마포구,37.56179229,126.9175213,서울특별시 마포구 성미산로15길 13,010-9320-7833,카페,실내, ,목줄,카페카페마포구실내목줄성산1동성산1동,성산1동,대한민국 서울특별시 마포구 성산1동 624-9
카페,쇼콜라윰,마포구,37.55839689,126.9135026,서울특별시 마포구 월드컵북로7길 76-14,02-336-1027,베이커리,실내, ,목줄,카페베이커리마포구실내목줄성산동성산동,성산동,대한민국 서울특별시 마포구 성산동 572-717
카페,카페 보이드,마포구,37.56318707,126.9142856,서울특별시 마포구 월드컵북로12안길 35,010-5541-8957,카페,실내, ,목줄,카페카페마포구실내목줄월드컵북로12안길월드컵북로12안길,월드컵북로12안길,대한민국 서울특별시 마포구 월드컵북로12안길 35
카페,도르르,마포구,37.56689125,126.9105337,서울특별시 마포구 월드컵북로 162,070-4151-3697,카페,실내, ,목줄,카페카페마포구실내목줄월드컵북로월드컵북로,월드컵북로,대한민국 서울특별시 마포구 월드컵북로 162
카페,턴다운서비스,마포구,37.56381877,126.9266086,서울특별시 마포구 동교로50길 7,010-2468-8605,카페,실내, ,목줄,카페카페마포구실내목줄동교로52길동교로52길,동교로52길,대한민국 서울특별시 마포구 동교로52길 4-5
카페,렌테,마포구,37.56364767,126.9231972,서울특별시 마포구 동교로41길 31,010-4051-2416,카페,실내, ,목줄,카페카페마포구실내목줄서울서울,서울,대한민국 서울특별시 마포구 서울 마포구 연남동 254-8 3층
카페,리이슈커피로스터스,마포구,37.56269573,126.921362,서울특별시 마포구 연남로 35,02-336-6884,카페,실내, ,목줄,카페카페마포구실내목줄연남동연남동,연남동,대한민국 서울특별시 마포구 연남동 연남로 35
카페,커피 그래피티 연남,마포구,37.56394745,126.926493,서울특별시 마포구 동교로 278,070-7677-5801,카페,실내, ,목줄,카페카페마포구실내목줄연남동연남동,연남동,대한민국 서울특별시 마포구 연남동 224-23
카페,커피냅로스터스 연남동,마포구,37.56642841,126.9202133,서울특별시 마포구 성미산로27길 70,02-332-4131,카페,실내, ,목줄,카페카페마포구실내목줄성미산로27길성미산로27길,성미산로27길,대한민국 서울특별시 마포구 성미산로27길 70
카페,어나더룸,마포구,37.56559058,126.923339,서울특별시 마포구 성미산로29안길 19-4,010-5134-1306,카페,실내, ,목줄,카페카페마포구실내목줄성미산로29안길성미산로29안길,성미산로29안길,대한민국 서울특별시 마포구 성미산로29안길 27-3
카페,그림카페,마포구,37.56525188,126.9238754,서울특별시 마포구 성미산로 161-10,010-2612-8103,카페,실내, ,목줄,카페카페마포구실내목줄성미산로성미산로,성미산로,대한민국 서울특별시 마포구 성미산로 161-10
카페,연남방앗간,마포구,37.56205666,126.9231598,서울특별시 마포구 동교로29길 34,070-4200-2200,카페,테라스, ,목줄,카페카페마포구테라스목줄연남동연남동,연남동,대한민국 서울특별시 마포구 연남동 257-22
카페,메종미하벨,마포구,37.56505845,126.9216968,서울특별시 마포구 성미산로29길 29-9,070-4155-4444,카페,실내, ,목줄,카페카페마포구실내목줄연남동연남동,연남동,대한민국 서울특별시 마포구 연남동 245-48
카페,씨스루 홍대연남점,마포구,37.56307346,126.9255839,서울특별시 마포구 동교로 266-6,02-336-9936,카페,실내, ,목줄,카페카페마포구실내목줄연남동연남동,연남동,대한민국 서울특별시 마포구 연남동 228-19
카페,마나올라나,마포구,37.56510695,126.9231097,서울특별시 마포구 성미산로 153-16,010-7262-1532,브런치,실내, ,목줄,카페브런치마포구실내목줄성미산로성미산로,성미산로,대한민국 서울특별시 마포구 성미산로 153-16
카페,러프글로스,마포구,37.56602749,126.92227,서울특별시 마포구 동교로51길 87,010-2741-7508,카페,테라스, ,목줄,카페카페마포구테라스목줄연남동연남동,연남동,대한민국 서울특별시 마포구 연남동 241-58
카페,카페청사진,마포구,37.55502137,126.9050324,서울특별시 마포구 포은로 89,010-6292-2498,카페,실내, ,목줄,카페카페마포구실내목줄망원1동망원1동,망원1동,대한민국 서울특별시 마포구 망원1동 404-39
카페,찬찬커피로스터스,마포구,37.5598191,126.9021763,서울특별시 마포구 방울내로 61,02-6397-8008,카페,실내, ,목줄,카페카페마포구실내목줄방울내로방울내로,방울내로,대한민국 서울특별시 마포구 방울내로 61
카페,트랙26,마포구,37.5602212,126.8995747,서울특별시 마포구 방울내로9안길 71,010-3122-7107,카페,실내, ,목줄,카페카페마포구실내목줄망원동망원동,망원동,대한민국 서울특별시 마포구 망원동 466-1
카페,페트롤 플레이스,마포구,37.5537428,126.9096697,서울특별시 마포구 동교로 67,02-336-5826,카페,실내, ,목줄,카페카페마포구실내목줄망원동망원동,망원동,대한민국 서울특별시 마포구 망원동 385-39
카페,로스터제임스 커피랩,마포구,37.55588344,126.908674,서울특별시 마포구 월드컵로15길 23,010-4444-1531,카페,실내, ,목줄,카페카페마포구실내목줄월드컵로15길월드컵로15길,월드컵로15길,대한민국 서울특별시 마포구 월드컵로15길 21
카페,오로지,마포구,37.55634044,126.9081137,서울특별시 마포구 월드컵로19길 25,010-2555-3285,카페,실내, ,목줄,카페카페마포구실내목줄망원1동망원1동,망원1동,대한민국 서울특별시 마포구 망원1동 57-67
카페,604seoul,마포구,37.55308796,126.9075819,서울특별시 마포구 동교로 49,070-8806-0604,카페,실내, ,목줄,카페카페마포구실내목줄동교로동교로,동교로,대한민국 서울특별시 마포구 동교로 49
카페,레코즈커피,마포구,37.55296142,126.9096152,서울특별시 마포구 월드컵로7길 44,010-3029-7995,카페,실내, ,목줄,카페카페마포구실내목줄합정동합정동,합정동,대한민국 서울특별시 마포구 합정동 432-48
카페,파스텔커피웍스 본점,마포구,37.54690034,126.9142441,서울특별시 마포구 독막로2길 38,02-322-7549,카페,실내, ,목줄,카페카페마포구실내목줄합정동합정동,합정동,대한민국 서울특별시 마포구 합정동 371-18
카페,레이크커피바,마포구,37.55431447,126.9179167,서울특별시 마포구 동교로22길 38,010-7356-3017,카페,실내, ,"목줄,매너벨트",카페카페마포구실내목줄 매너벨트서교동서교동,서교동,대한민국 서울특별시 마포구 서교동 464-28
카페,토리블루,마포구,37.54488252,126.9226724,서울특별시 마포구 토정로 106,010-7577-8846,카페,실내, ,목줄,카페카페마포구실내목줄토정로토정로,토정로,대한민국 서울특별시 마포구 토정로 106
카페,카페나린1.5,마포구,37.54824713,126.9213365,서울특별시 마포구 와우산로13길 49-11,010-5417-6556,카페,실내, ,목줄,카페카페마포구실내목줄서강동서강동,서강동,대한민국 서울특별시 마포구 서강동 314-8
카페,카페 틈이 있는 곳,마포구,37.54818827,126.9218398,서울특별시 마포구 독막로15길 5,02-325-0525,카페,실내, ,목줄,카페카페마포구실내목줄상수동상수동,상수동,대한민국 서울특별시 마포구 상수동 72-1
카페,리플레이,마포구,37.54614691,126.9231144,서울특별시 마포구 와우산로 20,02-336-1448,카페,실내, ,목줄,카페카페마포구실내목줄상수동상수동,상수동,대한민국 서울특별시 마포구 상수동 331-14
카페,아날로그가든,마포구,37.55547108,126.9180481,서울특별시 마포구 동교로 145,010-9213-8560,카페,실내, ,"목줄,매너벨트",카페카페마포구실내목줄 매너벨트서교동서교동,서교동,대한민국 서울특별시 마포구 서교동 446-58
카페,헤이미쉬,마포구,37.5617398,126.9255779,서울특별시 마포구 동교로38길 27,010-4405-1029,카페,실내, ,목줄,카페카페마포구실내목줄연남동연남동,연남동,대한민국 서울특별시 마포구 연남동 390-25
카페,맥코이커피,마포구,37.5641886,126.9227471,서울특별시 마포구 성미산로 147,010-7347-2211,카페,실내, ,목줄,카페카페마포구실내목줄연남동연남동,연남동,대한민국 서울특별시 마포구 연남동 성미산로 147
카페,샌드커피 논탄토,마포구,37.55927117,126.9241748,서울특별시 마포구 동교로 212-16,02-336-8020,카페,실내, ,목줄,카페카페마포구실내목줄동교동동교동,동교동,대한민국 서울특별시 마포구 동교동 153-15
카페,카페 플랫,마포구,37.55350482,126.9322434,서울특별시 마포구 서강로9길 24,02-6015-0087,카페,실내, ,목줄,카페카페마포구실내목줄서강동서강동,서강동,대한민국 서울특별시 마포구 서강동 3-241
카페,카페리카르도,마포구,37.55005592,126.9325997,서울특별시 마포구 서강로 78,070-4827-5701,카페,실내, ,캐리어,카페카페마포구실내캐리어창전로창전로,창전로,대한민국 서울특별시 마포구 창전로 85
카페,블로트커피,마포구,37.55148603,126.9228158,서울특별시 마포구 와우산로19길 6-5,070-8820-2480,카페,실내, ,목줄,카페카페마포구실내목줄서교동서교동,서교동,대한민국 서울특별시 마포구 서교동 362-12
카페,춘삼,마포구,37.54979424,126.9222862,서울특별시 마포구 와우산로15길 16,010-9965-9526,카페,실내, ,목줄,카페카페마포구실내목줄와우산로15길와우산로15길,와우산로15길,대한민국 서울특별시 마포구 와우산로15길 14
카페,인솔커피 상수점,마포구,37.54712081,126.9235515,서울특별시 마포구 독막로18길 16,02-2135-3166,카페,실내, ,목줄,카페카페마포구실내목줄상수동상수동,상수동,대한민국 서울특별시 마포구 상수동 독막로18길 16
카페,카페 앰핑,마포구,37.55425837,126.9385862,서울특별시 마포구 신촌로20길 23,010-3441-7745,카페,실내, ,목줄,카페카페마포구실내목줄노고산동노고산동,노고산동,대한민국 서울특별시 마포구 노고산동 33-10
카페,알레스카페,마포구,37.5545079,126.9379672,서울특별시 마포구 백범로1길 16,02-702-6552,카페,실내, ,목줄,카페카페마포구실내목줄노고산동노고산동,노고산동,대한민국 서울특별시 마포구 노고산동 31-25
카페,퍼머넌트해비탯,마포구,37.54829531,126.9430985,서울특별시 마포구 백범로15길 17,070-8880-0066,카페,실내, ,목줄,카페카페마포구실내목줄대흥동대흥동,대흥동,대한민국 서울특별시 마포구 대흥동 163-24
카페,뜨랑블랑,마포구,37.53742812,126.9452828,서울특별시 마포구 마포대로4나길 42,010-8814-2544,카페,실내, ,목줄,카페카페마포구실내목줄마포동마포동,마포동,대한민국 서울특별시 마포구 마포동 236-5
카페,와샌 와플&샌드위치,마포구,37.5496517,126.9606388,서울특별시 마포구 만리재로 112-14,02-703-8023,카페,실내, ,목줄,카페카페마포구실내목줄공덕동공덕동,공덕동,대한민국 서울특별시 마포구 공덕동 27-11
카페,벤치 커피 스튜디오,서대문구,37.55780396,126.9422901,서울특별시 서대문구 연세로2마길 14,02-365-5999,카페,실내, ,목줄,카페카페서대문구실내목줄대현동대현동,대현동,대한민국 서울특별시 서대문구 대현동 104-18
카페,파이홀,서대문구,37.55704588,126.9350558,서울특별시 서대문구 연세로5나길 20,02-334-1181,카페,실내, ,목줄,카페카페서대문구실내목줄창천동창천동,창천동,대한민국 서울특별시 서대문구 창천동 57-61
카페,연두네 양과점,마포구,37.54650363,126.9456823,서울특별시 마포구 백범로 127-16,070-7766-8839,카페,실내, ,안기,카페카페마포구실내안기염리동염리동,염리동,대한민국 서울특별시 마포구 염리동 148-25
카페,그로토,마포구,37.54168783,126.9517968,서울특별시 마포구 새창로4길 9,02-702-4196,카페,실내, ,목줄,카페카페마포구실내목줄새창로4길새창로4길,새창로4길,대한민국 서울특별시 마포구 새창로4길 9
카페,오늘은 지은다방,양천구,37.522948,126.8632182,서울특별시 양천구 목동로9길 12,010-3913-8130,카페,실내, ,목줄,카페카페양천구실내목줄신정4동신정4동,신정4동,대한민국 서울특별시 양천구 신정4동 1011-15
카페,커피쥬,양천구,37.5223015,126.8440656,서울특별시 양천구 오목로 58,02-6084-0306,카페,실내, ,안기,카페카페양천구실내안기신월2동신월2동,신월2동,대한민국 서울특별시 양천구 신월2동 510-1
카페,테리브라운,강서구,37.55957489,126.8123982,서울특별시 강서구 공항대로8길 33,010-6222-5699,카페,실내, ,목줄,카페카페강서구실내목줄공항동공항동,공항동,대한민국 서울특별시 강서구 공항동 41-80
카페,플루이드,강서구,37.55985621,126.8348542,서울특별시 강서구 마곡중앙6로 70,070-7543-5080,카페,실내, ,목줄,카페카페강서구실내목줄796-5796-5,796-5,대한민국 서울특별시 강서구 796-5 마곡테크노타워 6층
카페,땡땡커피,강서구,37.56731404,126.8275549,서울특별시 강서구 마곡중앙5로 6,02-3663-9808,카페,실내, ,목줄,카페카페강서구실내목줄마곡동마곡동,마곡동,대한민국 서울특별시 강서구 마곡동 280-3
카페,홍콩다방 마곡,강서구,37.56046284,126.8343943,서울특별시 강서구 마곡중앙6로 63,070-8228-6108,카페,테라스, ,목줄,카페카페강서구테라스목줄가양1동가양1동,가양1동,대한민국 서울특별시 강서구 가양1동 384-7
카페,블랙우드 카페,강서구,37.56129159,126.8602541,서울특별시 강서구 허준로 198,070-7755-9029,카페,실내, ,목줄,카페카페강서구실내목줄가양동가양동,가양동,대한민국 서울특별시 강서구 가양동 1488
카페,카페유오유,강서구,37.5635982,126.8520237,서울특별시 강서구 양천로57길 13,010-7321-1230,카페,실내, ,목줄,카페카페강서구실내목줄가양2동가양2동,가양2동,대한민국 서울특별시 강서구 가양2동 양천로57길 13
카페,보라크레페,강서구,37.54947998,126.8346014,서울특별시 강서구 강서로 263-28,010-9063-2640,카페,실내, ,목줄,카페카페강서구실내목줄내발산동내발산동,내발산동,대한민국 서울특별시 강서구 내발산동 717-31
카페,쟈르댕카페,강서구,37.54921191,126.8333633,서울특별시 강서구 강서로45길 92-22,02-2662-9222,카페,실내, ,목줄,카페카페강서구실내목줄내발산동내발산동,내발산동,대한민국 서울특별시 강서구 내발산동 715-10
카페,브루클린커피,강서구,37.5576845,126.838935,서울특별시 강서구 강서로52길 16,02-3664-5595,카페,실내, ,목줄,카페카페강서구실내목줄1616,16,대한민국 서울특별시 강서로52길 16 2층
카페,서드팩토리,강서구,37.53253302,126.8449756,서울특별시 강서구 강서로15길 18,010-2276-5173,카페,실내, ,목줄,카페카페강서구실내목줄화곡동화곡동,화곡동,대한민국 서울특별시 강서구 화곡동 348-17
카페,카페 화곡동,강서구,37.54104269,126.833523,서울특별시 강서구 화곡로13길 26,070-8883-5558,카페,실내, ,목줄,카페카페강서구실내목줄화곡3동화곡3동,화곡3동,대한민국 서울특별시 강서구 화곡3동 1043-1
카페,우리동네카페A,강서구,37.52925134,126.8450021,서울특별시 강서구 강서로7길 49,070-7799-0906,카페,테라스, ,목줄,카페카페강서구테라스목줄강서로7길강서로7길,강서로7길,대한민국 서울특별시 강서구 강서로7길 49
카페,모디피,강서구,37.55653745,126.8607557,서울특별시 강서구 화곡로68길 132,010-5525-6278,카페,실내, ,목줄,카페카페강서구실내목줄화곡로68길화곡로68길,화곡로68길,대한민국 서울특별시 강서구 화곡로68길 132
카페,삐삐커피,강서구,37.55876377,126.8438671,서울특별시 강서구 강서로54길 93,010-5190-9029,카페,실내, ,목줄,카페카페강서구실내목줄등촌동등촌동,등촌동,대한민국 서울특별시 강서구 등촌동 667-15
카페,비에이,강서구,37.55645716,126.871809,서울특별시 강서구 양천로67길 93-23,010-9143-0879,카페,실내, ,목줄,카페카페강서구실내목줄양천로67길양천로67길,양천로67길,대한민국 서울특별시 강서구 양천로67길 93-23
카페,카페숲,구로구,37.48839353,126.831204,서울특별시 구로구 오리로13길 51,02-2685-2001,카페,실내, ,목줄,카페카페구로구실내목줄오류동오류동,오류동,대한민국 서울특별시 구로구 오류동 254-2
카페,테라하우스,구로구,37.48589874,126.850971,서울특별시 구로구 개봉로3길 87,010-8754-4267,카페,실내, ,목줄,카페카페구로구실내목줄개봉동개봉동,개봉동,대한민국 서울특별시 구로구 개봉동 362-4
카페,템트커피,구로구,37.48725777,126.8572044,서울특별시 구로구 개봉로10길 12-9,010-4275-5724,카페,실내, ,목줄,카페카페구로구실내목줄개봉3동개봉3동,개봉3동,대한민국 서울특별시 구로구 개봉3동 288-16
카페,이호점,구로구,37.50307316,126.8510992,서울특별시 구로구 고척로40길 3-1,070-4245-1001,카페,테라스, ,목줄,카페카페구로구테라스목줄고척로40길고척로40길,고척로40길,대한민국 서울특별시 구로구 고척로40길 3-1
카페,쑤다방,구로구,37.48039555,126.8926494,서울특별시 구로구 남부순환로105나길 32-1,070-4320-0210,카페,실내, ,목줄,카페카페구로구실내목줄가리봉동가리봉동,가리봉동,대한민국 서울특별시 구로구 가리봉동 134-38
카페,반하다,구로구,37.48868412,126.8898284,서울특별시 구로구 도림로 53-1,010-4409-6181,카페,실내, ,목줄,카페카페구로구실내목줄도림로도림로,도림로,대한민국 서울특별시 구로구 도림로 53-1
카페,로스티드 바이,금천구,37.45103649,126.9128224,서울특별시 금천구 금하로29길 22,010-8905-1143,카페,실내, ,목줄,카페카페금천구실내목줄금하로29길금하로29길,금하로29길,대한민국 서울특별시 금천구 금하로29길 22
카페,카페가인,금천구,37.46189692,126.9079291,서울특별시 금천구 독산로44길 61,02-807-0080,카페,실내, ,목줄,카페카페금천구실내목줄시흥4동시흥4동,시흥4동,대한민국 서울특별시 금천구 시흥4동 793-2
카페,MERRYMAY,금천구,37.46257369,126.9052188,서울특별시 금천구 독산로38길 84,02-809-5114,카페,실내, ,목줄,카페카페금천구실내목줄시흥4동시흥4동,시흥4동,대한민국 서울특별시 금천구 시흥4동 790-61
카페,감성커피 금천시흥점,금천구,37.45200959,126.910895,서울특별시 금천구 탑골로 19-6,070-4042-4986,카페,테라스, ,목줄,카페카페금천구테라스목줄시흥5동시흥5동,시흥5동,대한민국 서울특별시 금천구 시흥5동 220-71
카페,위드어나드,금천구,37.44283575,126.9046693,서울특별시 금천구 시흥대로30길 12,010-4013-5298,카페,실내, ,목줄,카페카페금천구실내목줄시흥동시흥동,시흥동,대한민국 서울특별시 금천구 시흥동 942-16
카페,요거프레소 독산점,금천구,37.46781773,126.8997267,서울특별시 금천구 시흥대로114길 30,02-852-3360,카페,실내, ,목줄,카페카페금천구실내목줄독산4동독산4동,독산4동,대한민국 서울특별시 금천구 독산4동 1029-9
카페,달리는커피 독산점,금천구,37.46408159,126.8970967,서울특별시 금천구 시흥대로 341,02-857-8163,카페,테라스, ,목줄,카페카페금천구테라스목줄독산1동독산1동,독산1동,대한민국 서울특별시 금천구 독산1동 1009-74
카페,카페로드,금천구,37.46635948,126.8898513,서울특별시 금천구 범안로 1152,02-803-3337,카페,실내, ,목줄,카페카페금천구실내목줄독산동독산동,독산동,대한민국 서울특별시 금천구 독산동 1003
카페,동네카페,영등포구,37.51249375,126.9169459,서울특별시 영등포구 도신로 235,010-4147-8625,카페,실내, ,목줄,카페카페영등포구실내목줄도신로도신로,도신로,대한민국 서울특별시 영등포구 도신로 235
카페,컵스커피,마포구,37.55658116,126.9045555,서울특별시 마포구 포은로 107,070-4257-2020,카페,실내, ,목줄,카페카페마포구실내목줄망원1동망원1동,망원1동,대한민국 서울특별시 마포구 망원1동 415-32
카페,BELOW,마포구,37.55561042,126.9053362,서울특별시 마포구 포은로6길 4,010-7132-9148,카페,실내, ,목줄,카페카페마포구실내목줄망원동망원동,망원동,대한민국 서울특별시 마포구 망원동 403-16
카페,카페씨멘트,마포구,37.55609447,126.904267,서울특별시 마포구 희우정로20길 72,010-3059-9972,카페,실내, ,목줄,카페카페마포구실내목줄망원동망원동,망원동,대한민국 서울특별시 마포구 망원동 410-10
카페,커피호스피탈,마포구,37.55530692,126.9049406,서울특별시 마포구 포은로 93,02-323-5500,카페,실외, ,목줄,카페카페마포구실외목줄망원1동망원1동,망원1동,대한민국 서울특별시 마포구 망원1동 포은로 93
카페,로우머,마포구,37.55425751,126.9065032,서울특별시 마포구 월드컵로13길 55-26,010-3820-1175,카페,실내, ,목줄,카페카페마포구실내목줄망원동망원동,망원동,대한민국 서울특별시 마포구 망원동 413-233
카페,크림데이,마포구,37.55588574,126.9077006,서울특별시 마포구 월드컵로21길 39,010-2944-2193,베이커리,실내, ,목줄,카페베이커리마포구실내목줄월드컵로19길월드컵로19길,월드컵로19길,대한민국 서울특별시 마포구 월드컵로19길 36
카페,리얼커피,마포구,37.55224367,126.9061376,서울특별시 마포구 동교로 32-1,02-333-3637,카페,실내, ,목줄,카페카페마포구실내목줄동교로동교로,동교로,대한민국 서울특별시 마포구 동교로 32-1
카페,79파운야드 망원본점,마포구,37.55487627,126.9058791,서울특별시 마포구 월드컵로13길 79,02-325-8185,카페,실내, ,안기,카페카페마포구실내안기월드컵로13길월드컵로13길,월드컵로13길,대한민국 서울특별시 마포구 월드컵로13길 79
카페,비전스트롤,마포구,37.55720412,126.9035707,서울특별시 마포구 망원로 61,02-326-1002,카페,실내, ,"목줄,매너벨트",카페카페마포구실내목줄 매너벨트망원로망원로,망원로,대한민국 서울특별시 마포구 망원로 61
카페,네가 있어 고마워,영등포구,37.542441,126.8919326,서울특별시 영등포구 양평로28길 33,070-7537-1180,카페,실내, ,목줄,카페카페영등포구실내목줄양평로28길양평로28길,양평로28길,대한민국 서울특별시 영등포구 양평로28길 34
카페,뇽뇽마카롱,마포구,37.55261479,126.9043405,서울특별시 마포구 희우정로 72,02-337-7911,카페,실내, ,목줄,카페카페마포구실내목줄망원1동망원1동,망원1동,대한민국 서울특별시 마포구 망원1동 396-28
카페,늘,영등포구,37.53779064,126.8978694,서울특별시 영등포구 선유로55길 11,070-4035-5487,카페,실내, ,목줄,카페카페영등포구실내목줄양평동4가양평동4가,양평동4가,대한민국 서울특별시 영등포구 양평동4가 선유로55길 11
카페,에그드랍 선유도역점,영등포구,37.5380175,126.8942683,서울특별시 영등포구 양평로22길 2,02-2634-7788,카페,실내, ,목줄,카페카페영등포구실내목줄양평동4가양평동4가,양평동4가,대한민국 서울특별시 영등포구 양평동4가 130
카페,이디야 남부고용센터점,영등포구,37.52502904,126.8911039,서울특별시 영등포구 양산로 71,02-2635-2560,카페,테라스, ,목줄,카페카페영등포구테라스목줄양산로양산로,양산로,대한민국 서울특별시 영등포구 양산로 71
카페,커피사피엔스 양평동2가점,영등포구,37.52411581,126.8842221,서울특별시 영등포구 영등포로5길 19,02-2633-0466,카페,실내, ,목줄,카페카페영등포구실내목줄양평동2가양평동2가,양평동2가,대한민국 서울특별시 영등포구 양평동2가 37-1
카페,MACKAY,영등포구,37.52521665,126.8849523,서울특별시 영등포구 영등포로5길 46,070-8782-2027,카페,실내, ,목줄,카페카페영등포구실내목줄양평동2가양평동2가,양평동2가,대한민국 서울특별시 영등포구 양평동2가 33-76
카페,헤이커피,영등포구,37.51714614,126.8862985,서울특별시 영등포구 선유로9나길 8,070-4134-0501,카페,실내, ,목줄,카페카페영등포구실내목줄문래동5가문래동5가,문래동5가,대한민국 서울특별시 영등포구 문래동5가 14
카페,히어로스터 신도림점,구로구,37.50842865,126.8846092,서울특별시 구로구 경인로63길 21-8,010-4844-6055,카페,실내, ,목줄,카페카페구로구실내목줄경인로63길경인로63길,경인로63길,대한민국 서울특별시 구로구 경인로63길 21-8
카페,유어홈커피로스터스,영등포구,37.51276252,126.8936822,서울특별시 영등포구 도림로133길 20,010-9129-0302,카페,실내, ,목줄,카페카페영등포구실내목줄문래동2가문래동2가,문래동2가,대한민국 서울특별시 영등포구 문래동2가 39-1
카페,헬로 팔로워즈,영등포구,37.50962325,126.9049977,서울특별시 영등포구 도신로29길 12,02-6949-6768,브런치,실내, ,목줄,카페브런치영등포구실내목줄영등포구영등포구,영등포구,"2층, 12 도신로29길 영등포구 서울특별시 대한민국"
카페,커피고래,영등포구,37.51039494,126.9001766,서울특별시 영등포구 도영로 66,02-832-3746,카페,실내, ,목줄,카페카페영등포구실내목줄도림동도림동,도림동,대한민국 서울특별시 영등포구 도림동 160-21
카페,Week and Weekend,영등포구,37.50893482,126.9017345,서울특별시 영등포구 도림로112길 16,02-836-0228,카페,실내, ,목줄,카페카페영등포구실내목줄도림동도림동,도림동,대한민국 서울특별시 영등포구 도림동 144-8
카페,이스트우드,영등포구,37.50666281,126.8996487,서울특별시 영등포구 도신로17길 6,070-4459-0103,카페,실내, ,목줄,카페카페영등포구실내목줄도신로17길도신로17길,도신로17길,대한민국 서울특별시 영등포구 도신로17길 6
카페,헤비로테이트,영등포구,37.5081894,126.8996738,서울특별시 영등포구 도신로19길 22,010-6424-8260,카페,실내, ,목줄,카페카페영등포구실내목줄도신로19길도신로19길,도신로19길,대한민국 서울특별시 영등포구 도신로19길 22
카페,토프레소 양평동사거리점,영등포구,37.53630058,126.9007368,서울특별시 영등포구 양평로12가길 2,02-865-2004,카페,테라스, ,목줄,카페카페영등포구테라스목줄양평로12길양평로12길,양평로12길,대한민국 서울특별시 영등포구 양평로12길 17
카페,고양이가밟은쿠키,영등포구,37.53786408,126.8929929,서울특별시 영등포구 양평로21가길 6,010-4301-4810,카페,실내, ,목줄,카페카페영등포구실내목줄양평로21가길양평로21가길,양평로21가길,대한민국 서울특별시 영등포구 양평로21가길 6
카페,bloc,영등포구,37.53830963,126.8950069,서울특별시 영등포구 선유로53길 33,010-5910-6137,카페,실내, ,목줄,카페카페영등포구실내목줄양평동4가양평동4가,양평동4가,대한민국 서울특별시 영등포구 양평동4가 188
카페,선유서가,영등포구,37.54263231,126.8908767,서울특별시 영등포구 양평로30가길 22,010-2973-1711,카페,실내, ,목줄,카페카페영등포구실내목줄양평로30가길양평로30가길,양평로30가길,대한민국 서울특별시 영등포구 양평로30가길 22
카페,나카산,영등포구,37.53232009,126.8968961,서울특별시 영등포구 당산로41길 28,010-7185-1028,카페,실내, ,목줄,카페카페영등포구실내목줄당산동5가당산동5가,당산동5가,대한민국 서울특별시 영등포구 당산동5가 7-13번지 나카산 1층 102호
카페,문래방구,영등포구,37.51373542,126.8980699,서울특별시 영등포구 경인로 763,02-2633-9204,카페,실내, ,목줄,카페카페영등포구실내목줄문래동문래동,문래동,대한민국 서울특별시 영등포구 문래동 경인로 763
카페,카페바뇨스,영등포구,37.52569135,126.9068918,서울특별시 영등포구 국회대로53길 1,010-8871-0373,카페,실내, ,목줄,카페카페영등포구실내목줄국회대로53길국회대로53길,국회대로53길,대한민국 서울특별시 영등포구 국회대로53길 1
카페,카페아이엠,영등포구,37.52103301,126.9120937,서울특별시 영등포구 버드나루로 25,02-2635-7420,카페,실내, ,목줄,카페카페영등포구실내목줄버드나루로버드나루로,버드나루로,대한민국 서울특별시 영등포구 버드나루로 25
카페,레드테이프,영등포구,37.50640637,126.9067782,서울특별시 영등포구 가마산로65길 5,010-9829-2811,카페,실내, ,목줄,카페카페영등포구실내목줄가마산로65길가마산로65길,가마산로65길,대한민국 서울특별시 영등포구 가마산로65길 5
카페,스테이웜,영등포구,37.50573046,126.9051203,서울특별시 영등포구 가마산로61길 5-1,010-3224-7524,카페,실내, ,목줄,카페카페영등포구실내목줄신길동신길동,신길동,대한민국 서울특별시 영등포구 신길동 325-57
카페,도토리소년,영등포구,37.49876417,126.9174964,서울특별시 영등포구 대방천로 239,010-2680-8340,카페,실내, ,목줄,카페카페영등포구실내목줄신길동신길동,신길동,대한민국 서울특별시 영등포구 신길동 4195
카페,루카스커피,영등포구,37.50052101,126.9199417,서울특별시 영등포구 신풍로25길 6,070-7799-4456,카페,실내, ,목줄,카페카페영등포구실내목줄신풍로25길신풍로25길,신풍로25길,대한민국 서울특별시 영등포구 신풍로25길 6
카페,백스트로크,영등포구,37.50681725,126.9059027,서울특별시 영등포구 가마산로61나길 11,010-6305-7785,카페,실내, ,목줄,카페카페영등포구실내목줄신길동신길동,신길동,대한민국 서울특별시 영등포구 신길동 315-92
카페,칠아웃,영등포구,37.50680814,126.9095834,서울특별시 영등포구 신길로39길 11,010-2077-2468,카페,실내, ,"목줄,매너벨트",카페카페영등포구실내목줄 매너벨트신길3동신길3동,신길3동,대한민국 서울특별시 영등포구 신길3동 257-21
카페,주택커피 영등포점,영등포구,37.52492583,126.9038132,서울특별시 영등포구 국회대로44길 7-4,02-2636-4761,카페,실내, ,목줄,카페카페영등포구실내목줄영등포동7가영등포동7가,영등포동7가,대한민국 서울특별시 영등포구 영등포동7가 64-40
카페,페이페이커피,영등포구,37.52532235,126.9051478,서울특별시 영등포구 영중로 101,02-2631-1201,카페,실내, ,목줄,카페카페영등포구실내목줄영등포동7가영등포동7가,영등포동7가,대한민국 서울특별시 영등포구 영등포동7가 65-6
카페,로다커피,영등포구,37.52647822,126.9035576,서울특별시 영등포구 영신로54길 5,02-2636-8603,카페,실내, ,안기,카페카페영등포구실내안기영신로54길영신로54길,영신로54길,대한민국 서울특별시 영등포구 영신로54길 5-5
카페,배스킨라빈스 대방역점,동작구,37.50985709,126.9249542,서울특별시 동작구 알마타길 6,02-825-4030,카페,실내, ,안기,카페카페동작구실내안기대방동대방동,대방동,대한민국 서울특별시 동작구 대방동 466-4
카페,카페알코브,동작구,37.50037259,126.9265486,서울특별시 동작구 대방동1길 12,02-6409-9870,카페,실내, ,목줄,카페카페동작구실내목줄대방동대방동,대방동,대한민국 서울특별시 동작구 대방동 391-357
카페,Hplace카페,동작구,37.50428526,126.9231054,서울특별시 동작구 여의대방로36길 10,0507-1307-6193,카페,실내, ,목줄,카페카페동작구실내목줄대방동대방동,대방동,대한민국 서울특별시 동작구 대방동 386-29
카페,웨스트빙고 사당동점,동작구,37.48181964,126.9811121,서울특별시 동작구 동작대로13길 6,010-8230-3143,카페,실내, ,목줄,카페카페동작구실내목줄사당동사당동,사당동,대한민국 서울특별시 동작구 사당동 1008-8
카페,바이엠,동작구,37.50456895,126.9461533,서울특별시 동작구 상도로34길 1,02-821-2128,카페,실내, ,목줄,카페카페동작구실내목줄상도동상도동,상도동,대한민국 서울특별시 동작구 상도동 32-6
카페,비단콤마,동작구,37.50431826,126.942467,서울특별시 동작구 상도로30길 40,02-811-0072,브런치,실내, ,"캐리어,안기",카페브런치동작구실내캐리어 안기상도동상도동,상도동,대한민국 서울특별시 동작구 상도동 169-5번지 202동 1층
카페,우부래도,동작구,37.5031717,126.9486553,서울특별시 동작구 상도로37길 3,070-7543-0599,베이커리,테라스, ,목줄,카페베이커리동작구테라스목줄상도1동상도1동,상도1동,대한민국 서울특별시 동작구 상도1동 상도로37길 3
카페,히뽀1997,동작구,37.51166805,126.9540366,서울특별시 동작구 노량진로24길 36,010-3266-6568,베이커리,실내, ,목줄,카페베이커리동작구실내목줄본동본동,본동,대한민국 서울특별시 동작구 본동 126-426
카페,인투커피,관악구,37.48356758,126.913811,서울특별시 관악구 난곡로 331,02-6083-1170,카페,실내, ,안기,카페카페관악구실내안기난곡로난곡로,난곡로,대한민국 서울특별시 관악구 난곡로 331
카페,시티스트릿츠,관악구,37.48858673,126.9161716,서울특별시 관악구 신사로 128-1,070-8844-0037,카페,실내, ,목줄,카페카페관악구실내목줄신사로신사로,신사로,대한민국 서울특별시 관악구 신사로 128-1
카페,카페 드 플로르,관악구,37.48190949,126.9192136,서울특별시 관악구 남부순환로152길 17,010-5962-0720,카페,실내, ,목줄,카페카페관악구실내목줄남부순환로152길남부순환로152길,남부순환로152길,대한민국 서울특별시 관악구 남부순환로152길 17
카페,냥빵,관악구,37.48301555,126.9121196,서울특별시 관악구 조원로16가길 26,02-6014-1704,베이커리,실내, ,목줄,카페베이커리관악구실내목줄조원동조원동,조원동,대한민국 서울특별시 관악구 조원동 539-1
카페,몬드 마카롱,동작구,37.48581003,126.9720526,서울특별시 동작구 사당로13길 38-1,010-2854-2133,카페,실내, ,안기,카페카페동작구실내안기사당3동사당3동,사당3동,대한민국 서울특별시 동작구 사당3동 262-7
카페,만물다방,관악구,37.4889151,126.9302475,서울특별시 관악구 봉천로13길 6,02-882-9992,카페,실내, ,목줄,카페카페관악구실내목줄봉천로13길봉천로13길,봉천로13길,대한민국 서울특별시 관악구 봉천로13길 6
카페,뉴욕택시디저트,관악구,37.47928781,126.9572938,서울특별시 관악구 남부순환로 1870,070-8711-1013,카페,실내, ,안기,카페카페관악구실내안기dong봉천동,봉천동,대한민국 서울특별시 낙성대동
카페,오후의 과일,관악구,37.47924332,126.9535042,서울특별시 관악구 관악로14길 15,02-877-5700,카페,실내, ,목줄,카페카페관악구실내목줄봉천동봉천동,봉천동,대한민국 서울특별시 관악구 봉천동 1599-4
카페,가람커피로스터스,서초구,37.45433648,127.053542,서울특별시 서초구 본마을길 31,070-4123-3213,카페,실내, ,안기,카페카페서초구실내안기신원동신원동,신원동,대한민국 서울특별시 서초구 신원동 445-4
카페,커피사피엔스 양재봉진점,서초구,37.47189156,127.0459516,서울특별시 서초구 동산로 66,02-6080-8640,카페,실내, ,목줄,카페카페서초구실내목줄양재2동양재2동,양재2동,대한민국 서울특별시 서초구 양재2동 377-4
카페,양재동커피집,서초구,37.47713229,127.0394498,서울특별시 서초구 양재천로 103-18,010-5105-3124,카페,실내, ,목줄,카페카페서초구실내목줄양재천로양재천로,양재천로,대한민국 서울특별시 서초구 양재천로 103-18
카페,아쿠아렐 드로잉카페,서초구,37.47544258,127.0365239,서울특별시 서초구 양재천로13길 17,010-6571-4171,카페,실내, ,목줄,카페카페서초구실내목줄양재동양재동,양재동,대한민국 서울특별시 서초구 양재동 120
카페,스퀘어가든,서초구,37.49797492,126.9968631,서울특별시 서초구 서래로5길 26,070-8888-5959,카페,실내, ,"목줄,매너벨트",카페카페서초구실내목줄 매너벨트반포동반포동,반포동,대한민국 서울특별시 서초구 반포동 107-30
카페,카페오뉴,서초구,37.50849309,127.0186154,서울특별시 서초구 주흥13길 15,02-511-7118,카페,실내, ,목줄,카페카페서초구실내목줄반포1동반포1동,반포1동,대한민국 서울특별시 서초구 반포1동 717-4
카페,더 커피 컴퍼니,서초구,37.49893999,127.0107227,서울특별시 서초구 서초중앙로29길 16,070-7756-3016,카페,실내, ,안기,카페카페서초구실내안기서초중앙로29길서초중앙로29길,서초중앙로29길,대한민국 서울특별시 서초구 서초중앙로29길 16
카페,더리버마리나,서초구,37.50576255,126.9810858,서울특별시 서초구 동작대로 350,02-536-1977,카페,실외,월   요트 정기휴무 (매주 월요일)   카페 10:00 - 22:00      화   요트 14:00 - 22:00   카페 10:00 - 22:00      수   요트 14:00 - 22:00   카페 10:00 - 22:00      목   요트 14:00 - 22:00   카페 10:00 - 22:00      금   요트 14:00 - 22:00   카페 10:00 - 22:00      토   요트 14:00 - 22:00   카페 10:00 - 22:00      일   요트 14:00 - 22:00   카페 10:00 - 22:00,목줄,카페카페서초구실외목줄동작대로동작대로,동작대로,대한민국 서울특별시 서초구 동작대로 350
카페,어딕티브,서초구,37.50908866,127.0186022,서울특별시 서초구 주흥15길 5,02-6015-2468,카페,실내, ,목줄,카페카페서초구실내목줄반포동반포동,반포동,대한민국 서울특별시 서초구 반포동 711-24
카페,카페드프랑,서초구,37.50483502,127.0227028,서울특별시 서초구 사평대로55길 18,02-352-0296,카페,실내, ,목줄,카페카페서초구실내목줄반포동반포동,반포동,대한민국 서울특별시 서초구 반포동 738-43
카페,디어,서초구,37.49771442,126.9856641,서울특별시 서초구 사평대로2길 22,02-592-1007,브런치,실내, ,목줄,카페브런치서초구실내목줄사평대로2길사평대로2길,사평대로2길,대한민국 서울특별시 서초구 사평대로2길 22 2층
카페,엔터하츠,서초구,37.49102371,126.9842077,서울특별시 서초구 동광로 11,02-6402-1080,카페,실내, ,안기,카페카페서초구실내안기방배본동방배본동,방배본동,대한민국 서울특별시 서초구 방배본동 2104
카페,카페아뜰리에,서초구,37.47725381,126.9851035,서울특별시 서초구 방배천로4길 48,02-523-1312,카페,실내, ,목줄,카페카페서초구실내목줄방배2동방배2동,방배2동,대한민국 서울특별시 서초구 방배2동 448-5
카페,리버브 커피,서초구,37.48207758,126.9840211,서울특별시 서초구 방배천로16길 18,010-3640-6662,카페,실내, ,목줄,카페카페서초구실내목줄방배동방배동,방배동,대한민국 서울특별시 서초구 방배동 456-1
카페,밤부 베이커리&브루잉 서래,서초구,37.49316774,126.990903,서울특별시 서초구 동광로 77,02-533-4240,카페,테라스, ,목줄,카페카페서초구테라스목줄방배본동방배본동,방배본동,대한민국 서울특별시 서초구 방배본동 동광로 77
카페,거북이,서초구,37.4802025,126.9834174,서울특별시 서초구 방배천로4안길 48,070-4015-5314,카페,실내, ,목줄,카페카페서초구실내목줄방배천로4안길방배천로4안길,방배천로4안길,대한민국 서울특별시 서초구 방배천로4안길 48
카페,라바트리,서초구,37.48948047,126.9940649,서울특별시 서초구 서초대로27길 33,070-8780-0508,카페,실내, ,목줄,카페카페서초구실내목줄방배4동방배4동,방배4동,대한민국 서울특별시 서초구 방배4동 850-31
카페,엔트런스,서초구,37.49244178,127.0190455,서울특별시 서초구 사임당로19길 72-3,010-7532-1804,카페,실내, ,목줄,카페카페서초구실내목줄서초1동서초1동,서초1동,대한민국 서울특별시 서초구 서초1동 1643-32
카페,퀴베롱 마카롱,서초구,37.48126704,127.0120911,서울특별시 서초구 반포대로1길 8,02-582-1236,베이커리,실내, ,목줄,카페베이커리서초구실내목줄반포대로1길반포대로1길,반포대로1길,대한민국 서울특별시 서초구 반포대로1길 8
카페,아디스아바바,서초구,37.49393687,127.017536,서울특별시 서초구 서초중앙로22길 67,02-6396-3766,카페,실외, ,목줄,카페카페서초구실외목줄서초동서초동,서초동,대한민국 서울특별시 서초구 서초동 1675-9
카페,몬틸나잇,서초구,37.4915384,127.0155787,서울특별시 서초구 서초중앙로18길 23,02-588-6518,카페,실내, ,목줄,카페카페서초구실내목줄서초중앙로18길서초중앙로18길,서초중앙로18길,대한민국 서울특별시 서초구 서초중앙로18길 23
카페,공미학,서초구,37.48862221,127.0124697,서울특별시 서초구 서초대로48길 101,02-6462-9000,카페,실외, ,목줄,카페카페서초구실외목줄서초3동서초3동,서초3동,대한민국 서울특별시 서초구 서초3동 1564-1
카페,프릳츠 양재점,서초구,37.48536962,127.0321962,서울특별시 서초구 강남대로37길 24-11,02-521-4148,카페,실내, ,목줄,카페카페서초구실내목줄서초2동서초2동,서초2동,대한민국 서울특별시 서초구 서초2동 1363-10
카페,디저트 다눔,강동구,37.53064094,127.1383216,서울특별시 강동구 양재대로98길 14,010-5044-8692,카페,실내, ,안기,카페카페강동구실내안기둔촌동둔촌동,둔촌동,대한민국 서울특별시 강동구 둔촌동 490
카페,카페 플랫,강동구,37.54083246,127.1467226,서울특별시 강동구 천중로 237,070-8866-8770,카페,"실내,테라스", ,목줄,카페카페강동구실내 테라스목줄길동길동,길동,대한민국 서울특별시 강동구 길동 91-9
카페,카페 아스노바,강동구,37.5394757,127.14099,서울특별시 강동구 양재대로 1500,02-470-6859,카페,테라스, ,목줄,카페카페강동구테라스목줄길동길동,길동,대한민국 서울특별시 강동구 길동 366-14
카페,아우어룸,강동구,37.53512091,127.1419541,서울특별시 강동구 양재대로110길 47,070-8757-0105,카페,실내, ,목줄,카페카페강동구실내목줄길동길동,길동,대한민국 서울특별시 강동구 길동 406-9
카페,카페탄젠트,강동구,37.54027417,127.1370061,서울특별시 강동구 성안로 196,070-4256-0952,카페,실내, ,목줄,카페카페강동구실내목줄성안로성안로,성안로,대한민국 서울특별시 강동구 성안로 196
카페,리프,강동구,37.52741388,127.1218267,서울특별시 강동구 성내로6길 55,010-9185-2907,카페,실내, ,목줄,카페카페강동구실내목줄성내1동성내1동,성내1동,대한민국 서울특별시 강동구 성내1동 459
카페,마카롱걸,강동구,37.52286687,127.1336739,서울특별시 강동구 양재대로81길 8,010-3900-9915,베이커리,실내, ,목줄,카페베이커리강동구실내목줄양재대로81길양재대로81길,양재대로81길,대한민국 서울특별시 강동구 양재대로81길 8
카페,핑크마카롱,강동구,37.52668827,127.1302976,서울특별시 강동구 성안로 34,010-7580-0097,카페,실내, ,목줄,카페카페강동구실내목줄성내3동성내3동,성내3동,대한민국 서울특별시 강동구 성내3동 434-2
카페,엑스엑스스몰커피,강동구,37.5295812,127.1273365,서울특별시 강동구 성내로13길 33-5,010-3029-2146,카페,실내, ,목줄,카페카페강동구실내목줄성내동성내동,성내동,대한민국 서울특별시 강동구 성내동 532-6
카페,카페 그뢴,강동구,37.5337187,127.1263139,서울특별시 강동구 풍성로37길 41,010-9566-6068,카페,실내, ,목줄,카페카페강동구실내목줄성내2동성내2동,성내2동,대한민국 서울특별시 강동구 성내2동 139-4
카페,카페넘버스1,강동구,37.5301164,127.1344036,서울특별시 강동구 풍성로53길 12-5,010-8900-2282,카페,실내, ,목줄,카페카페강동구실내목줄성내3동성내3동,성내3동,대한민국 서울특별시 강동구 성내3동 411-32
카페,카페 온도,강동구,37.5335229,127.1358248,서울특별시 강동구 양재대로103길 40,070-8822-9561,카페,실내, ,목줄,카페카페강동구실내목줄성내동성내동,성내동,대한민국 서울특별시 강동구 성내동 245-39
카페,커피 코너칼럼,강동구,37.52763842,127.1313193,서울특별시 강동구 양재대로89길 80,070-8777-3868,카페,실내, ,목줄,카페카페강동구실내목줄성내3동성내3동,성내3동,대한민국 서울특별시 강동구 성내3동 423-37
카페,온온커피,강동구,37.52552156,127.1283259,서울특별시 강동구 성내로18길 34,010-7696-8656,카페,실내, ,목줄,카페카페강동구실내목줄성내1동성내1동,성내1동,대한민국 서울특별시 강동구 성내1동 469-9
카페,카페메종드한,강동구,37.5262853,127.129599,서울특별시 강동구 성안로 27,02-482-2005,카페,실내,화-금요일 10:00 - 21:30    토-일요일 11:00 - 21:30    매주 월요일 정기 휴무,캐리어,카페카페강동구실내캐리어성내동성내동,성내동,대한민국 서울특별시 강동구 성내동 435-44
카페,틸리,강동구,37.5349167,127.1254386,서울특별시 강동구 천호옛12길 15,010-6652-6066,카페,실내, ,목줄,카페카페강동구실내목줄천호옛12길천호옛12길,천호옛12길,대한민국 서울특별시 강동구 천호옛12길 15
카페,드립앤드랩,강동구,37.54966505,127.1256261,서울특별시 강동구 올림픽로93길 28,010-5642-1244,카페,실내, ,목줄,카페카페강동구실내목줄암사2동암사2동,암사2동,대한민국 서울특별시 강동구 암사2동 515-12
카페,카페히어,강동구,37.55268316,127.1279357,서울특별시 강동구 상암로5길 54,02-442-6984,카페,실내, ,목줄,카페카페강동구실내목줄상암로5길상암로5길,상암로5길,대한민국 서울특별시 강동구 상암로5길 54
카페,카페이유,강동구,37.55389448,127.1306299,서울특별시 강동구 고덕로 52-18,070-8887-6262,카페,실내, ,목줄,카페카페강동구실내목줄암사1동암사1동,암사1동,대한민국 서울특별시 강동구 암사1동 461-11
카페,카페공공장소,강동구,37.5510499,127.1304291,서울특별시 강동구 암사길 7-1,010-9140-6627,카페,실내, ,목줄,카페카페강동구실내목줄암사1동암사1동,암사1동,대한민국 서울특별시 강동구 암사1동 497-7
카페,렛미베이크,강동구,37.54893395,127.125137,서울특별시 강동구 올림픽로91길 30,02-481-4982,베이커리,실내, ,없음,카페베이커리강동구실내없음올림픽로93길올림픽로93길,올림픽로93길,대한민국 서울특별시 강동구 올림픽로93길 33-23
카페,아달콤해,강동구,37.56120402,127.1550387,서울특별시 강동구 동남로85길 30,010-5658-2181,카페,실내, ,목줄,카페카페강동구실내목줄고덕동고덕동,고덕동,대한민국 서울특별시 강동구 고덕동 531-6
카페,카페 맘이가,강동구,37.559489,127.153434,서울특별시 강동구 동남로81길 64,02-442-1700,카페,실내, ,목줄,카페카페강동구실내목줄고덕동고덕동,고덕동,대한민국 서울특별시 강동구 고덕동 643-6
카페,포레포레,강동구,37.55895134,127.1522803,서울특별시 강동구 동남로81길 88,010-4930-1226,카페,실내, ,목줄,카페카페강동구실내목줄고덕동고덕동,고덕동,대한민국 서울특별시 강동구 고덕동 645-3
카페,프롬투커피,강동구,37.55204234,127.1540681,서울특별시 강동구 동남로71길 38,02-428-0009,카페,실내, ,목줄,카페카페강동구실내목줄동남로71길동남로71길,동남로71길,대한민국 서울특별시 강동구 동남로71길 38
카페,2ROUND,강동구,37.55409906,127.1430263,서울특별시 강동구 양재대로151길 20,010-4822-9621,카페,실내, ,목줄,카페카페강동구실내목줄양재대로151길양재대로151길,양재대로151길,대한민국 서울특별시 강동구 양재대로151길 20
카페,레옹,강동구,37.54782397,127.1460463,서울특별시 강동구 양재대로134길 43,010-4432-2309,카페,실내, ,목줄,카페카페강동구실내목줄명일동명일동,명일동,대한민국 서울특별시 강동구 명일동 양재대로134길 43
카페,송화의카페,강동구,37.54877958,127.1726173,서울특별시 강동구 상일로3길 8,02-426-4919,카페,실내, ,목줄,카페카페강동구실내목줄상일동상일동,상일동,대한민국 서울특별시 강동구 상일동 285-4
카페,낸시스,강동구,37.55332054,127.1554726,서울특별시 강동구 동남로75길 13-21,010-6707-7896,베이커리,실내, ,안기,카페베이커리강동구실내안기47-1747-17,47-17,대한민국 서울특별시 강동구 47-17 신동빌딩 202호
카페,시크릿한강,송파구,37.51920839,127.0765103,서울특별시 송파구 백제고분로 2,02-1566-1760,카페,루프탑, ,목줄,카페카페송파구루프탑목줄dong잠실동,잠실동,G39G+MJ 대한민국 서울특별시
카페,카페희재,송파구,37.50777404,127.0800237,서울특별시 송파구 백제고분로11길 6,010-9073-8972,카페,실내, ,목줄,카페카페송파구실내목줄잠실본동잠실본동,잠실본동,대한민국 서울특별시 송파구 잠실본동 223
카페,커피인류,송파구,37.510702,127.0862114,서울특별시 송파구 석촌호수로 61,070-4634-2212,카페,실내, ,목줄,카페카페송파구실내목줄석촌호수로석촌호수로,석촌호수로,대한민국 서울특별시 송파구 석촌호수로 61
카페,상냥한거북씨 커피 앤 플라워,송파구,37.48703932,127.130442,서울특별시 송파구 송이로30길 13,02-408-6232,카페,실내, ,목줄,카페카페송파구실내목줄문정동문정동,문정동,대한민국 서울특별시 송파구 문정동 107-2
카페,리프레쉬커피,송파구,37.48716298,127.130569,서울특별시 송파구 송이로30길 11,02-400-0910,카페,실내, ,목줄,카페카페송파구실내목줄문정동문정동,문정동,대한민국 서울특별시 송파구 문정동 107-3
카페,험블커피,송파구,37.49944981,127.1269454,서울특별시 송파구 오금로38가길 33,02-400-1579,카페,테라스, ,목줄,카페카페송파구테라스목줄가락동가락동,가락동,대한민국 서울특별시 송파구 가락동 157-9
카페,감성커피 테라스,송파구,37.4939243,127.1236373,서울특별시 송파구 중대로12길 9,070-4640-2254,카페,"실외,테라스", ,목줄,카페카페송파구실외 테라스목줄가락본동가락본동,가락본동,대한민국 서울특별시 송파구 가락본동 122-11
카페,선셋스위밍 샌드위치,강남구,37.52685156,127.0355892,서울특별시 강남구 언주로170길 23,02-544-7676,브런치,"실내,테라스","매일 10:00 - 22:00 / 일요일 10:00 - 20:00 / 코로나19로 2.5단계(월요일 휴무) 화-금 10:00~21:00 , 토-일 10:00~20:00 영업시간 인스타 확인요망.","목줄,캐리어",카페브런치강남구실내 테라스목줄 캐리어언주로170길언주로170길,언주로170길,대한민국 서울특별시 강남구 언주로170길 23
카페,아파트먼트 기룬,중구,37.56049431,127.0041403,서울특별시 중구 동호로24길 27-17,02-2278-1087,카페,실내,"평일 12:00 - 18:00 , 12월 영업 시간 단축 :'( (카페문의)","목줄,매너벨트",카페카페중구실내목줄 매너벨트장충동2가장충동2가,장충동2가,대한민국 서울특별시 중구 장충동2가 186-28
카페,퍼햅스,송파구,37.50563829,127.0946559,서울특별시 송파구 백제고분로29길 29,070-4147-9811,카페,실내, ,목줄,카페카페송파구실내목줄삼전동삼전동,삼전동,대한민국 서울특별시 송파구 삼전동 108-2
카페,갭나인,송파구,37.50021535,127.1021928,서울특별시 송파구 가락로5길 8,010-4488-2657,카페,실내, ,목줄,카페카페송파구실내목줄가락로5길가락로5길,가락로5길,대한민국 서울특별시 송파구 가락로5길 8
카페,테이트커피,송파구,37.50580147,127.1013733,서울특별시 송파구 석촌호수로18길 11-2,02-424-1929,카페,"실내,실외", ,목줄,카페카페송파구실내 실외목줄석촌동석촌동,석촌동,대한민국 서울특별시 송파구 석촌동 155
카페,바이슐,송파구,37.50078994,127.0988849,서울특별시 송파구 백제고분로34길 17,010-2340-2343,카페,실내, ,목줄,카페카페송파구실내목줄석촌동석촌동,석촌동,대한민국 서울특별시 송파구 석촌동 231
카페,원모어커피바,송파구,37.50133379,127.1044354,서울특별시 송파구 가락로11길 11,02-2202-2369,카페,실내, ,목줄,카페카페송파구실내목줄석촌동석촌동,석촌동,대한민국 서울특별시 송파구 석촌동 259-6
카페,나우나우나우,송파구,37.5023675,127.1090318,서울특별시 송파구 송파대로39길 1-10,02-424-1989,카페,"실내,실외", ,목줄,카페카페송파구실내 실외목줄송파대로송파대로,송파대로,대한민국 서울특별시 송파구 송파대로 39길 1-10 1층 카페나우나우나우
카페,체크인브런치카페,송파구,37.5065737,127.1003427,서울특별시 송파구 석촌호수로 210,02-423-8882,브런치,실내, ,목줄,카페브런치송파구실내목줄석촌호수로석촌호수로,석촌호수로,대한민국 서울특별시 송파구 석촌호수로 210
카페,선호 커피 로스터스,송파구,37.50401919,127.1144964,서울특별시 송파구 송이로2길 4,070-8836-8184,카페,실내, ,목줄,카페카페송파구실내목줄송파동송파동,송파동,대한민국 서울특별시 송파구 송파동 103-9
카페,쏘스윗 마카롱,송파구,37.50722429,127.1119092,서울특별시 송파구 송파대로42길 46,010-9930-8639,카페,실내, ,목줄,카페카페송파구실내목줄송파1동송파1동,송파1동,대한민국 서울특별시 송파구 송파1동 130
카페,T E R COFFEE,송파구,37.50266112,127.1117486,서울특별시 송파구 가락로 145,010-5235-7990,카페,실내, ,목줄,카페카페송파구실내목줄송파1동송파1동,송파1동,대한민국 서울특별시 송파구 송파1동 95-62
카페,김남매,송파구,37.50397154,127.1137324,서울특별시 송파구 가락로 167,010-7360-9825,브런치,실내, ,목줄,카페브런치송파구실내목줄송파동송파동,송파동,대한민국 서울특별시 송파구 송파동 122-9
카페,정원이있는국민책방 송파점,송파구,37.5032629,127.1113712,서울특별시 송파구 가락로21길 8,02-2202-1313,카페,실내, ,목줄,카페카페송파구실내목줄송파동송파동,송파동,대한민국 서울특별시 송파구 송파동 94-4
카페,치유의 과정,송파구,37.50993725,127.1089763,서울특별시 송파구 백제고분로45길 21-1,010-2501-7239,카페,실내, ,목줄,카페카페송파구실내목줄송파1동송파1동,송파1동,대한민국 서울특별시 송파구 송파1동 39-9
카페,슬로우그로스,송파구,37.50932616,127.1132254,서울특별시 송파구 오금로20길 4,010-9178-9592,카페,실내, ,목줄,카페카페송파구실내목줄송파동송파동,송파동,대한민국 서울특별시 송파구 송파동 135-20
카페,코우키,송파구,37.50266415,127.1102521,서울특별시 송파구 가락로17길 6,010-8010-0458,카페,실내, ,목줄,카페카페송파구실내목줄송파동송파동,송파동,대한민국 서울특별시 송파구 송파동 95-27
카페,산체스커피로스터스,송파구,37.50220545,127.1360853,서울특별시 송파구 성내천로8길 3,010-7488-2491,카페,실내, ,목줄,카페카페송파구실내목줄오금동오금동,오금동,대한민국 서울특별시 송파구 오금동 성내천로8길 3
카페,일층카페바,송파구,37.51572764,127.1310632,서울특별시 송파구 양재대로 1222,02-408-1215,브런치,테라스, ,목줄,카페브런치송파구테라스목줄방이동방이동,방이동,대한민국 서울특별시 송파구 방이동 89-11
카페,르쉬드 서울,송파구,37.51207315,127.1218236,서울특별시 송파구 위례성대로12길 18,02-476-9168,카페,실내, ,목줄,카페카페송파구실내목줄방이동방이동,방이동,대한민국 서울특별시 송파구 방이동 164-5
카페,제로베이커리,송파구,37.51617032,127.1097373,서울특별시 송파구 올림픽로 354,02-6406-7800,베이커리,실외, ,"캐리어,안기",카페베이커리송파구실외캐리어 안기방이동방이동,방이동,대한민국 서울특별시 송파구 방이동 35-4
카페,꼬앙드파리,송파구,37.50942192,127.1284745,서울특별시 송파구 마천로7길 18,010-3573-7086,브런치,실내, ,목줄,카페브런치송파구실내목줄마천로7길마천로7길,마천로7길,대한민국 서울특별시 송파구 마천로7길 18
카페,세레니티 커피,송파구,37.53163051,127.1192368,서울특별시 송파구 올림픽로51길 13,070-4236-9693,카페,실내, ,목줄,카페카페송파구실내목줄풍납동풍납동,풍납동,대한민국 서울특별시 송파구 풍납동 503-10
카페,카페커피는,송파구,37.53053481,127.1174324,서울특별시 송파구 토성로15길 15-8,010-5476-9354,카페,실내, ,목줄,카페카페송파구실내목줄풍납동풍납동,풍납동,대한민국 서울특별시 송파구 풍납동 237-24
카페,어위크,송파구,37.50081408,127.0966049,서울특별시 송파구 삼학사로 39,010-9277-5387,카페,실내, ,캐리어,카페카페송파구실내캐리어삼전동삼전동,삼전동,대한민국 서울특별시 송파구 삼전동 181-4
카페,뉴질랜드스토리,송파구,37.5097093,127.1057056,서울특별시 송파구 석촌호수로 268,070-7523-6265,브런치,실내, ,목줄,카페브런치송파구실내목줄석촌호수로석촌호수로,석촌호수로,대한민국 서울특별시 송파구 석촌호수로 268
카페,블랭크,송파구,37.50534626,127.088276,서울특별시 송파구 삼전로9길 5-21,010-4924-5064,카페,실내, ,목줄,카페카페송파구실내목줄잠실본동잠실본동,잠실본동,대한민국 서울특별시 송파구 잠실본동 251-11
카페,에브리데이몬데이 카페,송파구,37.50885609,127.1057573,서울특별시 송파구 송파대로48길 14,010-4393-0622,카페,실내, ,목줄,카페카페송파구실내목줄송파1동송파1동,송파1동,대한민국 서울특별시 송파구 송파1동 9-17
카페,오린지,송파구,37.50957706,127.1062735,서울특별시 송파구 송파대로48길 19,010-9292-4802,카페,실내, ,"캐리어,안기",카페카페송파구실내캐리어 안기송파1동송파1동,송파1동,대한민국 서울특별시 송파구 송파1동 30-7
카페,602dessert,강남구,37.49156858,127.0827163,서울특별시 강남구 일원로5길 25,010-8953-3396,카페,실내, ,목줄,카페카페강남구실내목줄일원로5길일원로5길,일원로5길,대한민국 서울특별시 강남구 일원로5길 25
카페,카페알케미,강남구,37.49125186,127.0872466,서울특별시 강남구 양재대로53길 7,02-3412-6140,카페,"실내,실외", ,목줄,카페카페강남구실내 실외목줄일원1동일원1동,일원1동,대한민국 서울특별시 강남구 일원1동 646-3
카페,메이린,강남구,37.48930721,127.0688421,서울특별시 강남구 개포로 512,02-3412-7059,카페,실내, ,목줄,카페카페강남구실내목줄서울시서울시,서울시,대한민국 서울특별시 강남구 서울시 강남구 개포동 186-17 308호
카페,세라핌모아 커피랩,강남구,37.47351194,127.0509852,서울특별시 강남구 논현로6길 18,070-8801-1212,카페,실내, ,목줄,카페카페강남구실내목줄개포동개포동,개포동,대한민국 서울특별시 강남구 개포동 1171
카페,러빙헛 카페,강남구,37.47689598,127.0494373,서울특별시 강남구 개포로22길 35,02-576-2158,카페,실내, ,목줄,카페카페강남구실내목줄개포4동개포4동,개포4동,대한민국 서울특별시 강남구 개포4동 1218-16
카페,블랑커피,강남구,37.47581369,127.0500833,서울특별시 강남구 개포로22길 54,02-575-5637,카페,실내, ,목줄,카페카페강남구실내목줄개포로22길개포로22길,개포로22길,대한민국 서울특별시 강남구 개포로22길 54
카페,Glyn,강남구,37.47925993,127.046862,서울특별시 강남구 개포로21길 7,02-573-2170,카페,실내, ,목줄,카페카페강남구실내목줄개포동개포동,개포동,대한민국 서울특별시 강남구 개포동 1249-3
카페,에스타미네스탠드,강남구,37.48587513,127.0363871,서울특별시 강남구 남부순환로359길 13,02-3463-1009,카페,테라스, ,목줄,카페카페강남구테라스목줄도곡동도곡동,도곡동,대한민국 서울특별시 강남구 도곡동 955-7
카페,카페453,강남구,37.48188891,127.0447412,서울특별시 강남구 논현로24길 20,02-6225-3421,카페,실내, ,목줄,카페카페강남구실내목줄도곡2동도곡2동,도곡2동,대한민국 서울특별시 강남구 도곡2동 453-2
카페,보노,강남구,37.49995024,127.0287833,서울특별시 강남구 강남대로96길 22,02-6956-7202,카페,테라스, ,목줄,카페카페강남구테라스목줄역삼1동역삼1동,역삼1동,대한민국 서울특별시 강남구 역삼1동 818-6
카페,가배도 신논현,강남구,37.50403201,127.0259311,서울특별시 강남구 강남대로110길 13,02-554-4542,카페,실내,오전 11:00~오후 10:00,목줄,카페카페강남구실내목줄역삼동역삼동,역삼동,대한민국 서울특별시 강남구 역삼동 601-12
카페,겟썸커피 Downstairs,강남구,37.50307718,127.0272557,서울특별시 강남구 봉은사로6길 30,070-4113-3619,카페,실내, ,목줄,카페카페강남구실내목줄역삼동역삼동,역삼동,대한민국 서울특별시 강남구 역삼동 812-3
카페,브리커피,강남구,37.52290504,127.0564944,서울특별시 강남구 영동대로138길 9,070-7457-6577,카페,실내, ,목줄,카페카페강남구실내목줄청담동청담동,청담동,대한민국 서울특별시 강남구 청담동 131-15
카페,어라운드데이,성동구,37.54686967,127.0412711,서울특별시 성동구 서울숲2길 24-1,010-9116-3695,카페,"실내,루프탑","일~목요일 12:00 - 21:00 / 금~토요일 12:00 - 22:00 / (사회적거리두기 기간동안 월-금 13:00-3:00 / 토,일 12:00-3:00 로 운영됩니다. :)",목줄,카페카페성동구실내 루프탑목줄성수1가2동성수1가2동,성수1가2동,대한민국 서울특별시 성동구 성수1가2동 685-483
카페,카멜커피,강남구,37.52708521,127.04843,서울특별시 강남구 도산대로99길 60,011-857-3337,카페,실내, ,목줄,카페카페강남구실내목줄청담동청담동,청담동,대한민국 서울특별시 강남구 청담동 도산대로99길 60
카페,덴시티커피,강남구,37.52300513,127.0470509,서울특별시 강남구 도산대로78길 13,010-9227-9402,카페,실내, ,목줄,카페카페강남구실내목줄도산대로78길도산대로78길,도산대로78길,대한민국 서울특별시 강남구 도산대로78길 13
카페,스케줄청담,강남구,37.52464499,127.0426788,서울특별시 강남구 선릉로152길 37,02-548-3356,카페,테라스, ,목줄,카페카페강남구테라스목줄선릉로152길선릉로152길,선릉로152길,대한민국 서울특별시 강남구 선릉로152길 37
카페,카페 오씨씨,강남구,37.50846378,127.034724,서울특별시 강남구 봉은사로29길 10,02-3443-1009,카페,실내, ,"목줄,입마개",카페카페강남구실내목줄 입마개논현2동논현2동,논현2동,대한민국 서울특별시 강남구 논현2동 233-12
카페,Orner,강남구,37.51018651,127.0426534,서울특별시 강남구 봉은사로 327,070-7757-0205,카페,실내, ,안기,카페카페강남구실내안기봉은사로봉은사로,봉은사로,대한민국 서울특별시 강남구 봉은사로 327
카페,천장지구,강남구,37.52216629,127.0383505,서울특별시 강남구 언주로150길 51,010-2469-3324,카페,실내, ,목줄,카페카페강남구실내목줄언주로150길언주로150길,언주로150길,대한민국 서울특별시 강남구 언주로150길 51
카페,모스가든,강남구,37.51668679,127.0283275,서울특별시 강남구 논현로139길 12,02-546-8532,카페,실외, ,목줄,카페카페강남구실외목줄논현로139길논현로139길,논현로139길,대한민국 서울특별시 강남구 논현로139길 12
카페,라이프커피,강남구,37.5204674,127.0398569,서울특별시 강남구 선릉로 741,010-9941-6190,카페,실내, ,"목줄,입마개",카페카페강남구실내목줄 입마개선릉로선릉로,선릉로,대한민국 서울특별시 강남구 선릉로 741
카페,웻커피 신사,강남구,37.51992696,127.0200518,서울특별시 강남구 강남대로162길 18,02-6081-5073,카페,실내, ,목줄,카페카페강남구실내목줄신사동신사동,신사동,대한민국 서울특별시 강남구 신사동 507-3
카페,에잇디 서울카페,강남구,37.52453555,127.0363956,서울특별시 강남구 선릉로153길 37,02-547-3350,카페,실내, ,목줄,카페카페강남구실내목줄선릉로153길선릉로153길,선릉로153길,대한민국 서울특별시 강남구 선릉로153길 37
카페,윌비,강남구,37.51918564,127.0209178,서울특별시 강남구 강남대로158길 26,070-7655-0222,카페,실내, ,캐리어,카페카페강남구실내캐리어신사동신사동,신사동,대한민국 서울특별시 강남구 신사동 517-4
카페,펠트 도산공원점,강남구,37.52566452,127.0354632,서울특별시 강남구 언주로164길 23,070-7756-3145,카페,실내, ,목줄,카페카페강남구실내목줄신사동신사동,신사동,대한민국 서울특별시 강남구 신사동 645-21
카페,카페 노티드 청담,강남구,37.52419169,127.0382417,서울특별시 강남구 도산대로53길 15,070-8860-9377,카페,실내, ,안기,카페카페강남구실내안기도산대로53길도산대로53길,도산대로53길,대한민국 서울특별시 강남구 도산대로53길 15
카페,뉴욕라츠오베이글스,강남구,37.5268616,127.0366172,서울특별시 강남구 압구정로48길 28,02-3448-7777,카페,테라스, ,목줄,카페카페강남구테라스목줄압구정로48길압구정로48길,압구정로48길,대한민국 서울특별시 강남구 압구정로48길 28
카페,올어라운드 커피,강남구,37.50738232,127.0616237,서울특별시 강남구 영동대로85길 20-7,070-8818-8236,카페,실내, ,안기,카페카페강남구실내안기대치동대치동,대치동,대한민국 서울특별시 강남구 대치동 945-23
카페,르브런쉭 대치점,강남구,37.50285721,127.0591438,서울특별시 강남구 삼성로 350,02-565-5531,브런치,테라스, ,목줄,카페브런치강남구테라스목줄대치동대치동,대치동,대한민국 서울특별시 강남구 대치동 961-11
카페,여의도커피,영등포구,37.51889795,126.9319433,서울특별시 영등포구 여의대방로 386,070-7719-8983,카페,실내, ,목줄,카페카페영등포구실내목줄서울특별시서울특별시,서울특별시,대한민국 서울특별시 KR 서울특별시 영등포구 여의도동 54-2번지 지하1층 지1호 지5 6 7호 지11 12호 라일리
카페,커피는여기,마포구,37.54474774,126.9482582,서울특별시 마포구 백범로 152,02-701-7332,카페,실내, ,목줄,카페카페마포구실내목줄공덕동공덕동,공덕동,대한민국 서울특별시 마포구 공덕동 446-33
카페,브루니치,마포구,37.54474774,126.9482582,서울특별시 마포구 백범로 152,010-9077-1604,카페,실내, ,목줄,카페카페마포구실내목줄공덕동공덕동,공덕동,대한민국 서울특별시 마포구 공덕동 446-33
카페,staywell café,마포구,37.54474774,126.9482582,서울특별시 마포구 백범로 152,02-3273-0408,카페,실내, ,목줄,카페카페마포구실내목줄공덕동공덕동,공덕동,대한민국 서울특별시 마포구 공덕동 446-33
카페,만리커피,마포구,37.54811608,126.9568999,서울특별시 마포구 만리재옛길 47-1,02-713-5874,카페,실내, ,목줄,카페카페마포구실내목줄공덕동공덕동,공덕동,대한민국 서울특별시 마포구 공덕동 118-28
카페,스트레토 로스터리&카페,마포구,37.54751726,126.9549009,서울특별시 마포구 마포대로12길 29-1,010-8679-0553,카페,실내, ,목줄,카페카페마포구실내목줄마포대로12길마포대로12길,마포대로12길,대한민국 서울특별시 마포구 마포대로12길 29
카페,타쿠미야,마포구,37.54474774,126.9482582,서울특별시 마포구 백범로 152,02-713-5536,베이커리,실내, ,목줄,카페베이커리마포구실내목줄공덕동공덕동,공덕동,대한민국 서울특별시 마포구 공덕동 446-33
카페,아이엠베이글 공덕점,마포구,37.54474774,126.9482582,서울특별시 마포구 백범로 152,070-7718-2881,브런치,테라스, ,목줄,카페브런치마포구테라스목줄공덕동공덕동,공덕동,대한민국 서울특별시 마포구 공덕동 446-33
카페,MOMO,용산구,37.53641059,127.0008269,서울특별시 용산구 이태원로42길 42,02-792-5522,카페,실내, ,목줄,카페카페용산구실내목줄한남동한남동,한남동,대한민국 서울특별시 용산구 한남동 683-42
카페,겟썸커피 Hannam,용산구,37.53576701,126.9997781,서울특별시 용산구 이태원로42길 17,070-4179-3619,카페,실내, ,목줄,카페카페용산구실내목줄한남동한남동,한남동,대한민국 서울특별시 용산구 한남동 이태원로42길 19
카페,아이도넛케어,용산구,37.53351697,126.9923955,서울특별시 용산구 이태원로20가길 4,070-8882-3947,카페,실내, ,목줄,카페카페용산구실내목줄이태원로20가길이태원로20가길,이태원로20가길,대한민국 서울특별시 용산구 이태원로20가길 4
카페,파온,용산구,37.53641311,126.9986939,서울특별시 용산구 이태원로45길 16,02-797-3776,카페,실내, ,목줄,카페카페용산구실내목줄한남동한남동,한남동,대한민국 서울특별시 용산구 한남동 745-13
카페,아이라이크마운틴,용산구,37.53303616,126.998938,서울특별시 용산구 대사관로6가길 9,02-6405-1025,카페,실내, ,목줄,카페카페용산구실내목줄대사관로6가길대사관로6가길,대사관로6가길,대한민국 서울특별시 용산구 대사관로6가길 9
카페,한남베르그,용산구,37.53570376,127.0005541,서울특별시 용산구 이태원로54길 58-26,02-790-1750,카페,실내, ,목줄,카페카페용산구실내목줄이태원로54길이태원로54길,이태원로54길,대한민국 서울특별시 용산구 이태원로54길 58-26
카페,Happy Sexy Enjoy,용산구,37.53748711,126.9997309,서울특별시 용산구 이태원로55가길 26-5,070-4213-2061,카페,실내, ,목줄,카페카페용산구실내목줄한남동한남동,한남동,대한민국 서울특별시 용산구 한남동 743-1
카페,mtl 한남,용산구,37.53712986,126.9990567,서울특별시 용산구 이태원로49길 24,070-4113-3113,카페,실내, ,목줄,카페카페용산구실내목줄한남동한남동,한남동,대한민국 서울특별시 용산구 한남동 743-8
카페,메이킷 카페,강남구,37.50961727,127.054664,서울특별시 강남구 삼성로 535,070-8623-9333,카페,실내, ,목줄,카페카페강남구실내목줄삼성2동삼성2동,삼성2동,대한민국 서울특별시 강남구 삼성2동 127-9
카페,OMW애견카페,강서구,37.54199949,126.8426136,서울특별시 강서구 화곡로 194-26,010-3663-6778,애견카페,실내, ,없음,카페애견카페강서구실내없음화곡본동화곡본동,화곡본동,대한민국 서울특별시 강서구 화곡본동 107-13
카페,풀스트릿,마포구,37.5652702,126.9246332,서울특별시 마포구 동교로51안길 16,02-326-3563,브런치,실내,"매일 11:00 - 21:00 , 월요일 휴무","목줄,매너벨트",카페브런치마포구실내목줄 매너벨트동교로51안길동교로51안길,동교로51안길,대한민국 서울특별시 마포구 동교로51안길 16
카페,지디파크,강서구,37.58040078,126.8194725,서울특별시 강서구 양천로27길 167,02-2663-9003,카페,실내, ,목줄,카페카페강서구실내목줄방화동방화동,방화동,대한민국 서울특별시 강서구 방화동 120
카페,부띠끄멍,금천구,37.45995605,126.8966992,서울특별시 금천구 시흥대로 291,010-9291-5241,애견카페,"실내,테라스", ,없음,카페애견카페금천구실내 테라스없음dong독산동,독산동,대한민국 서울특별시 롯데캐슬3차
카페,트와블루 카페,성동구,37.54790458,127.0429757,서울특별시 성동구 서울숲길 50,070-8886-5254,카페,"실외,테라스",평일 09:00 - 22:00 / 주말 10:00 - 22:00,목줄,카페카페성동구실외 테라스목줄서울숲길서울숲길,서울숲길,대한민국 서울특별시 성동구 서울숲길 50
카페,리본윈도우,종로구,37.5843846,127.0024512,서울특별시 종로구 대학로14길 25-1,070-4110-2568,브런치,실내,매일 11:30~21:00 (매주 월요일 휴무,"목줄,캐리어",카페브런치종로구실내목줄 캐리어혜화동혜화동,혜화동,대한민국 서울특별시 종로구 혜화동 163-31
카페,FOUNYARD Bakeshop,마포구,37.55487627,126.9058791,서울특별시 마포구 월드컵로13길 79,02-325-8185,베이커리,실내,매일 11:00 - 23:00,"목줄,캐리어,안기",카페베이커리마포구실내목줄 캐리어 안기월드컵로13길월드컵로13길,월드컵로13길,대한민국 서울특별시 마포구 월드컵로13길 79
카페,5to7 카페(디저트카페),성동구,37.5461148,127.0433005,서울특별시 성동구 서울숲2길 44-13,070-4127-7616,카페,"실내,테라스",매일 11:30~21:00,"목줄,안기",카페카페성동구실내 테라스목줄 안기성수1가2동성수1가2동,성수1가2동,대한민국 서울특별시 성동구 성수1가2동 668-135
카페,도그베이 서울점,광진구,37.547246,127.0783044,서울특별시 광진구 광나루로 441,1899-2617,카페,"실내,실외",매일 10:00~22:00,"목줄,안기",카페카페광진구실내 실외목줄 안기능동능동,능동,대한민국 서울특별시 광진구 능동 18-11
카페,카페 일월십일,양천구,37.53787136,126.8641467,서울특별시 양천구 목동중앙남로9길 41,010-6610-3512,카페,"실내,테라스",매일 10:00 - 21:00,"목줄,안기",카페카페양천구실내 테라스목줄 안기목동중앙남로9길목동중앙남로9길,목동중앙남로9길,대한민국 서울특별시 양천구 목동중앙남로9길 41
카페,로맨티카 카페,은평구,37.64091035,126.9378462,서울특별시 은평구 연서로 532,02-6929-3853,카페,"실내,실외","매일 11:00 - 22:00, 연중무휴",목줄,카페카페은평구실내 실외목줄진관동진관동,진관동,대한민국 서울특별시 은평구 진관동 134-31
카페,크래프트아일랜드 잠실점,송파구,37.51694013,127.102633,서울특별시 송파구 올림픽로35가길 10,02-413-1555,브런치,"실내,테라스","월-수,공휴일 11:30~00:00 / 목-토 11:30~01:00 / 일 12:30~00:00 / 브레이크타임 14:00~16:00",목줄,카페브런치송파구실내 테라스목줄잠실6동잠실6동,잠실6동,대한민국 서울특별시 송파구 잠실6동 7-14
카페,Scene,성동구,37.5448925,127.0534456,서울특별시 성동구 연무장5길 20,02-468-2122,카페,"실외,테라스",매일 09:00 - 23:00 1층 카페 쎈느 영업시간 / 매일 12:00 - 20:002층 편집매장 영업시간,목줄,카페카페성동구실외 테라스목줄성수2가3동성수2가3동,성수2가3동,대한민국 서울특별시 성동구 성수2가3동 연무장5길 20
카페,슬로우포레스트,종로구,37.58281605,126.9807801,서울특별시 종로구 삼청로5길 20,070-7525-5600,카페,"실내,테라스",매일 12:00~19:00,목줄,카페카페종로구실내 테라스목줄팔판동팔판동,팔판동,대한민국 서울특별시 종로구 팔판동 100-2
카페,미미에토,서대문구,37.57126825,126.9340059,서울특별시 서대문구 연희로 153-4,070-4900-6140,카페,"실내,실외,테라스",매일 10:00 - 22:00 / 2층 강동우 조명전시전 무료관람,목줄,카페카페서대문구실내 실외 테라스목줄연희동연희동,연희동,대한민국 서울특별시 서대문구 연희동 81-19
카페,카페멍스,노원구,37.65696357,127.0635976,서울특별시 노원구 상계로5길 19,02-933-7779,애견카페,실내,매일 12:00~22:00,없음,카페애견카페노원구실내없음상계동상계동,상계동,대한민국 서울특별시 노원구 상계동 354-11
카페,55라이트 카페,마포구,37.55172238,126.9056099,서울특별시 마포구 희우정로 58,010-2234-1769,카페,"실내,테라스",11:00-20:00 (last order 19:50),목줄,카페카페마포구실내 테라스목줄합정동합정동,합정동,대한민국 서울특별시 마포구 합정동 441-16
카페,택스커피,마포구,37.55160667,126.9058044,서울특별시 마포구 희우정로 56,02-333-0609,카페,실내,"매일 11:00 - 21:00, 월요일 휴무",목줄,카페카페마포구실내목줄합정동합정동,합정동,대한민국 서울특별시 마포구 합정동 희우정로 56
카페,카페디로마,서초구,37.48200135,127.0103352,서울특별시 서초구 반포대로7길 31,02-525-6986,카페,"실내,테라스",월-통 10:00~20:00 (라스트오더 19:00),목줄,카페카페서초구실내 테라스목줄반포대로7길반포대로7길,반포대로7길,대한민국 서울특별시 서초구 반포대로7길 31
카페,동산고와,종로구,37.61042545,126.9567891,서울특별시 종로구 비봉2길 6,070-8224-0585,카페,"실내,테라스",매일 11:00 - 19:00,목줄,카페카페종로구실내 테라스목줄구기동구기동,구기동,대한민국 서울특별시 종로구 구기동 135
카페,버터북,용산구,37.5441277,126.9857122,서울특별시 용산구 신흥로15길 20,010-4626-6645,카페,실내,평일 12:00 - 20:00 / 월요일 휴무,목줄,카페카페용산구실내목줄용산2가동용산2가동,용산2가동,대한민국 서울특별시 용산구 용산2가동 31-2
카페,퍼피커피,성동구,37.56640445,127.0302947,서울특별시 성동구 무학로 24-1,02-2299-0779,카페,"실내,테라스","매일 11:00 - 22:00 , 매주 월요일 휴무",목줄,카페카페성동구실내 테라스목줄홍익동홍익동,홍익동,대한민국 서울특별시 성동구 홍익동 406
카페,카페멈무이,서대문구,37.59694675,126.9473147,서울특별시 서대문구 간호대로 35,02-2088-5080,애견카페,실내,"매일 11:00~21:00 , 일요일은 7시 마감입니다.",없음,카페애견카페서대문구실내없음간호대로간호대로,간호대로,대한민국 서울특별시 서대문구 간호대로 35
카페,비에니,마포구,37.54569305,126.920354,서울특별시 마포구 와우산로3길 48,010-8938-0458,카페,실내,주말 13:00 - 24:00평일 12:30 - 24:00,"목줄,안기",카페카페마포구실내목줄 안기당인동당인동,당인동,대한민국 서울특별시 마포구 당인동 25-30
카페,레귤러서비스,마포구,37.55795351,126.9042804,서울특별시 마포구 월드컵로25길 58,070-8866-6727,카페,실내,일요일 12:00 - 18:00 (last order 17:30) / 평일 12:00 - 20:00(last order 19:30) / 월요일 휴무,목줄,카페카페마포구실내목줄망원동망원동,망원동,대한민국 서울특별시 마포구 망원동 424-18
카페,상도다방,마포구,37.55771353,126.9036674,서울특별시 마포구 월드컵로25길 74,010-9722-8832,카페,실내,월.화.목.금 11:00~19:00 / 수.토 11:~22:00 / 일요일 휴무,"목줄,안기",카페카페마포구실내목줄 안기망원동망원동,망원동,대한민국 서울특별시 마포구 망원동 427-9
카페,꽃추장,마포구,37.55664461,126.9021606,서울특별시 마포구 망원로 48,02-6083-3034,카페,실내,"평일 12:00 - 22:00, 토요일 12:00 - 23:00, 월요일 휴무",목줄,카페카페마포구실내목줄망원1동망원1동,망원1동,대한민국 서울특별시 마포구 망원1동 416-24
카페,토크넌센스,동작구,37.50683496,126.9596603,서울특별시 동작구 흑석로8길 7,010-6278-8858,카페,실내,매일 11:00 - 23:00(일요일 11:00 - 20:00),목줄,카페카페동작구실내목줄흑석로8길흑석로8길,흑석로8길,대한민국 서울특별시 동작구 흑석로8길 7
카페,카페 쉔,노원구,37.62441703,127.0765086,서울특별시 노원구 동일로184길 52,070-7799-0252,카페,실내,평일 12:00 - 21:00(일요일 12:00-20:00),목줄,카페카페노원구실내목줄공릉1동공릉1동,공릉1동,대한민국 서울특별시 노원구 공릉1동 557-1
카페,피크니크,영등포구,37.53800885,126.8943677,서울특별시 영등포구 양평로22길 2-1,070-7758-6770,카페,"실내,테라스","평일 09:30 - 22:30, 주말,공휴일 10:00 - 22:00",목줄,카페카페영등포구실내 테라스목줄양평동4가양평동4가,양평동4가,대한민국 서울특별시 영등포구 양평동4가 129
카페,카페캔플,강남구,37.52094578,127.0236438,서울특별시 강남구 도산대로17길 37-1,02-549-7480,카페,실내,"평일 12:00 - 23:00, 주말 11:00 - 23:00",목줄,카페카페강남구실내목줄신사동신사동,신사동,대한민국 서울특별시 강남구 신사동 544-6
카페,Summer Lane,용산구,37.53635969,126.9992667,서울특별시 용산구 이태원로55가길 49,02-792-8114,브런치,실내,매일 07:30 - 18:00,목줄,카페브런치용산구실내목줄한남동한남동,한남동,대한민국 서울특별시 용산구 한남동 738-13
카페,비건카페 패밀리앤프렌즈,성북구,37.58654321,127.0104249,서울특별시 성북구 삼선교로14길 37,010-6341-3574,카페,실내,"평일 09:30 - 22:00, 토요일 11:00 - 22:00, 일요일 휴무",목줄,카페카페성북구실내목줄삼선동2가삼선동2가,삼선동2가,대한민국 서울특별시 성북구 삼선동2가 191
카페,underfloor,마포구,37.56058357,126.9244691,서울특별시 마포구 동교로 232,010-8448-9108,카페,실내,매일 13:00 - 23:00(월요일 휴무),목줄,카페카페마포구실내목줄서교동서교동,서교동,대한민국 서울특별시 마포구 서교동 동교로 232
카페,애크미,강서구,37.55844423,126.8470036,서울특별시 강서구 화곡로61길 100,02-2668-8159,카페,실내,"평일 09:30 - 23:00, 주말 11:00 - 22:00",목줄,카페카페강서구실내목줄등촌동등촌동,등촌동,대한민국 서울특별시 강서구 등촌동 662-6
카페,카페몽당,광진구,37.5488118,127.1052635,서울특별시 광진구 광장로5길 24,070-4116-7922,카페,실내,매일 10:00 - 22:00,목줄,카페카페광진구실내목줄광장동광장동,광장동,대한민국 서울특별시 광진구 광장동 350-4
카페,베베커피로스터즈,영등포구,37.535608,126.8994853,서울특별시 영등포구 선유로52길 12,02-6339-7418,카페,실내,"평일 08:30 - 20:00, 토요일 10:00 - 19:00, 일요일,공휴일 휴무",목줄,카페카페영등포구실내목줄선유로52길선유로52길,선유로52길,대한민국 서울특별시 영등포구 선유로52길 12 삼보빌딩1층
카페,땡스오트,마포구,37.56627395,126.9198974,서울특별시 마포구 성미산로23길 68,02-3144-0890,카페,실내,"평일 12:00 - 21:00, 주말 12:00 - 21:00",목줄,카페카페마포구실내목줄연남동연남동,연남동,대한민국 서울특별시 마포구 연남동 375-113
카페,웨스트빙고 서빙고동점,용산구,37.52075732,126.9909214,서울특별시 용산구 서빙고로51길 10,010-5119-8833,카페,실내,"평일 08:00 - 23:00, 주말 11:00 - 23:00",목줄,카페카페용산구실내목줄서빙고로51길서빙고로51길,서빙고로51길,대한민국 서울특별시 용산구 서빙고로51길 10
카페,일월일일,종로구,37.58265452,126.9980349,서울특별시 종로구 창경궁로 231,010-7378-0887,카페,실내,매일 12:00 - 23:00(월요일 휴무),목줄,카페카페종로구실내목줄명륜3가동명륜3가동,명륜3가동,대한민국 서울특별시 종로구 명륜3가동 196-13
카페,브리에,강동구,37.52571969,127.1306337,서울특별시 강동구 강동대로51길 50,010-9940-1879,카페,실내,매일 11:00 - 21:00(월요일 휴무),목줄,카페카페강동구실내목줄성내동성내동,성내동,대한민국 서울특별시 강동구 성내동 436-30
카페,둔촌237커피농장,강동구,37.51868954,127.1418674,서울특별시 강동구 강동대로 331,02-488-6902,카페,실내,평일 17:00 - 23:00,목줄,카페카페강동구실내목줄강동대로강동대로,강동대로,대한민국 서울특별시 강동구 강동대로 331
카페,카페설곡,성북구,37.58011951,127.0239187,서울특별시 성북구 안암로5길 22,02-928-0019,카페,실내,매일 11:00 - 23:00,목줄,카페카페성북구실내목줄안암동안암동,안암동,대한민국 서울특별시 성북구 안암동 안암로5길 22
카페,퍼스널커피,마포구,37.55472732,126.9037394,서울특별시 마포구 망원로6길 50,070-8624-5404,카페,실내,매일 10:00 - 22:00,목줄,카페카페마포구실내목줄망원1동망원1동,망원1동,대한민국 서울특별시 마포구 망원1동 405-31
카페,쟈드니에,마포구,37.56643082,126.919773,서울특별시 마포구 동교로51길 133-1,010-8020-9433,브런치,실내,매일 11:00 - 22:00,목줄,카페브런치마포구실내목줄연남동연남동,연남동,대한민국 서울특별시 마포구 연남동 454-10
카페,신월커피,양천구,37.52954409,126.831206,서울특별시 양천구 남부순환로58길 27-1,02-2699-8572,카페,실내,"매일 10:00 - 21:00, 월요일 휴무",목줄,카페카페양천구실내목줄남부순환로58길남부순환로58길,남부순환로58길,대한민국 서울특별시 양천구 남부순환로58길 27-1
카페,카페 자작나무,금천구,37.4718013,126.896009,서울특별시 금천구 가산로 61,02-839-8888,카페,테라스,매일 10:00 - 23:00,목줄,카페카페금천구테라스목줄독산동독산동,독산동,대한민국 서울특별시 금천구 독산동 296-10
카페,정월,강남구,37.50365972,127.0286266,서울특별시 강남구 강남대로102길 46,02-6013-0926,카페,실내,매일 11:00 - 22:30,목줄,카페카페강남구실내목줄강남대로102길강남대로102길,강남대로102길,대한민국 서울특별시 강남구 강남대로102길 46
카페,쓰리버즈 IFC점,영등포구,37.52517752,126.9248767,서울특별시 영등포구 국제금융로 10,02-6137-3031,카페,실내,"평일 08:00 - 23:00, 주말 10:00 - 23:00",캐리어,카페카페영등포구실내캐리어TWOTWO,TWO,대한민국 서울특별시 영등포구 TWO IFC 29 층
카페,분카샤,중구,37.56532931,126.9920328,서울특별시 중구 을지로14길 20,02-2269-6947,카페,실내,매일 11:00 - 23:00,목줄,카페카페중구실내목줄을지로동을지로동,을지로동,대한민국 서울특별시 중구 을지로동 302-2
카페,본새커피,강동구,37.55136357,127.1347284,서울특별시 강동구 암사길 50,010-2121-7869,카페,실내,매일 10:30 - 24:00,목줄,카페카페강동구실내목줄암사1동암사1동,암사1동,대한민국 서울특별시 강동구 암사1동 479-12
카페,그래버커피 가리봉점,구로구,37.48089826,126.8919964,서울특별시 구로구 디지털로 238,070-4671-8351,브런치,실내,매일 08:00 - 21:00,안기,카페브런치구로구실내안기가리봉동가리봉동,가리봉동,대한민국 서울특별시 구로구 가리봉동 134-186
카페,포니테일,마포구,37.54829743,126.9390496,서울특별시 마포구 광성로6길 36,070-8854-3339,카페,실내,매일 11:30 - 24:00(일요일 11:30 - 22:00),목줄,카페카페마포구실내목줄광성로6길광성로6길,광성로6길,대한민국 서울특별시 마포구 광성로6길 36
카페,로즈드마이,은평구,37.58794783,126.9139098,서울특별시 은평구 불광천길 312,02-6401-4679,카페,실내,매일 12:00 - 23:00,목줄,카페카페은평구실내목줄응암3동응암3동,응암3동,대한민국 서울특별시 은평구 응암3동 592-62
카페,프릳츠 도화점,마포구,37.54102346,126.9490748,서울특별시 마포구 새창로2길 17,02-3275-2045,카페,실내,평일 08:00 - 23:00주말 10:00 - 23:00,목줄,카페카페마포구실내목줄도화동도화동,도화동,대한민국 서울특별시 마포구 도화동 179
카페,경계선,강북구,37.63849718,127.0071039,서울특별시 강북구 삼각산로 22-7,010-3957-7341,카페,실외,"매일 11:00 - 19:00, 일요일 휴무",목줄,카페카페강북구실외목줄삼각산로삼각산로,삼각산로,대한민국 서울특별시 강북구 삼각산로 22-7
카페,뚝방길 홍차가게,광진구,37.52998643,127.0738539,서울특별시 광진구 자양강변길 277,02-512-0189,브런치,실내,"매일 12:00 - 21:00, 월요일, 화요일 휴무",없음,카페브런치광진구실내없음자양동자양동,자양동,대한민국 서울특별시 광진구 자양동 자양강변길 277
카페,그냥 방실,마포구,37.55625968,126.9042201,서울특별시 마포구 희우정로20길 71,070-4196-0123,카페,실내,"매일11:00~23:00, 매주월요일휴무",목줄,카페카페마포구실내목줄망원동망원동,망원동,대한민국 서울특별시 마포구 망원동 415-58
카페,1994양과점,은평구,37.61726844,126.9207932,서울특별시 은평구 연서로26길 9-5,010-8885-6527,카페,실내,매일 11:00 - 22:00,목줄,카페카페은평구실내목줄대조동대조동,대조동,대한민국 서울특별시 은평구 대조동 197-20
카페,꾸머카페,마포구,37.54692624,126.9127065,서울특별시 마포구 성지길 40,02-322-8930,카페,테라스,매일 10:00 - 23:00,목줄,카페카페마포구테라스목줄합정동합정동,합정동,대한민국 서울특별시 마포구 합정동 376-34
카페,스태픽스,종로구,37.57747279,126.967882,서울특별시 종로구 사직로9길 22,010-4274-2055,카페,"실내,실외",매일 10:00 - 22:00(월요일 휴무),없음,카페카페종로구실내 실외없음필운동필운동,필운동,대한민국 서울특별시 종로구 필운동 32-1
카페,murmur,송파구,37.5044694,127.09777,서울특별시 송파구 삼학사로18길 5,010-2671-4488,카페,실내,"매일 12:00 - 19:30 휴무일은 유동적이오니 확인부탁드리며, 디저트소진시 매장은 마감됩니다.",목줄,카페카페송파구실내목줄석촌동석촌동,석촌동,대한민국 서울특별시 송파구 석촌동 6-5
카페,꽁티드툴레아,강남구,37.52556317,127.0368893,서울특별시 강남구 도산대로49길 39,070-8846-8490,카페,"실내,테라스","평일12:00~23:00, 월요일휴무","목줄,안기",카페카페강남구실내 테라스목줄 안기신사동신사동,신사동,대한민국 서울특별시 강남구 신사동 646-21
카페,파니모들,동작구,37.49023433,126.9822293,서울특별시 동작구 동작대로 153,070-7607-8252,카페,실내,"평일 08:00 - 22:30 주말,공휴일 11:00 - 22:30",없음,카페카페동작구실내없음사당2동사당2동,사당2동,대한민국 서울특별시 동작구 사당2동 79-3
카페,머치커피,동작구,37.48062429,126.979093,서울특별시 동작구 동작대로9길 43,010-4788-2726,카페,실내,매일 12:00 - 21:00,없음,카페카페동작구실내없음사당동사당동,사당동,대한민국 서울특별시 동작구 사당동 1026-35
카페,아스트로노머스커피 망원점,마포구,37.5602068,126.9040392,서울특별시 마포구 망원로7길 65,070-4100-0064,카페,실내,매일 12:00 - 21:00,없음,카페카페마포구실내없음망원2동망원2동,망원2동,대한민국 서울특별시 마포구 망원2동 망원로7길 65
카페,오후의 파이,송파구,37.50352233,127.0976903,서울특별시 송파구 삼학사로16길 4,010-6779-3211,카페,실내,"매일 11:30 - 20:30, 월요일 휴무",없음,카페카페송파구실내없음석촌동석촌동,석촌동,대한민국 서울특별시 송파구 석촌동 12
카페,썸머홀릭,마포구,37.54777864,126.9395777,서울특별시 마포구 독막로31길 18,010-5034-7702,카페,실내,"평일 10:30~20:00(매주 월요일 휴무), 주말 10:30~20:30(1,3 주일요일 휴무)",목줄,카페카페마포구실내목줄신수동신수동,신수동,대한민국 서울특별시 마포구 신수동 85-24
카페,까사밀,강남구,37.52213882,127.0195473,서울특별시 강남구 도산대로1길 83,02-543-0079,카페,실내,"매일 아침 07:00 - 10:00, 점심 11:30 - 15:00, 저녁 18:00 - 22:00, 주문마감 21:00",목줄,카페카페강남구실내목줄도산대로1길도산대로1길,도산대로1길,대한민국 서울특별시 강남구 도산대로1길 83
카페,카페1953위드오드리,영등포구,37.51191061,126.8920773,서울특별시 영등포구 경인로77가길 12,02-2672-0504,카페,실내,매일 10:00 - 23:00,목줄,카페카페영등포구실내목줄경인로77가길경인로77가길,경인로77가길,대한민국 서울특별시 영등포구 경인로77가길 12
카페,딩가케이크,마포구,37.56340375,126.9220739,서울특별시 마포구 동교로29길 68,-,베이커리,실내,"11:30 - 22:00, 금,토 11:30 - 23:00",목줄,카페베이커리마포구실내목줄연남동연남동,연남동,대한민국 서울특별시 마포구 연남동 252-18
카페,나무사이로,종로구,37.57466654,126.9709712,서울특별시 종로구 사직로8길 21,070-7590-0885,카페,실외,10:00 - 22:00,없음,카페카페종로구실외없음내자동내자동,내자동,대한민국 서울특별시 종로구 내자동 195
카페,슬로우레빗,성동구,37.56559134,127.0531513,서울특별시 성동구 용답중앙13길 15-1,02-2247-7772,카페,테라스,"평일 07:30 - 20:30, 토요일 09:00 - 17:00, 일요일 휴무",목줄,카페카페성동구테라스목줄용답중앙13길용답중앙13길,용답중앙13길,대한민국 서울특별시 성동구 용답중앙13길 15-1
카페,오아시스엉클,송파구,37.48613359,127.1330616,서울특별시 송파구 송이로38길 8,02-6013-3133,카페,실내,"평일 10:00 - 21:00, 토요일 12:00 - 21:00, 일요일, 공휴일 12:00 - 18:00",없음,카페카페송파구실내없음문정동문정동,문정동,대한민국 서울특별시 송파구 문정동 112-8
카페,보틀라운지(보틀팩토리),서대문구,37.57518282,126.9284745,서울특별시 서대문구 홍연길 26,02-3144-0703,카페,실내,월 정기휴무 (매주 월요일)   화 10:00 - 21:00   수 10:00 - 21:00   목 10:00 - 21:00   금 10:00 - 21:00   토 10:00 - 21:00   일 10:00 - 21:00,목줄,카페카페서대문구실내목줄연희동연희동,연희동,대한민국 서울특별시 서대문구 연희동 708
카페,마이쏭,강남구,37.5233441,127.035698,서울특별시 강남구 도산대로45길 16-4,02-518-0105,카페,실내,"매일 10:00 - 22:00 Break Time 15:00~17:00, 수요일 10:00 - 15:00, Only Brunch Buffet Time",목줄,카페카페강남구실내목줄강남구강남구,강남구,"2F, 16-4 도산대로45길 강남구 서울특별시 대한민국"
카페,씨디티,중구,37.55663565,127.0106498,서울특별시 중구 동호로14길 23,010-4235-3161,카페,실내,"매일 11:00 - 21:00, 매주 일요일 휴무",목줄,카페카페중구실내목줄신당동신당동,신당동,대한민국 서울특별시 중구 신당동 424-1
카페,라딧프로젝트,송파구,37.50685019,127.106151,서울특별시 송파구 송파대로 450,02-2088-7789,카페,실내,"12:00 - 22:00, 월요일 휴무",없음,카페카페송파구실내없음송파동송파동,송파동,대한민국 서울특별시 송파구 송파동 15-6
카페,는커피,중구,37.56067225,127.0152204,서울특별시 중구 청구로4길 19,02-2246-1212,카페,실내,"평일 08:30 - 20:00, 주말,공휴일 11:30 - 20:00",없음,카페카페중구실내없음신당6동신당6동,신당6동,대한민국 서울특별시 중구 신당6동 288-24
카페,상봉커피,중랑구,37.59193587,127.0837475,서울특별시 중랑구 봉우재로 96,010-2206-1029,카페,실내,"12:00 - 22:00, 매주 월요일 휴무",없음,카페카페중랑구실내없음봉우재로봉우재로,봉우재로,대한민국 서울특별시 중랑구 봉우재로 96
카페,카페엔바이콘 논현점,강남구,37.51693334,127.0231981,서울특별시 강남구 논현로149길 66,02-540-8522,카페,실내,"평일 07:00 - 21:00, 주말,공휴일 10:00 - 20:00",없음,카페카페강남구실내없음논현동논현동,논현동,대한민국 서울특별시 강남구 논현동 4-23
카페,엣모스피어,마포구,37.55677981,126.9028812,서울특별시 마포구 망원로 54-1,070-8692-4162,카페,실내,"매일 12:00 - 23:00, 매달 첫째주 월요일 휴무",없음,카페카페마포구실내없음망원로망원로,망원로,대한민국 서울특별시 마포구 망원로 54-1
카페,린도 shop&cafe,동작구,37.48347992,126.9756618,서울특별시 동작구 사당로 251,010-6384-8586,카페,실내,"목, 금, 월 13:30 - 21:00, 화,수,토,일 13:30 - 20:00",목줄,카페카페동작구실내목줄사당동사당동,사당동,대한민국 서울특별시 동작구 사당동 323-17
카페,카페 봉브라더스,강남구,37.50734097,127.026253,서울특별시 강남구 강남대로118길 39,02-548-0888,애견카페,실내,10:00~24:00,없음,카페애견카페강남구실내없음논현동논현동,논현동,대한민국 서울특별시 강남구 논현동 185-2
카페,이시이,중구,37.55589445,127.0120407,서울특별시 중구 다산로14길 12,-,카페,실내,평일 11:00 - 23:00주말 12:00 - 23:00,없음,카페카페중구실내없음신당동신당동,신당동,대한민국 서울특별시 중구 신당동 347-338
카페,더로열푸드앤드링크,용산구,37.54719402,126.9839421,서울특별시 용산구 신흥로20길 37,070-7774-4168,카페,실내,매일 10:00 - 22:00,목줄,카페카페용산구실내목줄후암동후암동,후암동,대한민국 서울특별시 용산구 후암동 406-58
카페,그레이랩,마포구,37.54628384,126.9144423,서울특별시 마포구 토정로3길 16,02-333-5694,카페,테라스,"평일 10:00 - 22:00, 주말 12:00 - 22:00",없음,카페카페마포구테라스없음합정동합정동,합정동,대한민국 서울특별시 마포구 합정동 토정로3길 16
카페,대루커피,마포구,37.55351422,126.9099034,서울특별시 마포구 동교로 70,070-7797-2162,카페,실내,"매일 11:00 - 22:00, 월요일 11:00 - 18:00, 화요일 휴무",없음,카페카페마포구실내없음합정동합정동,합정동,대한민국 서울특별시 마포구 합정동 428-4
카페,밤부 베이커리&브루잉,마포구,37.55061012,126.9109698,서울특별시 마포구 월드컵로5길 33-23,02-3144-0446,카페,실내,매일 11:00 - 22:30,없음,카페카페마포구실내없음합정동합정동,합정동,대한민국 서울특별시 마포구 합정동 386-11
카페,론드리프로젝트 워시타운,마포구,37.55527835,126.9142265,서울특별시 마포구 월드컵로10길 48,070-7794-8488,카페,실내,"평일 08:00 - 22:00, 주말, 공휴일 10:00 - 22:00",없음,카페카페마포구실내없음서교동서교동,서교동,대한민국 서울특별시 마포구 서교동 478-3
카페,펠앤콜,마포구,37.54816344,126.9221658,서울특별시 마포구 와우산로 39-21,070-4411-1434,카페,실내,"매일 12:00 - 22:00, 명절 휴무",없음,카페카페마포구실내없음상수동상수동,상수동,대한민국 서울특별시 마포구 상수동 310-11
카페,세컨브레스,서초구,37.47610387,127.0397474,서울특별시 서초구 양재천로 95-2,02-575-9840,카페,실내,"매일 12:00 - 21:00, 월요일 휴무",없음,카페카페서초구실내없음양재천로양재천로,양재천로,대한민국 서울특별시 서초구 양재천로 95-2 태영빌딩 3층
카페,빈터커피로스터스,강동구,37.5390222,127.1397997,서울특별시 강동구 양재대로115길 10,070-8824-7300,카페,실내,"매일 10:00 - 21:00, 일요일 12:00 - 21:00",목줄,카페카페강동구실내목줄양재대로115길양재대로115길,양재대로115길,대한민국 서울특별시 강동구 양재대로115길 10
카페,브라이언스커피,강남구,37.4838573,127.0457844,서울특별시 강남구 논현로26길 46,02-529-6399,카페,테라스,"평일 08:00 - 22:00, 주말 09:00 - 22:00, 명절 당일 13:00 - 22:00",목줄,카페카페강남구테라스목줄도곡동도곡동,도곡동,대한민국 서울특별시 강남구 도곡동 457
카페,비스트로마인,송파구,37.50463962,127.1015924,서울특별시 송파구 석촌호수로18길 26,02-2202-3775,카페,"실내,테라스","10:00 - 23:00 (last order 10:30), 매주 월요일 휴무",없음,카페카페송파구실내 테라스없음석촌호수로18길석촌호수로18길,석촌호수로18길,대한민국 서울특별시 송파구 석촌호수로18길 26
카페,neighborhood,성북구,37.6007187,126.9951254,서울특별시 성북구 대사관로 133,02-747-6730,카페,"실내,실외",매일 11:00 - 23:00,없음,카페카페성북구실내 실외없음대사관로대사관로,대사관로,대한민국 서울특별시 성북구 대사관로 133
카페,헤이쥬드,마포구,37.55589593,126.9304565,서울특별시 마포구 와우산로37길 7,010-4077-4851,카페,"실내,실외",매일 12:00 - 23:00 월요일 휴무,목줄,카페카페마포구실내 실외목줄동교동동교동,동교동,대한민국 서울특별시 마포구 동교동 와우산로37길 7
카페,로이터 커피 셸터,중구,37.55676184,126.9959165,서울특별시 중구 필동로 53,02-2273-8870,카페,실내,매일 11:00 - 23:00,"목줄,없음",카페카페중구실내목줄 없음필동로필동로,필동로,대한민국 서울특별시 중구 필동로 53
카페,카페브르브르,동작구,37.48523072,126.9791974,서울특별시 동작구 사당로29가길 6,-,카페,실내,"수~일 11:30~21:00, 월 11:30~20:00, 매주 화요일 휴무, 매월 첫주 월요일 휴무","목줄,안기",카페카페동작구실내목줄 안기사당로사당로,사당로,대한민국 서울특별시 동작구 사당로
카페,라운드브릭,광진구,37.54759244,127.104593,서울특별시 광진구 광장로 67,010-2326-5620,카페,실내,"평일 10:30~21:00, 토요일 12:00~20:00, 일요일 휴무",목줄,카페카페광진구실내목줄광장동광장동,광장동,대한민국 서울특별시 광진구 광장동 287-1
카페,카페 퍼블리코 본점,동작구,37.49994263,126.9258339,서울특별시 동작구 상도로 47,02-815-4000,카페,테라스,매일 09:00~22:00,목줄,카페카페동작구테라스목줄대방동대방동,대방동,대한민국 서울특별시 동작구 대방동 395-18
카페,오바도즈,마포구,37.5487521,126.9194025,서울특별시 마포구 독막로9길 3-4,02-326-3366,카페,실내,"12:00 ~ 22:30, 일요일 12:00 ~ 21:30",목줄,카페카페마포구실내목줄서교동서교동,서교동,대한민국 서울특별시 마포구 서교동 401-13
카페,폴드커피,성북구,37.60905128,127.0308019,서울특별시 성북구 종암로 214-3,02-912-9946,카페,실내,"12:00~22:00, 화요일 휴무",목줄,카페카페성북구실내목줄월곡1동월곡1동,월곡1동,대한민국 서울특별시 성북구 월곡1동 181-2
카페,펄앤콜,마포구,37.54816344,126.9221658,서울 마포구 와우산로 39-21,070-4411-1434,카페,실내,"12:00 ~ 22:00, 명절 휴무","목줄,안기",카페카페마포구실내목줄 안기상수동상수동,상수동,대한민국 서울특별시 마포구 상수동 310-11
카페,가배도,송파구,37.50926932,127.1108403,서울특별시 송파구 백제고분로45길 6,02-423-4542,카페,실내,매일 12:00 ~ 21:00,목줄,카페카페송파구실내목줄송파1동송파1동,송파1동,대한민국 서울특별시 송파구 송파1동 49-5
카페,카페 버터럼,관악구,37.48652236,126.9580003,서울 관악구 관악로30길 9,02-6015-8020,카페,실내,매일 09:00 - 23:00 / 연중무휴,캐리어,카페카페관악구실내캐리어봉천동봉천동,봉천동,대한민국 서울특별시 관악구 봉천동 37-65
카페,수목금토 카페,강남구,37.5145162,127.0254447,서울 강남구 강남대로136길 63,070-4226-7812,카페,테라스,"평일 11:00 - 19:00    금요일 11:00 - 21:00    주말 11:00 - 21:00    1/1, 설날연휴, 추석연휴, 12/25 휴무",목줄,카페카페강남구테라스목줄논현동논현동,논현동,대한민국 서울특별시 강남구 논현동 25-6
카페,모멘트커피 2호점,마포구,37.55770011,126.9210369,서울 마포구 월드컵북로4길 29,070-8860-5287,카페,"실내,테라스",매일 10:00 - 22:00,"목줄,캐리어",카페카페마포구실내 테라스목줄 캐리어동교동동교동,동교동,대한민국 서울특별시 마포구 동교동 월드컵북로4길 29
카페,cafevizan (카페비잔),중구,37.55295532,127.0087072,서울특별시 중구 동호로11길 53,010-6460-3618,카페,실내,평일 13:00 - 21:30    토요일 12:00 - 22:00    일요일 13:00 - 21:30,"캐리어,안기",카페카페중구실내캐리어 안기신당동신당동,신당동,대한민국 서울특별시 중구 신당동 353-97
카페,오츠커피,용산구,37.54041276,126.9677636,서울 용산구 원효로89길 13-12,070-7776-5542,카페,실내,매일 11:00 - 21:00 / 일요일 휴무,목줄,카페카페용산구실내목줄원효로89길원효로89길,원효로89길,대한민국 서울특별시 용산구 원효로89길 13-10
카페,개뿔,종로구,37.57817768,127.0080466,서울 종로구 낙산성곽서1길 26,02-765-2019,카페,테라스, ,목줄,카페카페종로구테라스목줄낙산성곽서1길낙산성곽서1길,낙산성곽서1길,대한민국 서울특별시 종로구 낙산성곽서1길 26
카페,카페 오롯,성동구,37.54848331,127.0495736,서울 성동구 상원6나길 7,02-2292-2223,카페,"실외,테라스",평일 10:00 - 23:00    주말 11:00 - 23:00,목줄,카페카페성동구실외 테라스목줄상원상원,상원,대한민국 서울특별시 성동구 상원 6 나길 7 1층 카페오롯
카페,트리아농,강남구,37.52032426,127.044565,서울 강남구 학동로59길 43,070-8129-5955,카페,테라스,매일 09:00 - 22:00 / 일요일 휴무,목줄,카페카페강남구테라스목줄청담동청담동,청담동,대한민국 서울특별시 강남구 청담동 26-5
카페,그레인,마포구,37.5623444,126.9260672,서울 마포구 동교로46길 23,02-336-7559,브런치,"실내,테라스",매일 09:00 - 20:00 / Last order | 19:00,목줄,카페브런치마포구실내 테라스목줄연남동연남동,연남동,대한민국 서울특별시 마포구 연남동 385-6
카페,새실정원,관악구,37.47786054,126.9580906,서울 관악구 관악로14길 103,070-4122-1620,카페,"실내,테라스",매일 12:00 - 22:00 / 월요일 휴무,목줄,카페카페관악구실내 테라스목줄관악로14길관악로14길,관악로14길,대한민국 서울특별시 관악구 관악로14길 103 1층
카페,카페비 (cafe b),도봉구,37.64947248,127.0417083,서울 도봉구 해등로 67,02-904-4949,카페,"실내,테라스",매일 11:00 - 24:00연중무휴,목줄,카페카페도봉구실내 테라스목줄창동창동,창동,대한민국 서울특별시 도봉구 창동 산48-10
카페,플로렛플라워카페,강남구,37.48243739,127.046034,서울 강남구 양재천로 185,02-575-0725,카페,"실내,테라스",매일 10:00 - 22:00,목줄,카페카페강남구실내 테라스목줄도곡동도곡동,도곡동,대한민국 서울특별시 강남구 도곡동 454-15
카페,아러바우트,용산구,37.53332268,127.0008453,서울 용산구 대사관로8길 15,02-711-1351,카페,실내,"평일 08:00 - 21:00
주말 10:00 - 21:00
공휴일 10:00 - 21:00",목줄,카페카페용산구실내목줄한남동한남동,한남동,대한민국 서울특별시 용산구 한남동 665-29
카페,다용도실,은평구,37.61409771,126.919896,서울 은평구 연서로20길 17,010-4321-3538,카페,실내,"매일 13:00 - 23:00(금,토 -24:00) / 화요일 휴무",목줄,카페카페은평구실내목줄대조동대조동,대조동,대한민국 서울특별시 은평구 대조동 215-28
카페,33apartment,용산구,37.53824662,127.0029932,서울 용산구 한남대로27길 33,02-794-0033,카페,실내,"평일 08:00 - 18:00
토요일 08:00 - 18:00
일요일 10:00 - 18:00",목줄,카페카페용산구실내목줄한남동한남동,한남동,대한민국 서울특별시 용산구 한남동 한남대로27길 33
카페,올드페리도넛,용산구,37.53959965,127.0030003,서울 용산구 한남대로27길 66,02-6015-2022,카페,"실내,테라스",매일 10:00 - 22:00 / 매주 화요일 휴무,"목줄,입마개",카페카페용산구실내 테라스목줄 입마개한남동한남동,한남동,대한민국 서울특별시 용산구 한남동 727-21
카페,플랫랜드,마포구,37.55650686,126.9150997,서울 마포구 동교로17길 37,02-322-0065,카페,테라스,"매일 11:00 - 22:00
마지막 주문 21:30
월요일 휴무",목줄,카페카페마포구테라스목줄동교로17길동교로17길,동교로17길,대한민국 서울특별시 마포구 동교로17길 37
카페,스윗솔트,강동구,37.54548127,127.1541357,서울 강동구 상암로 286,02-3427-0999,카페,테라스,매일 09:30 - 23:00,목줄,카페카페강동구테라스목줄상암로상암로,상암로,대한민국 서울특별시 강동구 상암로 286
카페,리인,마포구,37.55374524,126.906772,서울특별시 마포구 월드컵로11길 80,070-8614-1233,카페,실내,월 12:00 - 21:00   화 12:00 - 21:00   수 12:00 - 21:00   목 12:00 - 21:00   금 12:00 - 21:00   토 12:00 - 22:00   일 12:00 - 22:00,목줄,카페카페마포구실내목줄망원동망원동,망원동,대한민국 서울특별시 마포구 망원동 57-208
카페,헤이줄리,종로구,37.57544751,126.9959093,서울 종로구 동순라길 108,070-4191-0716,카페,실내,평일 12:00 - 20:00 / 주말 12:30 - 20:30,목줄,카페카페종로구실내목줄종로1.2.3.4가동종로1.2.3.4가동,종로1.2.3.4가동,대한민국 서울특별시 종로구 종로1.2.3.4가동 212-4
카페,아마,마포구,37.55470959,126.9045362,서울 마포구 희우정로16길 46,010-4972-2620,카페,실내,매일 14:00 - 24:00,목줄,카페카페마포구실내목줄망원1동망원1동,망원1동,대한민국 서울특별시 마포구 망원1동 399-46
카페,왓더독,강서구,37.56826602,126.8403596,서울 강서구 양천로 344,02-3664-0219,애견카페,실내,평일 07:30 - 21:00 주말 10:00 - 21:00,없음,카페애견카페강서구실내없음가양동가양동,가양동,대한민국 서울특별시 강서구 가양동 175-13
카페,도킹,서초구,37.47497221,127.0457089,서울특별시 서초구 동산로19길 54,070-7757-1207,카페,실내,매일 10:30 - 23:00,목줄,카페카페서초구실내목줄동산로19길동산로19길,동산로19길,대한민국 서울특별시 서초구 동산로19길 54
카페,괜찮아우리사이,광진구,37.54225359,127.0696423,서울특별시 광진구 아차산로31길 27,02-3285-1568,카페,실내,매일 14:00 - 22:00,없음,카페카페광진구실내없음광진구광진구,광진구,"3층, 27 아차산로31길 광진구 서울특별시 대한민국"
카페,개버랜드,양천구,37.51740654,126.8653068,서울특별시 양천구 목동서로 349,02-2647-5336,애견카페,실내,평일 13:00 - 21:00 / 화요일 14:00 - 21:00 / 주말 12:30 - 21:00 / 공휴일 12:30 - 21:00,없음,카페애견카페양천구실내없음신정동신정동,신정동,대한민국 서울특별시 양천구 신정동 321-6
카페,hundred11,서초구,37.48603179,126.9830837,서울 서초구 서초대로 3-4,010-7136-2615,카페,실내,매일 08:00 - 22:00 / 공휴일휴무,목줄,카페카페서초구실내목줄방배4동방배4동,방배4동,대한민국 서울특별시 서초구 방배4동 3001-2
카페,도그원애견카페,은평구,37.61943907,126.9175902,서울 은평구 연서로29길 25,02-357-1591,애견카페,실내,"주말 13:00 - 22:00 , 평일 휴무 평일 애견유치원으로 운영",없음,카페애견카페은평구실내없음연서로29길연서로29길,연서로29길,대한민국 서울특별시 은평구 연서로29길 25
카페,컬쳐커피,영등포구,37.52024054,126.9264067,서울 영등포구 의사당대로 127,02-786-0525,카페,실내,평일 10:00~22:00 / 주말 12:00~18:00,안기,카페카페영등포구실내안기여의도동여의도동,여의도동,대한민국 서울특별시 영등포구 여의도동 36
카페,광합성카페,마포구,37.557097,126.9084601,서울 마포구 월드컵로19길 8,02-333-6933,카페,실내,매일 11:00 - 22:00 / 일요일 11:00 - 20:00,목줄,카페카페마포구실내목줄망원동망원동,망원동,대한민국 서울특별시 마포구 망원동 월드컵로19길 8
카페,그대쉴꽃,동대문구,37.59181967,127.0528665,서울 동대문구 회기로19길 6,02-966-0813,카페,실내,매일 11:00 - 23:00 / 휴무없음,목줄,카페카페동대문구실내목줄회기동회기동,회기동,대한민국 서울특별시 동대문구 회기동 16-96
카페,카페 포포리,마포구,37.56224882,126.9213433,서울 마포구 연남로5길 8,070-8623-8938,카페,실내,"평일 08:00 - 22:00 / 1,3주 일요일 휴무",목줄,카페카페마포구실내목줄연남동연남동,연남동,대한민국 서울특별시 마포구 연남동 509-28
카페,개랑놀아주는남자,서초구,37.50346036,127.0226805,서울특별시 서초구 사평대로56길 4,02-3481-8080,애견카페,실내,"매일 00:00 - 24:00 유치원, 놀이방   매일 09:30 - 23:00 애견미용   매일 10:00 - 01:00 애견카페",없음,카페애견카페서초구실내없음서초동서초동,서초동,대한민국 서울특별시 서초구 서초동 1302-50
카페,라운지독,강서구,37.56169883,126.8450141,서울특별시 강서구 강서로62길 98,070-4185-5551,애견카페,"실내,테라스",평일 08:00 - 21:00   주말 11:00 - 21:00 카페는 주말에만 이용 가능하며 평일은 유치원 호텔만 이용 가능합니다., ,카페애견카페강서구실내 테라스 등촌동등촌동,등촌동,대한민국 서울특별시 강서구 등촌동 695-1
카페,미스터토리,영등포구,37.50707621,126.9017064,서울 영등포구 도신로 85,070-7779-8228,애견카페,실내,매일 12:00 - 21:00,없음,카페애견카페영등포구실내없음도림동도림동,도림동,대한민국 서울특별시 영등포구 도림동 150-13
카페,배추공주와페키들의감성놀이터,동작구,37.49591989,126.9530412,서울 동작구 상도로58길 4,010-7137-1377,애견카페,실내,평일 07:30 - 21:00    주말 13:00 - 21:00 평일    평일 08:30 - 10:30 Break time,없음,카페애견카페동작구실내없음상도동상도동,상도동,대한민국 서울특별시 동작구 상도동 490-6
카페,Im(아이엠),서초구,37.49380373,127.0017136,서울 서초구 동광로 183,02-593-6700,애견카페,실내,"평일 08:00 - 19:00 애견훈련,애견유치원    주말 11:00 - 19:00 애견카페",없음,카페애견카페서초구실내없음반포동반포동,반포동,대한민국 서울특별시 서초구 반포동 83-20
카페,도니바니애견카페,노원구,37.65664179,127.0629914,서울특별시 노원구 상계로 71-1,02-933-1456,애견카페,실내,매일 11:00 - 21:00(20:30 라스트오더)   유치원/호텔 10:00 - 21:30,없음,카페애견카페노원구실내없음상계동상계동,상계동,대한민국 서울특별시 노원구 상계동 595
카페,강아지정류장,강서구,37.54992339,126.8748255,서울특별시 강서구 양천로 709,02-3662-1207,애견카페,실내,화요일 13:00 - 21:00 유치원/호텔   수요일 13:00 - 21:00 유치원/호텔   목요일 13:00 - 21:00 유치원/호텔   금요일 13:00 - 21:00 유치원/호텔   토요일 13:00 - 21:00 유치원/호텔/카페   일요일 13:00 - 21:00 유치원/호텔/카페   월요일 휴무 매주 월요일 휴무, ,카페애견카페강서구실내 염창동염창동,염창동,대한민국 서울특별시 강서구 염창동 250-8
카페,멍멍이다방,강서구,37.54044768,126.8348805,서울 강서구 화곡로 117-1,070-7563-0304,애견카페,실내,매일 12:00 - 22:00    월요일 휴무,목줄,카페애견카페강서구실내목줄화곡3동화곡3동,화곡3동,대한민국 서울특별시 강서구 화곡3동 1068-24
카페,카페프레임,관악구,37.47789469,126.9575787,서울 관악구 관악로14길 94,02-6082-1049,카페,실내,"매일 12:00 - 22:0010월 2일, 9일, 16일, 23일, 30일 휴무",목줄,카페카페관악구실내목줄관악로14길관악로14길,관악로14길,대한민국 서울특별시 관악구 관악로14길 94 지하1층
카페,무네,종로구,37.59729057,126.9635443,서울 종로구 자하문로 258,02-6328-0258,카페,실내,매일 11:00 - 22:00,목줄,카페카페종로구실내목줄자하문로자하문로,자하문로,대한민국 서울특별시 종로구 자하문로 258
카페,나에게오는길,관악구,37.47813649,126.9569966,서울 관악구 관악로14길 82,010-6831-0423,카페,실내,매일 12:00 - 22:00 화요일 휴무,"목줄,안기",카페카페관악구실내목줄 안기봉천동봉천동,봉천동,대한민국 서울특별시 관악구 봉천동 1612-51
카페,커피로그,성북구,37.60887707,127.0624048,서울 성북구 돌곶이로14길 49,010-4024-3983,카페,실내,매일 11:00 - 22:00,안기,카페카페성북구실내안기돌곶이로14길돌곶이로14길,돌곶이로14길,대한민국 서울특별시 성북구 돌곶이로14길 49
카페,빈티지204,은평구,37.60196714,126.9288922,서울 은평구 은평로 193-1,010-5395-4328,카페,"실내,테라스",평일08-23시 토09-23시 일 11-23시,목줄,카페카페은평구실내 테라스목줄녹번동녹번동,녹번동,대한민국 서울특별시 은평구 녹번동 195
카페,푸르너스가든 서울숲점,성동구,37.54604727,127.0436801,서울 성동구 서울숲2길 46-9,02-499-5673,카페,"실내,테라스",매일 10:00 - 22:00,목줄,카페카페성동구실내 테라스목줄성수1가1동성수1가1동,성수1가1동,대한민국 서울특별시 성동구 성수1가1동 668-133
카페,지니앤독,관악구,37.484358,126.9365012,서울특별시 관악구 남부순환로 1674,02-3285-7272,애견카페,실내,화 : 00:00 - 00:10   수 : 15:00 - 21:00   목 : 15:00 - 21:00   금 : 15:00 - 21:00   토 : 14:00 - 21:00   일 : 14:00 - 21:00   월 : 15:00 - 21:00   유치원·호텔·놀이방 연중무휴 / 카페만 화요일 휴무,없음,카페애견카페관악구실내없음서원동서원동,서원동,대한민국 서울특별시 관악구 서원동 10-629
카페,강아지똥,강남구,37.50832105,127.0272031,서울 강남구 논현로115길 71,02-549-3595,애견카페,실내,[평일/월-금]10:00 ~ 21:00  [주말/토-일]10:00 ~ 24:00,없음,카페애견카페강남구실내없음논현동논현동,논현동,대한민국 서울특별시 강남구 논현동 170
카페,노블도그 애견카페,강서구,37.54686698,126.8358832,서울 강서구 강서로 237,02-2606-0456,애견카페,실내,"매일 12:00 - 22:00, 연중무휴",없음,카페애견카페강서구실내없음화곡3동화곡3동,화곡3동,대한민국 서울특별시 강서구 화곡3동 1013-1
카페,더왈츠,강남구,37.49411114,127.0343164,서울 강남구 역삼로 134,02-564-0927,애견카페,실내,"매일 08:00 - 23:00, 연중무휴",없음,카페애견카페강남구실내없음역삼동역삼동,역삼동,대한민국 서울특별시 강남구 역삼동 834-8
카페,개편한카페,금천구,37.45037802,126.9102726,서울 금천구 금하로 726,070-8882-2580,애견카페,실내,"평일 11:00 - 22:00  주말, 공휴일 10:00 - 22:00  화요일 휴무둘째주, 넷째주",없음,카페애견카페금천구실내없음시흥동시흥동,시흥동,대한민국 서울특별시 금천구 시흥동 272-20
카페,딥다이브,서초구,37.48244972,126.9848986,서울 서초구 방배천로18길 36-5,070-7514-2104,카페,실내,  평일 08:00~22:00  토요일 10:00~22:00  일요일 10:00~21:00,목줄,카페카페서초구실내목줄방배2동방배2동,방배2동,대한민국 서울특별시 서초구 방배2동 방배천로18길 36-5
카페,앵두나무카페,강북구,37.6331589,127.0298171,서울 강북구 덕릉로40다길 33-38,02-773-2517,카페,"실내,실외", ,"목줄,매너벨트",카페카페강북구실내 실외목줄 매너벨트덕릉로40다길덕릉로40다길,덕릉로40다길,대한민국 서울특별시 강북구 덕릉로40다길 33-38
카페,놀러오개 애견카페,강서구,37.54272751,126.8439139,서울특별시 강서구 까치산로 33,010-7573-0006,애견카페,실내,매일 12:00 - 22:30   호텔24시간 케어 무휴,없음,카페애견카페강서구실내없음화곡동화곡동,화곡동,대한민국 서울특별시 강서구 화곡동 98-207
카페,카카오독,강서구,37.53079464,126.8632898,서울 강서구 곰달래로60길 33,010-4965-7963,애견카페,실내,"13:00~22:00, 연중무휴",없음,카페애견카페강서구실내없음화곡4동화곡4동,화곡4동,대한민국 서울특별시 강서구 화곡4동 782-11
카페,델문도,마포구,37.55048364,126.9208729,서울 마포구 잔다리로 19-6,02-336-0817,카페,실내,am 13:00 - 22:00 /연중무휴,목줄,카페카페마포구실내목줄잔다리로잔다리로,잔다리로,대한민국 서울특별시 마포구 잔다리로 19-6
카페,체다앤올리,성동구,37.54567733,127.0429147,서울 성동구 서울숲2길 32-14,02-468-1003,브런치,"실내,실외,테라스","  평일 10:00~22:00, 마지막 주문 21:00  주말 09:00~22:00, 마지막 주문 21:00","목줄,안기",카페브런치성동구실내 실외 테라스목줄 안기성수1가1동성수1가1동,성수1가1동,대한민국 서울특별시 성동구 성수1가1동 685-696
카페,멍멍멍,송파구,37.49887278,127.1179306,서울 송파구 양재대로62길 8,02-443-8788,애견카페,실내,"매일 12:00 - 21:00, 연중무휴",없음,카페애견카페송파구실내없음가락본동가락본동,가락본동,대한민국 서울특별시 송파구 가락본동 93
카페,러빈허 플라워,마포구,37.55641848,126.9298001,서울 마포구 신촌로6길 22,02-322-0122,카페,실내,매일 10:30 - 23:00(명절 당일 휴무),"목줄,안기",카페카페마포구실내목줄 안기신촌로6길신촌로6길,신촌로6길,대한민국 서울특별시 마포구 신촌로6길 22
카페,버클리커피소셜,용산구,37.54097919,126.9905397,서울 용산구 회나무로13가길 17,02-792-2048,카페,실내,"  월~목요일 08:00~21:00  금~일요일 09:00~21:00, 연중무휴",목줄,카페카페용산구실내목줄이태원동이태원동,이태원동,대한민국 서울특별시 용산구 이태원동 255-30
카페,CONTE DE TULEAR,강남구,37.52556317,127.0368893,서울특별시 강남구 도산대로49길 39,070-8846-8490,카페,실내,"  평일 12:00~23:00, 주말 13:00~23:00  월요일 휴무",목줄,카페카페강남구실내목줄신사동신사동,신사동,대한민국 서울특별시 강남구 신사동 646-21
카페,원인어밀리언,용산구,37.5370311,127.0019509,서울 용산구 이태원로54길 31,02-794-2414,카페,실내,  평일&토요일 11:00~23:00  일요일 11:00~22:00,목줄,카페카페용산구실내목줄한남동한남동,한남동,대한민국 서울특별시 용산구 한남동 684-62
카페,센터커피,성동구,37.5465614,127.0416183,서울 성동구 서울숲2길 28-11,070-8868-2008,카페,"실내,테라스","10:00~21:00, 매주 월요일 휴무",목줄,카페카페성동구실내 테라스목줄성수1가2동성수1가2동,성수1가2동,대한민국 서울특별시 성동구 성수1가2동 685-477
카페,다독인더시티,강남구,37.50461632,127.0340437,서울 강남구 논현로101길 10,02-516-9650,애견카페,실내,"매일 : 10:00~23:00, 금,토 24:00까지",없음,카페애견카페강남구실내없음역삼1동역삼1동,역삼1동,대한민국 서울특별시 강남구 역삼1동 608-23
