type,name,gu,dong,lat,lng,address
지역근린공원,구들공원,광진구,구의동,37.54824437,127.092218,서울특별시 광진구 구의동 자양로42길
지역근린공원,신월어린이공원,양천구,신월동,37.52700128,126.8381227,서울특별시 양천구 신월동 
지역근린공원,까치공원,강남구,도곡동,37.48318097,127.0452004,서울특별시 강남구 도곡동 논현로26길
지역근린공원,단군공원,금천구,시흥동,37.45569383,126.9086823,서울특별시 금천구 시흥동 
지역근린공원,소파공원,중랑구,면목동,37.58934218,127.0957625,서울특별시 중랑구 면목동 겸재로64길
지역근린공원,정동공원,중구,정동,37.56760361,126.9716197,서울특별시 중구 정동 정동길
지역근린공원,소망어린이공원,노원구,상계동,37.65370647,127.0648493,서울특별시 노원구 상계동 
지역근린공원,배드민턴공원,동작구,신대방동,37.49095892,126.9135449,서울특별시 동작구 신대방동 여의대방로20길
지역근린공원,아랫말어린이공원,송파구,오금동,37.50472359,127.1374331,서울특별시 송파구 오금동 
지역근린공원,안양천체육공원,영등포구,문래동5가,37.51943029,126.8791293,서울특별시 영등포구 문래동5가 영등포로2길
지역근린공원,코스모스공원,노원구,상계동,37.66770818,127.0832976,서울특별시 노원구 상계동 
지역근린공원,근린공원,영등포구,영등포동,37.5101833,126.9038977,서울특별시 영등포구 영등포동 
지역근린공원,응암공원,은평구,응암동,37.60164112,126.9235873,서울특별시 은평구 응암동 은평로11길
지역근린공원,버드나무어린이공원,강북구,번동,37.63392178,127.0342854,서울특별시 강북구 번동 한천로115길
지역근린공원,싸리고개공원,강남구,도곡동,37.48948118,127.0354843,서울특별시 강남구 도곡동 
지역근린공원,햇님공원,광진구,화양동,37.54270574,127.0668824,서울특별시 광진구 화양동 아차산로25길
지역근린공원,갈곡리공원,은평구,갈현동,37.62386433,126.9164737,서울특별시 은평구 갈현동 갈현로41길
지역근린공원,등나무근린공원,노원구,중계동,37.64010563,127.0670987,서울특별시 노원구 중계동 동일로
지역근린공원,등촌공원,강서구,등촌동,37.56368174,126.8413919,서울특별시 강서구 등촌동 강서로62길
지역근린공원,일원에코파크,강남구,일원동,37.4952036,127.0883103,서울특별시 강남구 일원동 
지역근린공원,안골공원,중랑구,신내동,37.60451337,127.0979011,서울특별시 중랑구 신내동 
지역근린공원,쌈지공원,금천구,독산동,37.47088024,126.9039161,서울특별시 금천구 독산동 
지역근린공원,훈련원공원,중구,을지로5가,37.56742778,127.0037797,서울특별시 중구 을지로5가 을지로
지역근린공원,근린공원,강남구,삼성동,37.51629854,127.0447565,서울특별시 강남구 삼성동 
지역근린공원,백합공원,강서구,염창동,37.55114616,126.8694477,서울특별시 강서구 염창동 
지역근린공원,방배공원,서초구,방배동,37.48267043,126.9998756,서울특별시 서초구 방배동 효령로
지역근린공원,하명달어린이공원,서초구,서초동,37.48583461,127.0054319,서울특별시 서초구 서초동 
지역근린공원,새소리어린이공원,성북구,돈암동,37.60084451,127.0253164,서울특별시 성북구 돈암동 
지역근린공원,하늘공원,구로구,가리봉동,37.4868375,126.8808507,서울특별시 구로구 가리봉동 벚꽃로
지역근린공원,경기대학교서울캠퍼스하늘공원,서대문구,충정로2가,37.56531451,126.9618146,서울특별시 서대문구 충정로2가 경기대로9길
지역근린공원,원지어린이공원,영등포구,대림동,37.49761758,126.8996539,서울특별시 영등포구 대림동 도림로47길
지역근린공원,상도근린공원,관악구,봉천동,37.49187922,126.941428,서울특별시 관악구 봉천동 국회단지길
지역근린공원,일자산공원,강동구,둔촌동,37.5330197,127.1513563,서울특별시 강동구 둔촌동 동남로
지역근린공원,근린공원,양천구,목동,37.53701841,126.8683735,서울특별시 양천구 목동 목동중앙남로4길
지역근린공원,가락근린공원,송파구,가락동,37.4982807,127.1243198,서울특별시 송파구 가락동 양재대로64길
지역근린공원,산기슭공원,금천구,시흥동,37.46327939,126.9074369,서울특별시 금천구 시흥동 독산로54길
지역근린공원,미아2동민공원,강북구,미아동,37.6251006,127.0107961,서울특별시 강북구 미아동 인수봉로17길
지역근린공원,간데메공원,동대문구,답십리동,37.57337816,127.0487344,서울특별시 동대문구 답십리동 서울시립대로2길
지역근린공원,중앙어린이공원,영등포구,영등포동6가,37.52127456,126.9037454,서울특별시 영등포구 영등포동6가 영등포로35길
지역근린공원,장미공원,광진구,구의동,37.53642642,127.090154,서울특별시 광진구 구의동 구의강변로3길
지역근린공원,큰별공원,강서구,화곡동,37.54449931,126.848974,서울특별시 강서구 화곡동 
지역근린공원,학다리공원,관악구,봉천동,37.4887861,126.9375661,서울특별시 관악구 봉천동 
지역근린공원,유수지체육공원,마포구,망원동,37.55780449,126.8971446,서울특별시 마포구 망원동 월드컵로25길
지역근린공원,노해근린공원,노원구,중계동,37.64908677,127.0710043,서울특별시 노원구 중계동 노원로22길
대형시민/도심공원,남산공원,중구,예장동,37.55111619,126.9910802,서울특별시 중구 예장동 남산공원길
대형시민/도심공원,종묘광장공원,종로구,훈정동,37.57143899,126.9949029,서울특별시 종로구 훈정동 종로
지역근린공원,방이다리공원2,서초구,양재동,37.47833452,127.0355586,서울특별시 서초구 양재동 
지역근린공원,안산도시자연공원,서대문구,연희동,37.57370191,126.9301291,서울특별시 서대문구 연희동 
지역근린공원,경의선공원,마포구,대흥동,37.54747038,126.9402812,서울특별시 마포구 대흥동 
지역근린공원,발산공원,강서구,내발산동,37.55454106,126.8258394,서울특별시 강서구 내발산동 마곡중앙로
지역근린공원,서린공원,종로구,서린동,37.56994946,126.9807825,서울특별시 종로구 서린동 종로
지역근린공원,혜림공원,강동구,천호동,37.54460152,127.1399199,서울특별시 강동구 천호동 천중로39길
지역근린공원,난우공원,관악구,신림동,37.4803999,126.9139642,서울특별시 관악구 신림동 난곡로61길
지역근린공원,창천어린이공원,서대문구,창천동,37.55675119,126.9355284,서울특별시 서대문구 창천동 연세로5나길
지역근린공원,목련공원,송파구,오금동,37.49898426,127.1392297,서울특별시 송파구 오금동 동남로24길
지역근린공원,동자체육공원,강동구,고덕동,37.55981942,127.1523955,서울특별시 강동구 고덕동 
지역근린공원,마로니에공원,종로구,동숭동,37.58053129,127.0028148,서울특별시 종로구 동숭동 대학로
지역근린공원,온수근린공원,노원구,상계동,37.66066266,127.0637871,서울특별시 노원구 상계동 노원로34길
지역근린공원,참샘골공원,종로구,평창동,37.61510449,126.9745923,서울특별시 종로구 평창동 
지역근린공원,종달새공원,강서구,화곡동,37.53532288,126.8580433,서울특별시 강서구 화곡동 
지역근린공원,우산각공원,동대문구,신설동,37.57348822,127.0243524,서울특별시 동대문구 신설동 천호대로4길
지역근린공원,상도근린공원,동작구,상도동,37.49267903,126.9427141,서울특별시 동작구 상도동 
지역근린공원,긴고랑공원,광진구,중곡동,37.55897518,127.0909231,서울특별시 광진구 중곡동 
지역근린공원,명수어린이공원,서대문구,북아현동,37.56005832,126.9507397,서울특별시 서대문구 북아현동 
지역근린공원,독바위공원,은평구,녹번동,37.60622621,126.9393555,서울특별시 은평구 녹번동 진흥로16길
지역근린공원,뻐꾸기어린이공원,노원구,하계동,37.64255786,127.0747693,서울특별시 노원구 하계동 
지역근린공원,광석어린이공원,노원구,중계동,37.64886359,127.0794654,서울특별시 노원구 중계동 
지역근린공원,문정택지지구근린공원,송파구,문정동,37.48171184,127.1198396,서울특별시 송파구 문정동 
지역근린공원,손기정공원,중구,만리동2가,37.55579199,126.9654524,서울특별시 중구 만리동2가 손기정로
지역근린공원,곰말공원,강서구,화곡동,37.53340216,126.8560481,서울특별시 강서구 화곡동 곰달래로45길
지역근린공원,근린공원,도봉구,창동,37.64439866,127.0523083,서울특별시 도봉구 창동 
지역근린공원,노루어린이공원,동작구,사당동,37.48179138,126.9741644,서울특별시 동작구 사당동 사당로20나길
지역근린공원,목련공원,광진구,구의동,37.54062637,127.0904669,서울특별시 광진구 구의동 아차산로59길
지역근린공원,화양공원,광진구,화양동,37.54153646,127.0696557,서울특별시 광진구 화양동 아차산로31길
지역근린공원,민들레공원,노원구,상계동,37.66284483,127.0560184,서울특별시 노원구 상계동 노원로
지역근린공원,장충단공원,중구,장충동2가,37.55780894,127.0042488,서울특별시 중구 장충동2가 필동로1길
지역근린공원,역말공원,은평구,역촌동,37.60679683,126.9140791,서울특별시 은평구 역촌동 갈현로14길
지역근린공원,중현어린이공원,노원구,하계동,37.63203319,127.0655165,서울특별시 노원구 하계동 
지역근린공원,개포공련공원,강남구,개포동,37.47428877,127.0523547,서울특별시 강남구 개포동 
지역근린공원,공릉동근린공원,노원구,공릉동,37.62077948,127.0862512,서울특별시 노원구 공릉동 화랑로
대형시민/도심공원,월드컵공원,마포구,성산동,37.56357147,126.8984701,서울특별시 마포구 성산동 월드컵로
지역근린공원,근린공원,도봉구,도봉동,37.680565,127.0501084,서울특별시 도봉구 도봉동 
지역근린공원,증산체육공원,은평구,증산동,37.5840859,126.9027395,서울특별시 은평구 증산동 증산로5길
지역근린공원,삼학사어린이공원,송파구,삼전동,37.50622904,127.0956447,서울특별시 송파구 삼전동 백제고분로27길
지역근린공원,상원어린이공원,성동구,성수동1가,37.54757729,127.0473454,서울특별시 성동구 성수동1가 
지역근린공원,용두희망어린이공원,동대문구,용두동,37.57992453,127.0262945,서울특별시 동대문구 용두동 
지역근린공원,창용소공원,서대문구,창천동,37.560381,126.9283701,서울특별시 서대문구 창천동 
지역근린공원,풍납마을마당공원,송파구,풍납동,37.52746719,127.1135705,서울특별시 송파구 풍납동 
지역근린공원,쌈지공원,동작구,상도동,37.49977298,126.948689,서울특별시 동작구 상도동 
지역근린공원,용허리공원,서초구,서초동,37.49429662,127.0228888,서울특별시 서초구 서초동 
지역근린공원,종달새어린이공원,노원구,상계동,37.66799621,127.061992,서울특별시 노원구 상계동 
지역근린공원,벌말근린공원,강동구,강일동,37.55976996,127.176803,서울특별시 강동구 강일동 아리수로94길
지역근린공원,갈매기공원,강남구,압구정동,37.53154226,127.0345354,서울특별시 강남구 압구정동 
지역근린공원,삼일공원,동작구,사당동,37.48596918,126.9743452,서울특별시 동작구 사당동 사당로23길
지역근린공원,푸른골공원,금천구,독산동,37.46648574,126.9031092,서울특별시 금천구 독산동 
지역근린공원,새싹상상어린이공원,강서구,방화동,37.56971127,126.8093757,서울특별시 강서구 방화동 양천로14길
지역근린공원,꿩고개공원,강서구,방화동,37.57957031,126.8174841,서울특별시 강서구 방화동 
지역근린공원,가락골어린이공원,송파구,송파동,37.50735031,127.1130474,서울특별시 송파구 송파동 
지역근린공원,근린공원,영등포구,대림동,37.49551389,126.8973838,서울특별시 영등포구 대림동 
지역근린공원,버들어린이공원,서초구,양재동,37.47382543,127.0457303,서울특별시 서초구 양재동 
지역근린공원,삼성체육공원,금천구,시흥동,37.45470192,126.9091038,서울특별시 금천구 시흥동 독산로24마길
지역근린공원,피울공원,중랑구,신내동,37.60648559,127.09986,서울특별시 중랑구 신내동 
지역근린공원,독산자연공원,금천구,독산동,37.47387364,126.9079827,서울특별시 금천구 독산동 독산로54길
지역근린공원,봉제산근린공원,강서구,화곡동,37.53808294,126.8551407,서울특별시 강서구 화곡동 
지역근린공원,천왕근린공원,구로구,천왕동,37.47557806,126.8411881,서울특별시 구로구 천왕동 금오로
지역근린공원,인권숲,중구,예장동,37.55916136,126.9904109,서울특별시 중구 예장동 퇴계로26가길
지역근린공원,손기정기념공원,중구,만리동2가,37.55561019,126.9652737,서울특별시 중구 만리동2가 손기정로
지역근린공원,개미공원,송파구,거여동,37.4923962,127.1465634,서울특별시 송파구 거여동 오금로62길
지역근린공원,현대원서공원,종로구,원서동,37.5784811,126.9885553,서울특별시 종로구 원서동 창덕궁길
지역근린공원,연희제5공원,서대문구,연희동,37.57138264,126.9280556,서울특별시 서대문구 연희동 
지역근린공원,당산공원,영등포구,당산동3가,37.52565968,126.8957575,서울특별시 영등포구 당산동3가 당산로27길
지역근린공원,초롱공원,강서구,화곡동,37.53811741,126.8361965,서울특별시 강서구 화곡동 
지역근린공원,화원상상어린이공원,구로구,구로동,37.49780671,126.8802157,서울특별시 구로구 구로동 벚꽃로
지역근린공원,옹달샘어린이공원,마포구,망원동,37.55489569,126.9020771,서울특별시 마포구 망원동 망원로4길
지역근린공원,가산동유수지공원,금천구,가산동,37.47585298,126.8791395,서울특별시 금천구 가산동 디지털로
지역근린공원,새벗공원,강서구,등촌동,37.56069289,126.8402938,서울특별시 강서구 등촌동 
지역근린공원,샛마을공원,강동구,명일동,37.54977152,127.1477509,서울특별시 강동구 명일동 구천면로
지역근린공원,은행정어린이공원,양천구,신정동,37.52208579,126.8550676,서울특별시 양천구 신정동 은행정로7길
지역근린공원,친수공원,동작구,사당동,37.47697326,126.9804834,서울특별시 동작구 사당동 
지역근린공원,행당4구역공원,성동구,행당동,37.55557348,127.032071,서울특별시 성동구 행당동 행당로6길
지역근린공원,고무래공원,서초구,반포동,37.50356924,127.0154232,서울특별시 서초구 반포동 
지역근린공원,모태공원,강서구,화곡동,37.52953406,126.8494429,서울특별시 강서구 화곡동 
지역근린공원,근린공원,서대문구,홍은동,37.58237293,126.9241497,서울특별시 서대문구 홍은동 명지대길
지역근린공원,홍씨마을공원,서초구,내곡동,37.45305024,127.065681,서울특별시 서초구 내곡동 
지역근린공원,달터공원,강남구,개포동,37.48030851,127.0500965,서울특별시 강남구 개포동 개포로
지역근린공원,일원새싹공원,강남구,수서동,37.4847598,127.0890391,서울특별시 강남구 수서동 
지역근린공원,서광공원,관악구,신림동,37.47519324,126.9425463,서울특별시 관악구 신림동 
지역근린공원,낙산공원,종로구,동숭동,37.5803132,127.0070802,서울특별시 종로구 동숭동 낙산길
지역근린공원,독산근린공원,금천구,독산동,37.46389192,126.8839535,서울특별시 금천구 독산동 범안로
지역근린공원,장일어린이공원,동대문구,장안동,37.5699219,127.0651491,서울특별시 동대문구 장안동 
지역근린공원,느티울근린공원,노원구,상계동,37.64916904,127.0573362,서울특별시 노원구 상계동 
지역근린공원,근린공원,노원구,상계동,37.6688871,127.0771616,서울특별시 노원구 상계동 상계로
대형시민/도심공원,삼청공원,종로구,삼청동,37.58964681,126.9850613,서울특별시 종로구 삼청동 와룡공원길
지역근린공원,잠실유수지공원,송파구,잠실동,37.50303823,127.0794321,서울특별시 송파구 잠실동 도곡로62길
지역근린공원,월계근린공원,노원구,월계동,37.62547767,127.0580224,서울특별시 노원구 월계동 
지역근린공원,창2동마을공원,도봉구,창동,37.64119647,127.0362043,서울특별시 도봉구 창동 덕릉로59길
지역근린공원,청운공원,종로구,청운동,37.59086199,126.9665694,서울특별시 종로구 청운동 
지역근린공원,보람어린이공원,강동구,성내동,37.5248883,127.1313852,서울특별시 강동구 성내동 양재대로85길
지역근린공원,양화진성지공원,마포구,합정동,37.54554568,126.9111559,서울특별시 마포구 합정동 토정로
지역근린공원,호순이어린이공원,송파구,문정동,37.4898674,127.1171119,서울특별시 송파구 문정동 중대로
지역근린공원,행복어린이공원,강남구,세곡동,37.46725094,127.0970622,서울특별시 강남구 세곡동 
지역근린공원,방화공원,강서구,방화동,37.5809323,126.8141207,서울특별시 강서구 방화동 금낭화로
지역근린공원,무학봉공원,성동구,하왕십리동,37.56156622,127.0257066,서울특별시 성동구 하왕십리동 난계로
지역근린공원,별장길공원,금천구,시흥동,37.44813678,126.9085658,서울특별시 금천구 시흥동 
지역근린공원,신트리공원,양천구,신정동,37.51456316,126.8562786,서울특별시 양천구 신정동 목동동로
지역근린공원,새말어린이공원,송파구,가락동,37.49463188,127.1255939,서울특별시 송파구 가락동 송이로23길
지역근린공원,철쭉공원,금천구,독산동,37.45307137,126.8899462,서울특별시 금천구 독산동 금하로1마길
지역근린공원,천호공원,강동구,천호동,37.5443836,127.1264089,서울특별시 강동구 천호동 올림픽로
지역근린공원,까치산근린공원,동작구,사당동,37.47917651,126.9675973,서울특별시 동작구 사당동 사당로16라길
지역근린공원,옛동산어린이공원,송파구,방이동,37.50956284,127.1158514,서울특별시 송파구 방이동 
지역근린공원,한우물공원,강동구,고덕동,37.5614062,127.1625657,서울특별시 강동구 고덕동 아리수로72길
지역근린공원,서달산자연공원,동작구,상도동,37.50307889,126.9551808,서울특별시 동작구 상도동 
지역근린공원,두레어린이공원,강서구,화곡동,37.53126011,126.85933,서울특별시 강서구 화곡동 강서로8길
지역근린공원,정말공원,광진구,자양동,37.53324836,127.0783361,서울특별시 광진구 자양동 자양로13다길
지역근린공원,반수공원,금천구,독산동,37.47405974,126.9022657,서울특별시 금천구 독산동 독산로93길
지역근린공원,황학공원,중구,황학동,37.5677169,127.0182198,서울특별시 중구 황학동 다산로48길
지역근린공원,매봉공원,성동구,옥수동,37.54677533,127.0132372,서울특별시 성동구 옥수동 매봉길
지역근린공원,도선공원,성동구,홍익동,37.56550346,127.0314774,서울특별시 성동구 홍익동 무학로8길
지역근린공원,은하수공원,강동구,명일동,37.55205076,127.1435118,서울특별시 강동구 명일동 양재대로145길
지역근린공원,고인돌공원,서초구,양재동,37.47142017,127.0466535,서울특별시 서초구 양재동 
지역근린공원,청두어린이공원,서초구,방배동,37.48059731,126.9850001,서울특별시 서초구 방배동 
지역근린공원,푸르매공원,강서구,등촌동,37.5590506,126.8474389,서울특별시 강서구 등촌동 
지역근린공원,개포제5공원,강남구,대치동,37.48942936,127.0571729,서울특별시 강남구 대치동 선릉로
지역근린공원,등촌제3근린공원,강서구,등촌동,37.55855076,126.8497334,서울특별시 강서구 등촌동 공항대로43길
지역근린공원,꿈나라공원,노원구,중계동,37.65589411,127.0768181,서울특별시 노원구 중계동 
지역근린공원,곰돌이공원,강서구,화곡동,37.52957419,126.8450115,서울특별시 강서구 화곡동 
대형시민/도심공원,초안산체육공원,노원구,월계동,37.63900232,127.0511839,서울특별시 노원구 월계동 마들로5가길
지역근린공원,양지근린공원,양천구,신월동,37.52222921,126.8312618,서울특별시 양천구 신월동 지양로13길
대형시민/도심공원,양재시민의숲,서초구,양재동,37.47150601,127.03598,서울특별시 서초구 양재동 매헌로
지역근린공원,서서울호수공원,양천구,신월동,37.527812,126.8312181,서울특별시 양천구 신월동 남부순환로64길
지역근린공원,난곡공원,관악구,신림동,37.46604488,126.9170653,서울특별시 관악구 신림동 난곡로11길
지역근린공원,근린공원,은평구,구산동,37.61462266,126.9083286,서울특별시 은평구 구산동 
지역근린공원,인왕산자연공원,종로구,옥인동,37.58452971,126.9608587,서울특별시 종로구 옥인동 
지역근린공원,중곡동마을공원,광진구,중곡동,37.56994829,127.0847225,서울특별시 광진구 중곡동 용마산로33길
지역근린공원,신사개나리공원,강남구,신사동,37.5256372,127.029391,서울특별시 강남구 신사동 
지역근린공원,독립문어린이공원,서대문구,영천동,37.57154173,126.9604125,서울특별시 서대문구 영천동 
지역근린공원,청송공원,성동구,성수동2가,37.5459574,127.0586382,서울특별시 성동구 성수동2가 아차산로9길
지역근린공원,관악도시농업공원,관악구,신림동,37.46482863,126.9277134,서울특별시 관악구 신림동 광신길
지역근린공원,근린공원,성북구,석관동,37.60368787,127.0599923,서울특별시 성북구 석관동 화랑로32길
지역근린공원,대진공원,강남구,개포동,37.49558989,127.0784363,서울특별시 강남구 개포동 개포로109길
지역근린공원,꾸러기공원,금천구,시흥동,37.44318528,126.9058973,서울특별시 금천구 시흥동 
지역근린공원,투구봉공원,송파구,가락동,37.49400042,127.1352586,서울특별시 송파구 가락동 
지역근린공원,나리공원,서초구,반포동,37.50426953,126.9874115,서울특별시 서초구 반포동 신반포로
지역근린공원,엄지어린이공원,노원구,상계동,37.6527281,127.0629324,서울특별시 노원구 상계동 
지역근린공원,샘말어린이공원,도봉구,방학동,37.66851194,127.0314517,서울특별시 도봉구 방학동 
지역근린공원,광명공원,강서구,외발산동,37.54678273,126.8231732,서울특별시 강서구 외발산동 남부순환로19길
지역근린공원,동자공원,광진구,자양동,37.53205869,127.0743972,서울특별시 광진구 자양동 자양번영로3길
지역근린공원,소망어린이공원,도봉구,방학동,37.66349158,127.0369238,서울특별시 도봉구 방학동 
지역근린공원,방아다리공원,강동구,명일동,37.54790799,127.1537628,서울특별시 강동구 명일동 동남로65길
지역근린공원,관동공원,은평구,불광동,37.61366314,126.9297578,서울특별시 은평구 불광동 
지역근린공원,근린공원,관악구,신림동,37.46484493,126.9384011,서울특별시 관악구 신림동 대학20길
지역근린공원,신계역사공원,용산구,신계동,37.53554669,126.966288,서울특별시 용산구 신계동 청파로
지역근린공원,공릉동마을마당공원,노원구,공릉동,37.6252732,127.0848608,서울특별시 노원구 공릉동 
지역근린공원,아름어린이공원,동대문구,휘경동,37.58645681,127.066559,서울특별시 동대문구 휘경동 
지역근린공원,신림근린공원,관악구,신림동,37.48068627,126.917136,서울특별시 관악구 신림동 난곡로64길
지역근린공원,안말공원,강동구,성내동,37.5312572,127.1299157,서울특별시 강동구 성내동 풍성로45길
지역근린공원,등마루공원,강서구,화곡동,37.55285836,126.8562198,서울특별시 강서구 화곡동 까치산로28길
지역근린공원,남산예장공원,중구,주자동,37.56058212,126.9887556,서울특별시 중구 주자동 
지역근린공원,밤골근린공원,성북구,하월곡동,37.60487853,127.0328315,서울특별시 성북구 하월곡동 종암로34길
지역근린공원,다운공원,강서구,화곡동,37.53203089,126.8446364,서울특별시 강서구 화곡동 
지역근린공원,홍익어린이공원,마포구,서교동,37.55224228,126.9232907,서울특별시 마포구 서교동 와우산로21길
지역근린공원,초동공원,중랑구,중화동,37.59569981,127.073027,서울특별시 중랑구 중화동 중랑천로20길
지역근린공원,더부리공원,강서구,화곡동,37.53488429,126.8467193,서울특별시 강서구 화곡동 
지역근린공원,효봉공원,금천구,시흥동,37.4606319,126.9104066,서울특별시 금천구 시흥동 
지역근린공원,방이다리공원1,서초구,양재동,37.47806181,127.0351789,서울특별시 서초구 양재동 
지역근린공원,한양공원,송파구,송파동,37.50403147,127.1154946,서울특별시 송파구 송파동 
지역근린공원,도림2동체육공원,영등포구,도림동,37.50637437,126.8978741,서울특별시 영등포구 도림동 도신로15길
지역근린공원,물방울어린이공원,도봉구,창동,37.63750758,127.0412588,서울특별시 도봉구 창동 
지역근린공원,삼각소공원,서대문구,남가좌동,37.57643154,126.9207582,서울특별시 서대문구 남가좌동 
지역근린공원,미아마을마당,강북구,미아동,37.61195861,127.0329785,서울특별시 강북구 미아동 오현로6길
지역근린공원,개운산공원,성북구,돈암동,37.59742776,127.0252208,서울특별시 성북구 돈암동 북악산로
지역근린공원,무지개공원,성동구,성수동2가,37.54157386,127.0534387,서울특별시 성동구 성수동2가 성수이로7길
지역근린공원,꽃재공원,성동구,하왕십리동,37.56742237,127.0278891,서울특별시 성동구 하왕십리동 마장로
지역근린공원,청진공원,종로구,청진동,37.57158267,126.9799983,서울특별시 종로구 청진동 
지역근린공원,송파나루공원,송파구,신천동,37.51321235,127.1068645,서울특별시 송파구 신천동 송파나루길
지역근린공원,초안산근린공원반려견놀이터,노원구,월계동,37.63843308,127.0509836,서울특별시 노원구 월계동 마들로5가길
지역근린공원,바우뫼그린공원,서초구,양재동,37.47452174,127.0343644,서울특별시 서초구 양재동 
지역근린공원,목마공원,양천구,목동,37.53806146,126.8855285,서울특별시 양천구 목동 목동동로
지역근린공원,원당근린공원,강서구,등촌동,37.55979448,126.8419666,서울특별시 강서구 등촌동 강서로56길
지역근린공원,목화공원,금천구,독산동,37.47746253,126.9072007,서울특별시 금천구 독산동 
지역근린공원,샛별공원,중랑구,망우동,37.59340873,127.1008325,서울특별시 중랑구 망우동 
지역근린공원,금호제4공원,성동구,금호동1가,37.55201976,127.0286819,서울특별시 성동구 금호동1가 독서당로57가길
지역근린공원,해바라기공원,관악구,신림동,37.46205269,126.930228,서울특별시 관악구 신림동 원신길
지역근린공원,노들나루공원,동작구,본동,37.51369798,126.953514,서울특별시 동작구 본동 노량진로
지역근린공원,인사문화마당,종로구,인사동,37.57157649,126.9873649,서울특별시 종로구 인사동 인사동길
대형시민/도심공원,서울숲,성동구,성수동1가,37.54380091,127.0394488,서울특별시 성동구 성수동1가 서울숲2길
지역근린공원,와우근린공원,마포구,창전동,37.55258751,126.930161,서울특별시 마포구 창전동 와우산로30길
지역근린공원,능산공원,중랑구,신내동,37.61213139,127.0969609,서울특별시 중랑구 신내동 
지역근린공원,솜다리공원,노원구,공릉동,37.6247983,127.0827723,서울특별시 노원구 공릉동 
지역근린공원,학봉공원,강남구,삼성동,37.51297006,127.0519835,서울특별시 강남구 삼성동 
지역근린공원,망우산저류조공원운동장,중랑구,망우동,37.59945679,127.1115367,서울특별시 중랑구 망우동 
지역근린공원,솔밭소공원,강남구,율현동,37.47382537,127.1082549,서울특별시 강남구 율현동 
지역근린공원,견우공원,성동구,상왕십리동,37.56527247,127.0245418,서울특별시 성동구 상왕십리동 왕십리로
지역근린공원,은행나무터공원,성동구,성수동2가,37.5436944,127.0537509,서울특별시 성동구 성수동2가 연무장길
지역근린공원,옥계공원,금천구,독산동,37.46016616,126.9003021,서울특별시 금천구 독산동 시흥대로86길
지역근린공원,효사정공원,동작구,흑석동,37.51066861,126.9627646,서울특별시 동작구 흑석동 현충로
지역근린공원,푸른공원,성동구,금호동4가,37.54733279,127.0235737,서울특별시 성동구 금호동4가 금호로1길
지역근린공원,둘리근린공원,도봉구,쌍문동,37.65421761,127.02908,서울특별시 도봉구 쌍문동 시루봉로2길
지역근린공원,윗잔다리어린이공원,마포구,동교동,37.55716997,126.9261998,서울특별시 마포구 동교동 양화로18안길
지역근린공원,한내어린이공원,동대문구,장안동,37.56783128,127.0711554,서울특별시 동대문구 장안동 
지역근린공원,망우체육공원,중랑구,망우동,37.60423844,127.1028737,서울특별시 중랑구 망우동 송림길
지역근린공원,개운산근린공원,성북구,안암동5가,37.59316687,127.0275872,서울특별시 성북구 안암동5가 
지역근린공원,달마산공원,동작구,흑석동,37.49837228,126.9615113,서울특별시 동작구 흑석동 서달로
지역근린공원,가재을그린공원,노원구,중계동,37.64858144,127.0662626,서울특별시 노원구 중계동 
지역근린공원,개나리공원,노원구,상계동,37.66926876,127.0583074,서울특별시 노원구 상계동 동일로228길
지역근린공원,화양정터공원,광진구,화양동,37.54641158,127.0719275,서울특별시 광진구 화양동 
지역근린공원,미도어린이공원,서초구,반포동,37.50175529,127.0107499,서울특별시 서초구 반포동 
지역근린공원,문성공원,강서구,방화동,37.56488937,126.8154412,서울특별시 강서구 방화동 
지역근린공원,성동문화공원,성동구,도선동,37.56173197,127.03511,서울특별시 성동구 도선동 왕십리로
지역근린공원,구로거리공원,구로구,구로동,37.50259412,126.8890679,서울특별시 구로구 구로동 공원로
지역근린공원,해태공원,관악구,신림동,37.47257538,126.9404764,서울특별시 관악구 신림동 서림3길
지역근린공원,아차산체육공원,광진구,구의동,37.54907206,127.0976769,서울특별시 광진구 구의동 천호대로
대형시민/도심공원,망원한강공원,마포구,합정동,37.55052977,126.9016707,서울특별시 마포구 합정동 
지역근린공원,왕십리역광장,성동구,행당동,37.56177972,127.0372386,서울특별시 성동구 행당동 
대형시민/도심공원,북서울꿈의숲,강북구,번동,37.62317583,127.0409338,서울특별시 강북구 번동 월계로
지역근린공원,개웅산공원,구로구,개봉동,37.48697702,126.8481088,서울특별시 구로구 개봉동 
지역근린공원,배나무터공원,광진구,중곡동,37.56845299,127.0802459,서울특별시 광진구 중곡동 동일로76나길
지역근린공원,배밭공원,중랑구,망우동,37.58967789,127.1030278,서울특별시 중랑구 망우동 
지역근린공원,갈현근린공원,은평구,불광동,37.62938013,126.9240665,서울특별시 은평구 불광동 
지역근린공원,녹번동마을마당,은평구,녹번동,37.60608198,126.927579,서울특별시 은평구 녹번동 
지역근린공원,아까시아어린이공원,은평구,신사동,37.59442558,126.9086559,서울특별시 은평구 신사동 은평터널로
지역근린공원,두둑재공원,서초구,양재동,37.46800422,127.0440175,서울특별시 서초구 양재동 
지역근린공원,색동어린이공원,관악구,신림동,37.48645349,126.9328167,서울특별시 관악구 신림동 신림로70길
지역근린공원,대청공원,강남구,일원동,37.49255717,127.0825218,서울특별시 강남구 일원동 개포로116길
지역근린공원,노해어린이공원,도봉구,쌍문동,37.66089183,127.039655,서울특별시 도봉구 쌍문동 
지역근린공원,목련공원,강서구,방화동,37.56502682,126.807743,서울특별시 강서구 방화동 
지역근린공원,청담가족공원,강남구,삼성동,37.52082827,127.0625885,서울특별시 강남구 삼성동 
지역근린공원,허준근린공원,강서구,가양동,37.56792548,126.8528254,서울특별시 강서구 가양동 허준로5길
지역근린공원,엄지공원,강서구,가양동,37.56580642,126.8546355,서울특별시 강서구 가양동 
지역근린공원,등나무공원,중랑구,망우동,37.59762022,127.0965238,서울특별시 중랑구 망우동 용마산로115나길
지역근린공원,근린제3공원,강서구,가양동,37.56105498,126.8655741,서울특별시 강서구 가양동 허준로
지역근린공원,안골어린이공원,송파구,오금동,37.50285062,127.135314,서울특별시 송파구 오금동 
지역근린공원,희망어린이공원,강동구,길동,37.53904079,127.1422651,서울특별시 강동구 길동 
지역근린공원,어린이공원,마포구,상암동,37.57542659,126.8981731,서울특별시 마포구 상암동 
지역근린공원,은평평화공원,은평구,녹번동,37.6052269,126.923326,서울특별시 은평구 녹번동 서오릉로
지역근린공원,쌈지공원,구로구,구로동,37.50630576,126.8908227,서울특별시 구로구 구로동 새말로
지역근린공원,경의선숲길,마포구,연남동,37.5614975,126.923237,서울특별시 마포구 연남동 
지역근린공원,양천리누리터공원,은평구,녹번동,37.60635636,126.9342931,서울특별시 은평구 녹번동 
지역근린공원,새장골어린이공원,은평구,불광동,37.6251324,126.9261927,서울특별시 은평구 불광동 연서로37가길
지역근린공원,도장골공원,성동구,행당동,37.55494143,127.0267961,서울특별시 성동구 행당동 행당로
지역근린공원,까치공원,동작구,사당동,37.48061846,126.9794798,서울특별시 동작구 사당동 
지역근린공원,이수공원,강서구,염창동,37.54824702,126.8743344,서울특별시 강서구 염창동 공항대로75길
지역근린공원,박장공원,강서구,화곡동,37.54072647,126.8491055,서울특별시 강서구 화곡동 
지역근린공원,예촌어린이공원,관악구,남현동,37.47465019,126.9767259,서울특별시 관악구 남현동 남현길
지역근린공원,오금근린공원,송파구,오금동,37.50190458,127.130248,서울특별시 송파구 오금동 오금로
지역근린공원,능안공원,강서구,등촌동,37.54647904,126.860073,서울특별시 강서구 등촌동 등촌로39마길
대형시민/도심공원,서대문독립공원,서대문구,현저동,37.57405446,126.9557506,서울특별시 서대문구 현저동 통일로
지역근린공원,온곡어린이공원,노원구,상계동,37.65989401,127.0610424,서울특별시 노원구 상계동 동일로
지역근린공원,부리근린공원,송파구,잠실동,37.5149991,127.0878247,서울특별시 송파구 잠실동 
지역근린공원,삼전어린이공원,송파구,삼전동,37.50177146,127.0901801,서울특별시 송파구 삼전동 
지역근린공원,샛강어린이공원,강북구,번동,37.63935588,127.0330362,서울특별시 강북구 번동 도봉로96다길
지역근린공원,오구어린이공원,양천구,신정동,37.5273195,126.8619266,서울특별시 양천구 신정동 
지역근린공원,혜림어린이공원,강동구,천호동,37.54444051,127.139942,서울특별시 강동구 천호동 천중로39길
지역근린공원,신창어린이공원,도봉구,창동,37.64006152,127.0408411,서울특별시 도봉구 창동 
지역근린공원,역사문화공원,송파구,풍납동,37.53612973,127.1171297,서울특별시 송파구 풍납동 
지역근린공원,말우물공원,강동구,고덕동,37.56003789,127.1694929,서울특별시 강동구 고덕동 상일로21길
지역근린공원,서마장공원,성동구,마장동,37.57152308,127.0374347,서울특별시 성동구 마장동 청계천로10가길
지역근린공원,새벽공원,동작구,상도동,37.50092304,126.9301553,서울특별시 동작구 상도동 상도로13길
지역근린공원,근린공원,중랑구,면목동,37.58807206,127.0839789,서울특별시 중랑구 면목동 
지역근린공원,아현공원,마포구,아현동,37.55287516,126.9567859,서울특별시 마포구 아현동 
지역근린공원,달맞이봉공원,성동구,옥수동,37.5436351,127.0203714,서울특별시 성동구 옥수동 
지역근린공원,자마장공원,광진구,자양동,37.53429977,127.0821583,서울특별시 광진구 자양동 자양로13길
지역근린공원,근린공원,강서구,가양동,37.57328526,126.8444694,서울특별시 강서구 가양동 강서로80길
지역근린공원,몽마르뜨공원,서초구,서초동,37.49563283,127.0039043,서울특별시 서초구 서초동 
지역근린공원,서리골공원,서초구,서초동,37.49711672,127.0075397,서울특별시 서초구 서초동 
지역근린공원,염창공원,강서구,염창동,37.55856214,126.8679449,서울특별시 강서구 염창동 
지역근린공원,용산역광장,용산구,한강로3가,37.52891864,126.96538,서울특별시 용산구 한강로3가 한강대로23길
지역근린공원,장미공원,성동구,송정동,37.55223701,127.0694222,서울특별시 성동구 송정동 동일로
지역근린공원,선사공원,강동구,암사동,37.55576062,127.1299975,서울특별시 강동구 암사동 올림픽로
지역근린공원,응암어린이공원,은평구,응암동,37.60172132,126.9235286,서울특별시 은평구 응암동 은평로11길
지역근린공원,봉선화공원,강서구,방화동,37.56657939,126.8070067,서울특별시 강서구 방화동 
지역근린공원,좌월공원,은평구,갈현동,37.61738641,126.9132344,서울특별시 은평구 갈현동 
지역근린공원,배다리공원,강서구,화곡동,37.53211292,126.8483176,서울특별시 강서구 화곡동 
지역근린공원,송파방이공원,송파구,방이동,37.51437512,127.1139765,서울특별시 송파구 방이동 백제고분로
지역근린공원,샛별공원,강서구,방화동,37.57271347,126.8094864,서울특별시 강서구 방화동 
지역근린공원,서래어린이공원,서초구,반포동,37.49825537,127.0002976,서울특별시 서초구 반포동 
지역근린공원,진달래공원,금천구,시흥동,37.43483678,126.9047356,서울특별시 금천구 시흥동 
지역근린공원,상징가로공원,강동구,성내동,37.52822633,127.1197676,서울특별시 강동구 성내동 
지역근린공원,나들이공원,중랑구,망우동,37.60558508,127.1132229,서울특별시 중랑구 망우동 
지역근린공원,용두근린공원,동대문구,용두동,37.573241,127.0389192,서울특별시 동대문구 용두동 청계천로
지역근린공원,낙성대공원,관악구,봉천동,37.47113519,126.9599868,서울특별시 관악구 봉천동 낙성대로
지역근린공원,근린공원,성북구,장위동,37.61716347,127.0532004,서울특별시 성북구 장위동 돌곶이로32길
지역근린공원,돌마리어린이공원,송파구,석촌동,37.50051252,127.1034057,서울특별시 송파구 석촌동 가락로7길
지역근린공원,뽕밭어린이공원,송파구,잠실동,37.50781986,127.0811603,서울특별시 송파구 잠실동 
지역근린공원,석관어린이공원,성북구,석관동,37.60723377,127.0548768,서울특별시 성북구 석관동 
지역근린공원,은모루어린이공원,강북구,수유동,37.64241727,127.0268163,서울특별시 강북구 수유동 도봉로95길
지역근린공원,장미공원,양천구,목동,37.53362687,126.8823736,서울특별시 양천구 목동 목동동로
지역근린공원,한글비근린공원,노원구,하계동,37.64478952,127.0743555,서울특별시 노원구 하계동 
지역근린공원,사직근린공원,종로구,사직동,37.57596912,126.9633542,서울특별시 종로구 사직동 
지역근린공원,충현1공원,강남구,역삼동,37.50473802,127.036534,서울특별시 강남구 역삼동 
지역근린공원,청파동1마을공원,용산구,청파동3가,37.54291502,126.968561,서울특별시 용산구 청파동3가 원효로97길
지역근린공원,달맞이공원,성동구,옥수동,37.54338241,127.0182794,서울특별시 성동구 옥수동 독서당로40길
지역근린공원,좌월어린이공원,은평구,갈현동,37.61716878,126.9132082,서울특별시 은평구 갈현동 갈현로25길
지역근린공원,낙산어린이공원,종로구,창신동,37.57969647,127.0104297,서울특별시 종로구 창신동 창신길
지역근린공원,숭인공원,종로구,숭인동,37.57747248,127.0182921,서울특별시 종로구 숭인동 동망산길
지역근린공원,진달래공원,강동구,명일동,37.55218901,127.1436846,서울특별시 강동구 명일동 양재대로147길
지역근린공원,중곡공원,광진구,중곡동,37.56455504,127.079141,서울특별시 광진구 중곡동 긴고랑로5길
지역근린공원,도리미소공원,영등포구,도림동,37.50937629,126.9022338,서울특별시 영등포구 도림동 도림로112나길
지역근린공원,풍납동역사공원(2022년예정),송파구,풍납동,37.53231791,127.1114482,서울특별시 송파구 풍납동 토성로
지역근린공원,원당공원,강서구,내발산동,37.55723484,126.8421268,서울특별시 강서구 내발산동 강서로52길
지역근린공원,한솔공원,강남구,일원동,37.48094328,127.0780279,서울특별시 강남구 일원동 광평로10길
지역근린공원,금호제2공원,성동구,금호동1가,37.55436397,127.0265801,서울특별시 성동구 금호동1가 행당로6길
지역근린공원,비둘기공원,금천구,시흥동,37.44153162,126.9063779,서울특별시 금천구 시흥동 
지역근린공원,매화근린공원,강서구,등촌동,37.55745972,126.8609487,서울특별시 강서구 등촌동 
지역근린공원,두댐이공원,송파구,문정동,37.4900026,127.1320597,서울특별시 송파구 문정동 
지역근린공원,서래공원,서초구,반포동,37.50160086,127.0029717,서울특별시 서초구 반포동 
지역근린공원,간나무굴공원,종로구,평창동,37.6127871,126.9702072,서울특별시 종로구 평창동 
대형시민/도심공원,여의도한강공원,영등포구,여의도동,37.52872828,126.9323731,서울특별시 영등포구 여의도동 여의동로
지역근린공원,근린공원,마포구,상암동,37.58304864,126.8834579,서울특별시 마포구 상암동 월드컵북로
지역근린공원,수유일공원,강북구,수유동,37.63052122,127.0172678,서울특별시 강북구 수유동 
지역근린공원,근린공원,양천구,신정동,37.50902439,126.8436709,서울특별시 양천구 신정동 
지역근린공원,중화2동체육공원,중랑구,중화동,37.59628527,127.0708011,서울특별시 중랑구 중화동 
지역근린공원,충현어린이공원,중구,신당동,37.55214021,127.0050097,서울특별시 중구 신당동 동호로11차길
지역근린공원,장지공원,송파구,가락동,37.49536279,127.1382932,서울특별시 송파구 가락동 
지역근린공원,현석마을마당,마포구,현석동,37.54222333,126.9336966,서울특별시 마포구 현석동 
지역근린공원,공암나루공원,강서구,가양동,37.57063573,126.8490882,서울특별시 강서구 가양동 강서로80길
지역근린공원,기자촌1구역근린공원,은평구,진관동,37.63271554,126.9375597,서울특별시 은평구 진관동 
지역근린공원,장미공원,강서구,공항동,37.55658479,126.8139055,서울특별시 강서구 공항동 방화대로7다길
지역근린공원,구로근린공원,구로구,구로동,37.49944687,126.8917229,서울특별시 구로구 구로동 공원로
지역근린공원,근린공원,강북구,미아동,37.61825106,127.0242905,서울특별시 강북구 미아동 
지역근린공원,금빛공원,금천구,시흥동,37.45283663,126.9043964,서울특별시 금천구 시흥동 금하로
지역근린공원,원통쌈지공원,동대문구,답십리동,37.56978466,127.0535924,서울특별시 동대문구 답십리동 
대형시민/도심공원,남산골전통정원,중구,필동2가,37.55785666,126.9938479,서울특별시 중구 필동2가 퇴계로34길
지역근린공원,무아래공원,금천구,가산동,37.47343256,126.8932805,서울특별시 금천구 가산동 
지역근린공원,대조공원,은평구,대조동,37.61553619,126.9198987,서울특별시 은평구 대조동 연서로22길
지역근린공원,배재공원,중구,정동,37.56441447,126.9727507,서울특별시 중구 정동 
지역근린공원,갓바위공원,중랑구,망우동,37.599085,127.1032778,서울특별시 중랑구 망우동 용마산로114길
지역근린공원,비석거리공원,송파구,가락동,37.4946072,127.1174972,서울특별시 송파구 가락동 
지역근린공원,구의공원,광진구,구의동,37.53691079,127.0945905,서울특별시 광진구 구의동 광나루로56길
지역근린공원,봉제산근린공원,강서구,화곡동,37.53765379,126.8514,서울특별시 강서구 화곡동 
지역근린공원,서초영어체험공원,서초구,양재동,37.46830569,127.0312,서울특별시 서초구 양재동 바우뫼로12길
지역근린공원,응봉체육공원,성동구,응봉동,37.55288556,127.0401223,서울특별시 성동구 응봉동 
지역근린공원,성북공원,성북구,성북동,37.59598659,127.0072097,서울특별시 성북구 성북동 
지역근린공원,논골어린이공원,강북구,번동,37.63838894,127.0280351,서울특별시 강북구 번동 덕릉로41길
지역근린공원,근린공원,강서구,내발산동,37.55395813,126.8287447,서울특별시 강서구 내발산동 강서로47길
지역근린공원,봉은공원,강남구,삼성동,37.51385951,127.0557262,서울특별시 강남구 삼성동 
지역근린공원,쌀섬어린이공원,송파구,잠실동,37.50401093,127.0824953,서울특별시 송파구 잠실동 백제고분로18길
지역근린공원,장안어린이공원,서초구,서초동,37.49172068,127.0114344,서울특별시 서초구 서초동 
지역근린공원,신사무궁화공원,강남구,신사동,37.52415503,127.031935,서울특별시 강남구 신사동 
지역근린공원,글샘공원,송파구,문정동,37.4789325,127.1217545,서울특별시 송파구 문정동 
지역근린공원,다람쥐공원,금천구,독산동,37.46824557,126.8908193,서울특별시 금천구 독산동 벚꽃로18길
지역근린공원,호암산숲길공원,금천구,시흥동,37.43459276,126.9083948,서울특별시 금천구 시흥동 
지역근린공원,당곡어린이공원,양천구,신월동,37.51861648,126.8399383,서울특별시 양천구 신월동 신월로11길
지역근린공원,어린이공원,강남구,일원동,37.49143944,127.0855068,서울특별시 강남구 일원동 
지역근린공원,상록수공원,노원구,상계동,37.66307368,127.0530353,서울특별시 노원구 상계동 
지역근린공원,양지어린이공원,동작구,사당동,37.47992409,126.9739527,서울특별시 동작구 사당동 
지역근린공원,삼성까치공원,강남구,삼성동,37.51827247,127.0604999,서울특별시 강남구 삼성동 
대형시민/도심공원,아시아공원,송파구,잠실동,37.51028808,127.0761917,서울특별시 송파구 잠실동 올림픽로
지역근린공원,청담공원,강남구,청담동,37.52142538,127.0524719,서울특별시 강남구 청담동 
지역근린공원,몽촌공원,송파구,방이동,37.51297704,127.1147814,서울특별시 송파구 방이동 
지역근린공원,곰돌이공원,강서구,화곡동,37.54593941,126.84531,서울특별시 강서구 화곡동 화곡로
지역근린공원,느티공원,강서구,방화동,37.57945601,126.8101789,서울특별시 강서구 방화동 
지역근린공원,강서한강공원강서생태공원,강서구,개화동,37.58907086,126.8138927,서울특별시 강서구 개화동 
지역근린공원,어린이공원,성동구,하왕십리동,37.55998502,127.0234998,서울특별시 성동구 하왕십리동 난계로
지역근린공원,팔각정공원,종로구,평창동,37.60206693,126.9804703,서울특별시 종로구 평창동 북악산로
지역근린공원,대왕어린이공원,강남구,세곡동,37.46234643,127.1046427,서울특별시 강남구 세곡동 헌릉로590길
지역근린공원,대조어린이공원,은평구,대조동,37.61528512,126.9199066,서울특별시 은평구 대조동 연서로22길
지역근린공원,성심공원,강동구,길동,37.53831459,127.1373947,서울특별시 강동구 길동 천중로40길
지역근린공원,은하수공원,강서구,방화동,37.57071839,126.8063717,서울특별시 강서구 방화동 양천로6길
지역근린공원,바탕골공원,강서구,화곡동,37.54460819,126.8346936,서울특별시 강서구 화곡동 강서로45다길
지역근린공원,언덕배기공원,광진구,자양동,37.53203757,127.0879109,서울특별시 광진구 자양동 뚝섬로62길
지역근린공원,백석근린공원,강서구,등촌동,37.54966432,126.862009,서울특별시 강서구 등촌동 
지역근린공원,해오름공원,광진구,중곡동,37.55682559,127.0920046,서울특별시 광진구 중곡동 영화사로7길
지역근린공원,천변공원,은평구,응암동,37.5979123,126.9156544,서울특별시 은평구 응암동 증산로
지역근린공원,대원공원,강서구,화곡동,37.54489623,126.8359219,서울특별시 강서구 화곡동 
지역근린공원,상도배수지공원,동작구,본동,37.50822578,126.9544714,서울특별시 동작구 본동 매봉로6길
대형시민/도심공원,잠실한강공원,송파구,잠실동,37.51776873,127.0845897,서울특별시 송파구 잠실동 한가람로
지역근린공원,광진광장,광진구,군자동,37.5477868,127.0737547,서울특별시 광진구 군자동 
지역근린공원,온수도시자연공원,구로구,개봉동,37.50186043,126.8397683,서울특별시 구로구 개봉동 고척로21나길
지역근린공원,창천근린공원,마포구,노고산동,37.55328731,126.9412485,서울특별시 마포구 노고산동 백범로
지역근린공원,근린공원,구로구,온수동,37.49458586,126.8246943,서울특별시 구로구 온수동 
지역근린공원,국지공원,관악구,봉천동,37.4900925,126.9406176,서울특별시 관악구 봉천동 국회단지19길
지역근린공원,초안산근린공원,노원구,월계동,37.63455721,127.0451878,서울특별시 노원구 월계동 
지역근린공원,까치산공원,강서구,화곡동,37.53728192,126.8446957,서울특별시 강서구 화곡동 
지역근린공원,큰바위공원,송파구,거여동,37.49812403,127.1425886,서울특별시 송파구 거여동 
지역근린공원,북한산생태숲,성북구,정릉동,37.62103187,127.0070946,서울특별시 성북구 정릉동 
지역근린공원,충숙근린공원,노원구,하계동,37.64008403,127.0786851,서울특별시 노원구 하계동 한글비석로
지역근린공원,방화쌈지공원,강서구,방화동,37.57124089,126.8150921,서울특별시 강서구 방화동 
지역근린공원,다사랑공원,영등포구,대림동,37.49273099,126.8994972,서울특별시 영등포구 대림동 대림로23가길
지역근린공원,장미공원,서초구,반포동,37.5049599,126.991209,서울특별시 서초구 반포동 신반포로
지역근린공원,곰돌이공원,강서구,가양동,37.56233112,126.8574621,서울특별시 강서구 가양동 허준로
지역근린공원,구로리공원,구로구,구로동,37.49090582,126.8915663,서울특별시 구로구 구로동 구로중앙로
대형시민/도심공원,올림픽공원,송파구,방이동,37.51986436,127.1228077,서울특별시 송파구 방이동 올림픽로
지역근린공원,문정근린공원,송파구,문정동,37.48662278,127.1292387,서울특별시 송파구 문정동 
지역근린공원,옹기골근린공원,강서구,방화동,37.57387491,126.8211061,서울특별시 강서구 방화동 양천로
지역근린공원,관악산생태공원,관악구,신림동,37.46873051,126.9134108,서울특별시 관악구 신림동 문성로16다길
지역근린공원,우면산자연생태공원,서초구,우면동,37.46930253,127.0178335,서울특별시 서초구 우면동 
지역근린공원,서울색공원,영등포구,여의도동,37.53058409,126.9304868,서울특별시 영등포구 여의도동 
지역근린공원,천일공원,강동구,천호동,37.54467677,127.1363852,서울특별시 강동구 천호동 구천면로42길
지역근린공원,무궁화공원,강동구,길동,37.54237122,127.1454038,서울특별시 강동구 길동 양재대로124길
지역근린공원,게내공원,강동구,상일동,37.54928444,127.1714903,서울특별시 강동구 상일동 상일로5길
지역근린공원,미소공원,성동구,하왕십리동,37.56050998,127.0235037,서울특별시 성동구 하왕십리동 난계로
지역근린공원,안산골공원,송파구,가락동,37.49761308,127.1267155,서울특별시 송파구 가락동 
지역근린공원,뒷벌공원,서초구,방배동,37.49049647,126.986778,서울특별시 서초구 방배동 방배중앙로
지역근린공원,삼성목련공원,강남구,삼성동,37.51853392,127.0538547,서울특별시 강남구 삼성동 
지역근린공원,매봉어린이공원,노원구,월계동,37.6330441,127.0590697,서울특별시 노원구 월계동 월계로55길
지역근린공원,사슴어린이공원,도봉구,방학동,37.6644681,127.0416827,서울특별시 도봉구 방학동 
지역근린공원,오거리공원,중랑구,면목동,37.57682824,127.0842973,서울특별시 중랑구 면목동 면목로33길
지역근린공원,신동그린공원,서초구,잠원동,37.51412449,127.0137771,서울특별시 서초구 잠원동 
지역근린공원,등촌제2근린공원,강서구,등촌동,37.56342037,126.8416062,서울특별시 강서구 등촌동 강서로62길
지역근린공원,달빛공원,강서구,화곡동,37.53119911,126.8628994,서울특별시 강서구 화곡동 
지역근린공원,장독골공원,광진구,자양동,37.53576094,127.0775921,서울특별시 광진구 자양동 아차산로40길
지역근린공원,노유산공원,광진구,자양동,37.5390989,127.0683644,서울특별시 광진구 자양동 아차산로32길
지역근린공원,거여공원,송파구,거여동,37.49703687,127.1414785,서울특별시 송파구 거여동 오금로51길
지역근린공원,삼각공원,구로구,구로동,37.50142867,126.8920204,서울특별시 구로구 구로동 
대형시민/도심공원,난지한강공원,마포구,상암동,37.56611506,126.8774322,서울특별시 마포구 상암동 
대형시민/도심공원,강서한강공원,강서구,방화동,37.58666852,126.817156,서울특별시 강서구 방화동 
지역근린공원,올림픽공원선린동산,송파구,방이동,37.51747843,127.1152259,서울특별시 송파구 방이동 올림픽로
지역근린공원,비둘기공원,송파구,방이동,37.51277281,127.123397,서울특별시 송파구 방이동 
지역근린공원,송림어린이공원,노원구,공릉동,37.62706417,127.0870467,서울특별시 노원구 공릉동 
지역근린공원,다솜마을마당공원,동대문구,휘경동,37.58465227,127.0718061,서울특별시 동대문구 휘경동 
지역근린공원,아랫샘어린이공원,서초구,내곡동,37.46071391,127.0720765,서울특별시 서초구 내곡동 
지역근린공원,잿말어린이공원,서초구,우면동,37.46632216,127.0198874,서울특별시 서초구 우면동 
지역근린공원,지봉골공원,종로구,창신동,37.58129437,127.0129549,서울특별시 종로구 창신동 
지역근린공원,코스타리카광장,마포구,상암동,37.57485051,126.8998496,서울특별시 마포구 상암동 
대형시민/도심공원,서울로7017,중구,봉래동2가,37.55666849,126.972069,서울특별시 중구 봉래동2가 퇴계로
지역근린공원,서울함공원,마포구,망원동,37.55372578,126.8974204,서울특별시 마포구 망원동 마포나루길
지역근린공원,금옥공원,성동구,금호동2가,37.55261124,127.0233183,서울특별시 성동구 금호동2가 금호로
지역근린공원,인조유기비어린이공원,은평구,역촌동,37.60744979,126.9175649,서울특별시 은평구 역촌동 연서로10길
지역근린공원,서울식물원호수공원,강서구,마곡동,37.57542322,126.8345276,서울특별시 강서구 마곡동 
지역근린공원,뻥튀기공원,광진구,중곡동,37.56837507,127.0897202,서울특별시 광진구 중곡동 
지역근린공원,잠실공원,송파구,잠실동,37.50591819,127.083512,서울특별시 송파구 잠실동 백제고분로15길
지역근린공원,볏골어린이공원,강서구,화곡동,37.54141897,126.8444287,서울특별시 강서구 화곡동 까치산로4길
지역근린공원,꿈동산공원,도봉구,창동,37.65008668,127.036792,서울특별시 도봉구 창동 
지역근린공원,도산공원,강남구,신사동,37.524527,127.0350558,서울특별시 강남구 신사동 도산대로45길
지역근린공원,당고개공원,종로구,창신동,37.57558164,127.0123229,서울특별시 종로구 창신동 
지역근린공원,교대어린이공원,서초구,서초동,37.49428608,127.011444,서울특별시 서초구 서초동 
지역근린공원,청파공원,용산구,서계동,37.55394121,126.9673775,서울특별시 용산구 서계동 
지역근린공원,사우촌공원,관악구,신림동,37.46754957,126.9341917,서울특별시 관악구 신림동 
지역근린공원,명일공원,강동구,상일동,37.55209033,127.1597663,서울특별시 강동구 상일동 
지역근린공원,애경어린이공원,구로구,구로동,37.50281551,126.8806068,서울특별시 구로구 구로동 
지역근린공원,고덕수변생태공원,강동구,고덕동,37.57028131,127.1555867,서울특별시 강동구 고덕동 
지역근린공원,음골어린이공원,양천구,신정동,37.52738074,126.8511958,서울특별시 양천구 신정동 
지역근린공원,중앙어린이공원,관악구,봉천동,37.48434188,126.9483502,서울특별시 관악구 봉천동 봉천로41길
지역근린공원,쌍문근린공원,도봉구,방학동,37.65484193,127.023595,서울특별시 도봉구 방학동 
지역근린공원,원당공원,강서구,등촌동,37.55974752,126.8425656,서울특별시 강서구 등촌동 강서로56길
지역근린공원,개나리공원,강서구,화곡동,37.54837322,126.8440588,서울특별시 강서구 화곡동 
지역근린공원,달동산공원,중랑구,망우동,37.59221282,127.0952191,서울특별시 중랑구 망우동 
지역근린공원,훼밀리공원,송파구,문정동,37.49057027,127.1133977,서울특별시 송파구 문정동 중대로
지역근린공원,문화예술공원,서초구,양재동,37.46915446,127.0314156,서울특별시 서초구 양재동 바우뫼로12길
지역근린공원,원터그린공원,노원구,상계동,37.6509981,127.0654272,서울특별시 노원구 상계동 동일로214길
지역근린공원,범바위공원,성북구,안암동2가,37.58541781,127.0214537,서울특별시 성북구 안암동2가 고려대로8길
지역근린공원,장평근린공원,동대문구,장안동,37.56753758,127.07423,서울특별시 동대문구 장안동 장안벚꽃로
지역근린공원,갈을근린공원,노원구,상계동,37.66690361,127.0610692,서울특별시 노원구 상계동 
지역근린공원,새나라공원,용산구,후암동,37.54806463,126.9763935,서울특별시 용산구 후암동 후암로13가길
지역근린공원,구암어린이공원,강동구,암사동,37.5565237,127.1376402,서울특별시 강동구 암사동 
지역근린공원,고덕제2근린공원,강동구,고덕동,37.55691457,127.1493264,서울특별시 강동구 고덕동 
대형시민/도심공원,용마공원,중랑구,망우동,37.59406671,127.1057916,서울특별시 중랑구 망우동 망우로70길
지역근린공원,암사생태공원,강동구,암사동,37.56046059,127.130129,서울특별시 강동구 암사동 올림픽로
지역근린공원,근린공원,서초구,서초동,37.49864428,127.0210286,서울특별시 서초구 서초동 서운로23길
지역근린공원,발산근린공원,강서구,내발산동,37.55481651,126.8255079,서울특별시 강서구 내발산동 마곡중앙로
지역근린공원,다람쥐어린이공원,서대문구,연희동,37.57606886,126.93435,서울특별시 서대문구 연희동 
지역근린공원,면목공원,중랑구,면목동,37.58951018,127.0859321,서울특별시 중랑구 면목동 
지역근린공원,만리배수지공원,중구,만리동2가,37.55474679,126.9617812,서울특별시 중구 만리동2가 만리재로27길
지역근린공원,능골근린공원,강동구,강일동,37.55618402,127.1744765,서울특별시 강동구 강일동 
지역근린공원,성안공원,강동구,성내동,37.53135303,127.1347861,서울특별시 강동구 성내동 양재대로97길
지역근린공원,꿈나래공원,강동구,고덕동,37.56086516,127.1537718,서울특별시 강동구 고덕동 아리수로64길
지역근린공원,보명공원,관악구,신림동,37.47588091,126.9256498,서울특별시 관악구 신림동 법원단지길
지역근린공원,아래방죽마을공원,강남구,율현동,37.47324568,127.1082239,서울특별시 강남구 율현동 
지역근린공원,강덕근린공원,강동구,강일동,37.55882041,127.1744157,서울특별시 강동구 강일동 
지역근린공원,사근공원,성동구,사근동,37.56343701,127.0476509,서울특별시 성동구 사근동 
지역근린공원,근린공원,양천구,신월동,37.53211889,126.8288645,서울특별시 양천구 신월동 
지역근린공원,가야금공원,송파구,오금동,37.50868146,127.1293555,서울특별시 송파구 오금동 
지역근린공원,양지공원,동작구,사당동,37.48655029,126.9701096,서울특별시 동작구 사당동 
지역근린공원,신사공원,강남구,압구정동,37.52664046,127.0213515,서울특별시 강남구 압구정동 논현로189길
지역근린공원,앙카라공원,영등포구,여의도동,37.51754537,126.9301775,서울특별시 영등포구 여의도동 여의대방로
지역근린공원,느티나무공원,마포구,연남동,37.55962578,126.9187017,서울특별시 마포구 연남동 연남로3길
지역근린공원,여의도샛강공원,영등포구,여의도동,37.51695233,126.9250925,서울특별시 영등포구 여의도동 
지역근린공원,한샘상상어린이공원,송파구,문정동,37.48480712,127.1250272,서울특별시 송파구 문정동 
지역근린공원,어린이교통공원,노원구,중계동,37.64587111,127.0629876,서울특별시 노원구 중계동 덕릉로
지역근린공원,시루메공원,은평구,증산동,37.58292237,126.9064779,서울특별시 은평구 증산동 증산로5길
지역근린공원,산새공원,강서구,화곡동,37.5462769,126.8503741,서울특별시 강서구 화곡동 
지역근린공원,한신공원,중랑구,면목동,37.58807792,127.0767767,서울특별시 중랑구 면목동 겸재로3길
지역근린공원,봉수대공원,중랑구,신내동,37.6073917,127.0919616,서울특별시 중랑구 신내동 
대형시민/도심공원,관악산자연공원,관악구,신림동,37.46557155,126.9453553,서울특별시 관악구 신림동 
지역근린공원,북한산생태공원,은평구,불광동,37.61124982,126.9401701,서울특별시 은평구 불광동 
지역근린공원,탑골생태공원,은평구,진관동,37.63813848,126.9138166,서울특별시 은평구 진관동 통일로
지역근린공원,면목역공원,중랑구,면목동,37.58862709,127.0870536,서울특별시 중랑구 면목동 
지역근린공원,윗바람어린이공원,송파구,풍납동,37.53430514,127.1121096,서울특별시 송파구 풍납동 
지역근린공원,천호삼거리공원,강동구,천호동,37.54554678,127.1385363,서울특별시 강동구 천호동 
지역근린공원,채송화공원,강서구,등촌동,37.56277001,126.846058,서울특별시 강서구 등촌동 
지역근린공원,원터공원,강동구,명일동,37.55245398,127.1430502,서울특별시 강동구 명일동 양재대로147길
지역근린공원,상도공원,동작구,상도동,37.49321648,126.9384064,서울특별시 동작구 상도동 성대로6사길
지역근린공원,다사랑어린이공원,영등포구,대림동,37.4928339,126.8992264,서울특별시 영등포구 대림동 대림로23가길
지역근린공원,바람산공원,서대문구,창천동,37.5578841,126.9403579,서울특별시 서대문구 창천동 
지역근린공원,자양어린이공원,광진구,자양동,37.53305053,127.0746453,서울특별시 광진구 자양동 뚝섬로
지역근린공원,구룡공원,금천구,독산동,37.4778898,126.9027508,서울특별시 금천구 독산동 독산로107길
지역근린공원,영락어린이공원,관악구,봉천동,37.47680208,126.9437514,서울특별시 관악구 봉천동 
지역근린공원,장군봉근린공원,관악구,봉천동,37.48043191,126.9366866,서울특별시 관악구 봉천동 장군봉길
지역근린공원,도곡목련공원,강남구,도곡동,37.48499684,127.0443078,서울특별시 강남구 도곡동 
지역근린공원,응봉근린공원,성동구,금호동2가,37.55250247,127.0166064,서울특별시 성동구 금호동2가 매봉18길
지역근린공원,양재근린공원,서초구,양재동,37.4718697,127.0424261,서울특별시 서초구 양재동 동산로
지역근린공원,방죽공원,강동구,고덕동,37.55896682,127.1591629,서울특별시 강동구 고덕동 동남로82길
대형시민/도심공원,이촌한강공원,용산구,이촌동,37.51577676,126.9739381,서울특별시 용산구 이촌동 
지역근린공원,답십리근린공원,동대문구,답십리동,37.57196854,127.0619658,서울특별시 동대문구 답십리동 
지역근린공원,관악산호수공원,관악구,신림동,37.45852001,126.947026,서울특별시 관악구 신림동 
지역근린공원,장지공원,송파구,거여동,37.49304859,127.1395177,서울특별시 송파구 거여동 
지역근린공원,감로천생태공원,금천구,독산동,37.46941567,126.9083364,서울특별시 금천구 독산동 
지역근린공원,송파나루공원,송파구,잠실동,37.50685458,127.0978859,서울특별시 송파구 잠실동 석촌호수로
지역근린공원,오동나무어린이공원,송파구,오금동,37.50628379,127.1339064,서울특별시 송파구 오금동 
지역근린공원,근린공원,서초구,양재동,37.47159954,127.0487726,서울특별시 서초구 양재동 논현로5길
지역근린공원,늘푸른공원,중랑구,면목동,37.58300432,127.0800306,서울특별시 중랑구 면목동 
지역근린공원,마루공원,강남구,일원동,37.49623654,127.080872,서울특별시 강남구 일원동 
지역근린공원,근린공원,관악구,남현동,37.47422294,126.979152,서울특별시 관악구 남현동 남현3길
지역근린공원,옹기터마을마당,중랑구,신내동,37.60296269,127.0955779,서울특별시 중랑구 신내동 
지역근린공원,풍납백제문화공원,송파구,풍납동,37.53579262,127.1142752,서울특별시 송파구 풍납동 
지역근린공원,신록어린이공원,은평구,녹번동,37.6054034,126.9363706,서울특별시 은평구 녹번동 통일로
대형시민/도심공원,배꽃근린공원,노원구,공릉동,37.62632481,127.0924942,서울특별시 노원구 공릉동 화랑로51나길
지역근린공원,양지근린공원,노원구,중계동,37.64717752,127.0757307,서울특별시 노원구 중계동 
지역근린공원,초롱공원,서초구,반포동,37.49962131,126.9874915,서울특별시 서초구 반포동 신반포로
지역근린공원,연서어린이공원,은평구,역촌동,37.60408694,126.9167696,서울특별시 은평구 역촌동 연서로6길
지역근린공원,새장터공원,강동구,암사동,37.55211197,127.1307868,서울특별시 강동구 암사동 암사1가길
지역근린공원,향기어린이공원,성북구,상월곡동,37.60927668,127.045073,서울특별시 성북구 상월곡동 장월로1가길
지역근린공원,어린이대공원환경연못,광진구,능동,37.54987154,127.0765357,서울특별시 광진구 능동 능동로
지역근린공원,상계근린공원,노원구,상계동,37.67042278,127.0504702,서울특별시 노원구 상계동 
지역근린공원,은천어린이공원,관악구,봉천동,37.48833399,126.9429906,서울특별시 관악구 봉천동 
지역근린공원,뱃골창공원,도봉구,창동,37.64659797,127.0449688,서울특별시 도봉구 창동 해등로
지역근린공원,복숭아어린이공원,송파구,오금동,37.50686748,127.1313754,서울특별시 송파구 오금동 
지역근린공원,삼밭나루어린이공원,송파구,삼전동,37.50520863,127.0917442,서울특별시 송파구 삼전동 
지역근린공원,월암근린공원,종로구,송월동,37.57122578,126.9653789,서울특별시 종로구 송월동 
지역근린공원,청룡근린공원,강남구,개포동,37.48677248,127.0561334,서울특별시 강남구 개포동 양재천동자전거길
지역근린공원,팔각정어린이공원,송파구,가락동,37.49262149,127.1242053,서울특별시 송파구 가락동 
지역근린공원,평화공원,마포구,동교동,37.55730496,126.9298402,서울특별시 마포구 동교동 신촌로4길
지역근린공원,새싹공원,관악구,봉천동,37.48449011,126.949385,서울특별시 관악구 봉천동 양녕로6다길
지역근린공원,논골새싹공원,성동구,행당동,37.55751131,127.0250559,서울특별시 성동구 행당동 난계로
지역근린공원,암사공원,강동구,암사동,37.55294611,127.1377197,서울특별시 강동구 암사동 고덕로28길
지역근린공원,근린공원,성동구,마장동,37.56613414,127.0457798,서울특별시 성동구 마장동 마장로42길
지역근린공원,아랫바람공원,송파구,풍납동,37.53235391,127.1122278,서울특별시 송파구 풍납동 
지역근린공원,어린이대공원능동소공원,광진구,능동,37.55255319,127.0830551,서울특별시 광진구 능동 능동로
지역근린공원,남촌공원,중랑구,면목동,37.58576604,127.0912765,서울특별시 중랑구 면목동 용마산로81길
지역근린공원,탑골공원,종로구,종로2가,37.57098139,126.9882502,서울특별시 종로구 종로2가 종로
지역근린공원,당산동마을공원,영등포구,당산동,37.52779771,126.9085463,서울특별시 영등포구 당산동 
지역근린공원,테헤란공원,강남구,수서동,37.48803449,127.1061196,서울특별시 강남구 수서동 광평로60길
지역근린공원,연지공원,강서구,화곡동,37.55469027,126.8532886,서울특별시 강서구 화곡동 공항대로46길
지역근린공원,불암산공원,노원구,중계동,37.66222652,127.0792063,서울특별시 노원구 중계동 덕릉로94길
대형시민/도심공원,뚝섬한강공원,광진구,자양동,37.52934202,127.0697754,서울특별시 광진구 자양동 
지역근린공원,야생화단지,송파구,가락동,37.49598714,127.1004103,서울특별시 송파구 가락동 삼학사로2길
지역근린공원,와룡공원,종로구,명륜3가,37.59125242,126.9902617,서울특별시 종로구 명륜3가 와룡공원길
지역근린공원,백토공원,송파구,오금동,37.50824844,127.1325847,서울특별시 송파구 오금동 양재대로72길
지역근린공원,근린공원,송파구,문정동,37.48974889,127.1330516,서울특별시 송파구 문정동 송이로31길
지역근린공원,근린공원,영등포구,대림동,37.49140341,126.9033271,서울특별시 영등포구 대림동 대림로
지역근린공원,등마루공원,강서구,등촌동,37.55603112,126.8574009,서울특별시 강서구 등촌동 
지역근린공원,근린공원,양천구,신월동,37.52215666,126.8279278,서울특별시 양천구 신월동 지양로7길
지역근린공원,포방골소공원,서대문구,홍은동,37.59987639,126.9506698,서울특별시 서대문구 홍은동 포방터8길
지역근린공원,신사근린공원,은평구,신사동,37.59257173,126.9102108,서울특별시 은평구 신사동 
지역근린공원,청담배수지공원,강남구,삼성동,37.52104184,127.0614309,서울특별시 강남구 삼성동 
지역근린공원,양재천생태공원,서초구,우면동,37.45548799,127.0144301,서울특별시 서초구 우면동 
지역근린공원,순화어린이공원,중구,순화동,37.56354624,126.9712479,서울특별시 중구 순화동 
지역근린공원,참다래어린이공원,은평구,응암동,37.59529853,126.917337,서울특별시 은평구 응암동 응암로25길
지역근린공원,광진공원,강동구,천호동,37.54297043,127.1225179,서울특별시 강동구 천호동 구천면로13길
지역근린공원,봉황공원,중랑구,상봉동,37.59502436,127.0847554,서울특별시 중랑구 상봉동 동일로116길
지역근린공원,갈말근린공원,노원구,상계동,37.66556278,127.053434,서울특별시 노원구 상계동 동일로227길
지역근린공원,나말어린이공원,양천구,목동,37.53860157,126.8645341,서울특별시 양천구 목동 목동중앙남로3가길
지역근린공원,웃말근린공원,송파구,가락동,37.5023167,127.1230954,서울특별시 송파구 가락동 송이로15길
지역근린공원,보명어린이공원,관악구,신림동,37.4755759,126.9256334,서울특별시 관악구 신림동 
지역근린공원,볕우물공원,강동구,암사동,37.55358256,127.1358166,서울특별시 강동구 암사동 고덕로24길
지역근린공원,동산어린이공원,성북구,하월곡동,37.60637954,127.0345443,서울특별시 성북구 하월곡동 오패산로3길
지역근린공원,해태어린이공원,도봉구,도봉동,37.67204987,127.0411088,서울특별시 도봉구 도봉동 
지역근린공원,화곡1시민공원,강서구,화곡동,37.54532712,126.8514002,서울특별시 강서구 화곡동 까치산로18길
지역근린공원,숭례문광장,중구,남대문로5가,37.55943439,126.9751272,서울특별시 중구 남대문로5가 
지역근린공원,청계광장,종로구,서린동,37.56918088,126.9781048,서울특별시 종로구 서린동 
지역근린공원,천일어린이공원,강동구,천호동,37.54495557,127.1363886,서울특별시 강동구 천호동 구천면로42길
지역근린공원,홍릉공원,동대문구,청량리동,37.58927799,127.045229,서울특별시 동대문구 청량리동 홍릉로
지역근린공원,갈산공원,양천구,신정동,37.50824973,126.8690043,서울특별시 양천구 신정동 목동남로
지역근린공원,까치공원,강남구,대치동,37.49698828,127.0592292,서울특별시 강남구 대치동 
지역근린공원,둥근달어린이공원,도봉구,쌍문동,37.64967101,127.0302803,서울특별시 도봉구 쌍문동 
지역근린공원,명달가로공원,서초구,서초동,37.48803961,127.0040338,서울특별시 서초구 서초동 
지역근린공원,새락골어린이공원,은평구,신사동,37.59895936,126.9111703,서울특별시 은평구 신사동 은평로3가길
지역근린공원,상일동산공원,강동구,상일동,37.54901979,127.1653863,서울특별시 강동구 상일동 
지역근린공원,솔밭공원,노원구,공릉동,37.62328964,127.0880575,서울특별시 노원구 공릉동 화랑로51길
지역근린공원,정릉천공원,동대문구,용두동,37.57329056,127.0350091,서울특별시 동대문구 용두동 
지역근린공원,돌산체육공원,중랑구,망우동,37.59130969,127.1043443,서울특별시 중랑구 망우동 
지역근린공원,염주골공원,강동구,명일동,37.54994059,127.1456059,서울특별시 강동구 명일동 양재대로138길
지역근린공원,길마어린이공원,은평구,갈현동,37.61465572,126.915706,서울특별시 은평구 갈현동 연서로21길
지역근린공원,선봉공원,관악구,봉천동,37.48519164,126.9396852,서울특별시 관악구 봉천동 봉천로27길
지역근린공원,새들어린이놀이터,관악구,신림동,37.48866549,126.925761,서울특별시 관악구 신림동 
지역근린공원,근린공원,송파구,송파동,37.50152902,127.1153572,서울특별시 송파구 송파동 
지역근린공원,삼성은행나무공원,강남구,삼성동,37.51653122,127.045798,서울특별시 강남구 삼성동 
지역근린공원,한아름공원,노원구,상계동,37.6574984,127.0613227,서울특별시 노원구 상계동 
지역근린공원,문래공원,영등포구,문래동3가,37.51714716,126.89393,서울특별시 영등포구 문래동3가 
지역근린공원,꽃동산공원,중랑구,망우동,37.59132966,127.0989098,서울특별시 중랑구 망우동 용마산로100길
지역근린공원,무궁화공원,광진구,구의동,37.54126721,127.0944018,서울특별시 광진구 구의동 광나루로52길
지역근린공원,근린공원,성동구,금호동1가,37.55064268,127.0289757,서울특별시 성동구 금호동1가 
지역근린공원,진주어린이공원,양천구,신정동,37.52658147,126.8550219,서울특별시 양천구 신정동 
지역근린공원,나래어린이공원,노원구,공릉동,37.62695574,127.070634,서울특별시 노원구 공릉동 
지역근린공원,명일근린공원,강동구,상일동,37.5485239,127.1624834,서울특별시 강동구 상일동 
지역근린공원,무궁화공원,강북구,수유동,37.6473536,127.009249,서울특별시 강북구 수유동 
지역근린공원,문성공원,관악구,신림동,37.48201341,126.9028913,서울특별시 관악구 신림동 시흥대로164길
지역근린공원,일선공원,관악구,봉천동,37.47782171,126.949527,서울특별시 관악구 봉천동 쑥고개로26길
지역근린공원,잠원근린공원,서초구,잠원동,37.51269791,127.0101989,서울특별시 서초구 잠원동 
지역근린공원,궁산근린공원,강서구,마곡동,37.57412341,126.8392458,서울특별시 강서구 마곡동 
지역근린공원,달터공원,강남구,개포동,37.48596939,127.0605298,서울특별시 강남구 개포동 선릉로18길
지역근린공원,마천공원,송파구,마천동,37.50168308,127.1457701,서울특별시 송파구 마천동 성내천로23길
지역근린공원,생활체육공원,성북구,정릉동,37.61099777,126.9915811,서울특별시 성북구 정릉동 정릉로6길
지역근린공원,덕수공원,관악구,봉천동,37.47415394,126.9583526,서울특별시 관악구 봉천동 낙성대로
지역근린공원,서교어린이공원,마포구,서교동,37.55190103,126.9154076,서울특별시 마포구 서교동 양화로11길
지역근린공원,정훈공원,금천구,독산동,37.46566929,126.9063669,서울특별시 금천구 독산동 
지역근린공원,장미어린이공원,도봉구,창동,37.63813332,127.0363321,서울특별시 도봉구 창동 
지역근린공원,월곡1근린공원,성북구,하월곡동,37.60974023,127.0407871,서울특별시 성북구 하월곡동 
대형시민/도심공원,양화한강공원,영등포구,양화동,37.54277262,126.8955346,서울특별시 영등포구 양화동 노들로
지역근린공원,장수공원,양천구,신월동,37.5226123,126.8491414,서울특별시 양천구 신월동 신월로
대형시민/도심공원,용산가족공원,용산구,용산동6가,37.5212203,126.9837821,서울특별시 용산구 용산동6가 서빙고로
지역근린공원,오목수변공원,양천구,목동,37.52462812,126.8774716,서울특별시 양천구 목동 오목로
지역근린공원,대치유수지체육공원,강남구,대치동,37.50318127,127.0683618,서울특별시 강남구 대치동 
지역근린공원,개봉공원,구로구,개봉동,37.48514033,126.8484503,서울특별시 구로구 개봉동 개봉로3길
지역근린공원,부렴어린이공원,송파구,잠실동,37.50572559,127.0793196,서울특별시 송파구 잠실동 
지역근린공원,용양봉저정공원,동작구,본동,37.51190551,126.9577881,서울특별시 동작구 본동 
지역근린공원,칸나공원,동작구,신대방동,37.4855691,126.9046819,서울특별시 동작구 신대방동 시흥대로
지역근린공원,서원공원,관악구,신림동,37.47685493,126.9332489,서울특별시 관악구 신림동 서원3길
지역근린공원,무너미공원,강북구,수유동,37.64608344,127.0127515,서울특별시 강북구 수유동 
지역근린공원,두리어린이공원,마포구,망원동,37.56012191,126.9012304,서울특별시 마포구 망원동 방울내로5길
지역근린공원,강월어린이공원,양천구,신월동,37.51554946,126.83632,서울특별시 양천구 신월동 남부순환로82길
지역근린공원,새동네공원,도봉구,도봉동,37.68900621,127.0430222,서울특별시 도봉구 도봉동 
지역근린공원,명주그린공원,서초구,잠원동,37.5172087,127.015015,서울특별시 서초구 잠원동 
지역근린공원,국사봉공원,관악구,봉천동,37.49005841,126.9340661,서울특별시 관악구 봉천동 
지역근린공원,성내천공원,송파구,오금동,37.50013061,127.1407079,서울특별시 송파구 오금동 
지역근린공원,도화소공원,마포구,도화동,37.54115072,126.9455856,서울특별시 마포구 도화동 토정로37길
지역근린공원,개포근린공원,강남구,개포동,37.48322849,127.0660039,서울특별시 강남구 개포동 선릉로4길
지역근린공원,먹골공원,중랑구,묵동,37.61151359,127.0790145,서울특별시 중랑구 묵동 
지역근린공원,한사랑공원,금천구,독산동,37.46772744,126.904555,서울특별시 금천구 독산동 
지역근린공원,중랑둔치공원,중랑구,면목동,37.57529093,127.0788384,서울특별시 중랑구 면목동 
지역근린공원,도레미공원,강서구,방화동,37.57197523,126.8193818,서울특별시 강서구 방화동 
대형시민/도심공원,광나루한강공원,강동구,천호동,37.54905468,127.1206377,서울특별시 강동구 천호동 
지역근린공원,강동잔디광장,강동구,둔촌동,37.53302483,127.1523624,서울특별시 강동구 둔촌동 
지역근린공원,공원,강북구,수유동,37.64054812,127.0244054,서울특별시 강북구 수유동 
지역근린공원,배꽃공원,노원구,공릉동,37.62587588,127.0929978,서울특별시 노원구 공릉동 화랑로
지역근린공원,근린공원,광진구,구의동,37.54437433,127.0925365,서울특별시 광진구 구의동 광나루로
지역근린공원,근린공원,구로구,고척동,37.50689563,126.8561756,서울특별시 구로구 고척동 중앙로15길
지역근린공원,수정공원,송파구,문정동,37.48907952,127.1262309,서울특별시 송파구 문정동 
지역근린공원,샘터공원,강남구,삼성동,37.51531051,127.0474402,서울특별시 강남구 삼성동 
지역근린공원,해태어린이공원,양천구,신정동,37.52167381,126.8620085,서울특별시 양천구 신정동 은행정로6길
지역근린공원,소나무공원,강서구,화곡동,37.54705326,126.8477953,서울특별시 강서구 화곡동 
지역근린공원,서초4동마을마당,서초구,서초동,37.50264889,127.0223773,서울특별시 서초구 서초동 서운로26길
지역근린공원,청남공원,중랑구,신내동,37.61999872,127.1105321,서울특별시 중랑구 신내동 
지역근린공원,천일골목공원,강동구,천호동,37.54056421,127.1314325,서울특별시 강동구 천호동 진황도로27다길
지역근린공원,두산공원,금천구,독산동,37.47311013,126.8941732,서울특별시 금천구 독산동 시흥대로123길
지역근린공원,약초원공원,광진구,자양동,37.53288094,127.0664054,서울특별시 광진구 자양동 
지역근린공원,명우공원,강동구,명일동,37.55155884,127.1414433,서울특별시 강동구 명일동 
지역근린공원,무수어린이공원,도봉구,도봉동,37.68060444,127.0425986,서울특별시 도봉구 도봉동 
지역근린공원,반딧불공원,송파구,문정동,37.48793131,127.1241119,서울특별시 송파구 문정동 
대형시민/도심공원,백련공원,서대문구,홍은동,37.59038954,126.9289143,서울특별시 서대문구 홍은동 
지역근린공원,근린공원,강남구,개포동,37.48973828,127.0675948,서울특별시 강남구 개포동 개포로
지역근린공원,구두테마공원,성동구,성수동2가,37.54488597,127.0521767,서울특별시 성동구 성수동2가 연무장5길
지역근린공원,외국인선교사묘원,마포구,합정동,37.54650324,126.9113657,서울특별시 마포구 합정동 양화진길
지역근린공원,소망공원,중랑구,묵동,37.6110845,127.0748507,서울특별시 중랑구 묵동 
지역근린공원,어린이공원,양천구,신정동,37.51122337,126.8525478,서울특별시 양천구 신정동 신정로
대형시민/도심공원,서울광장,중구,태평로2가,37.56562368,126.9780359,서울특별시 중구 태평로2가 을지로
지역근린공원,둔촌어린이공원,강동구,둔촌동,37.53140748,127.1432797,서울특별시 강동구 둔촌동 
지역근린공원,희망동산,노원구,공릉동,37.62776618,127.0845691,서울특별시 노원구 공릉동 
지역근린공원,궁동공원,서대문구,연희동,37.56868952,126.9226865,서울특별시 서대문구 연희동 성산로7길
지역근린공원,근린공원,강남구,역삼동,37.49763124,127.0488951,서울특별시 강남구 역삼동 
지역근린공원,개웅소공원,구로구,개봉동,37.48808327,126.8546129,서울특별시 구로구 개봉동 
지역근린공원,벽운근린공원,노원구,상계동,37.68031812,127.0572509,서울특별시 노원구 상계동 동일로248가길
지역근린공원,홍련봉공원,광진구,구의동,37.54901678,127.094009,서울특별시 광진구 구의동 천호대로
지역근린공원,홍박공원,서대문구,홍은동,37.60143092,126.948793,서울특별시 서대문구 홍은동 
지역근린공원,게내어린이공원,강동구,상일동,37.54913611,127.171631,서울특별시 강동구 상일동 상일로5길
지역근린공원,강동구도시농업공원,강동구,둔촌동,37.53417434,127.151144,서울특별시 강동구 둔촌동 
지역근린공원,암사역사공원,강동구,암사동,37.55758818,127.1319812,서울특별시 강동구 암사동 
지역근린공원,성삼공원,성동구,성수동2가,37.54195321,127.0606154,서울특별시 성동구 성수동2가 성수이로18길
지역근린공원,소망공원,금천구,독산동,37.46936831,126.9016706,서울특별시 금천구 독산동 독산로75길
지역근린공원,금남공원,성동구,금호동3가,37.5505481,127.0213923,서울특별시 성동구 금호동3가 금호산8길
지역근린공원,천사공원,강동구,천호동,37.54380926,127.1284086,서울특별시 강동구 천호동 천중로12길
지역근린공원,서소문역사공원,중구,의주로2가,37.56056843,126.9693516,서울특별시 중구 의주로2가 칠패로
지역근린공원,박미사랑소공원,금천구,시흥동,37.43755366,126.904572,서울특별시 금천구 시흥동 
지역근린공원,꽃사슴공원,양천구,신정동,37.5218168,126.8484596,서울특별시 양천구 신정동 중앙로29길
지역근린공원,도심소공원,양천구,목동,37.54649982,126.8792285,서울특별시 양천구 목동 
지역근린공원,홍제문화소공원,서대문구,홍제동,37.59450906,126.9488864,서울특별시 서대문구 홍제동 세검정로4길
지역근린공원,남도어린이공원,양천구,신월동,37.5243691,126.8408331,서울특별시 양천구 신월동 
지역근린공원,논현까치공원,강남구,논현동,37.50849689,127.0251272,서울특별시 강남구 논현동 
지역근린공원,중곡어린이공원,광진구,중곡동,37.56468791,127.0791948,서울특별시 광진구 중곡동 긴고랑로5길
지역근린공원,호돌이공원,노원구,상계동,37.6687291,127.0503785,서울특별시 노원구 상계동 
지역근린공원,한마음공원,강남구,개포동,37.49623461,127.0756344,서울특별시 강남구 개포동 남부순환로
지역근린공원,개나리공원,도봉구,방학동,37.66739408,127.0371528,서울특별시 도봉구 방학동 
지역근린공원,돌말공원,금천구,가산동,37.48287202,126.8844288,서울특별시 금천구 가산동 
지역근린공원,삼선공원,성북구,삼선동1가,37.58299374,127.008556,서울특별시 성북구 삼선동1가 삼선교로4나길
지역근린공원,아차산공원,광진구,광장동,37.55194459,127.1010015,서울특별시 광진구 광장동 워커힐로
지역근린공원,새장골공원,은평구,불광동,37.62535141,126.9262828,서울특별시 은평구 불광동 연서로37가길
지역근린공원,허브천문공원,강동구,둔촌동,37.53726489,127.1543557,서울특별시 강동구 둔촌동 
지역근린공원,전곡마을마당공원,동대문구,전농동,37.58070428,127.0545616,서울특별시 동대문구 전농동 
지역근린공원,보람공원,강동구,성내동,37.52471699,127.1313123,서울특별시 강동구 성내동 양재대로85길
지역근린공원,언구비공원,서초구,반포동,37.50890779,127.0201457,서울특별시 서초구 반포동 
지역근린공원,중계근린공원,노원구,중계동,37.63987812,127.0657703,서울특별시 노원구 중계동 동일로
지역근린공원,체육공원,서대문구,홍은동,37.59429184,126.9430117,서울특별시 서대문구 홍은동 
지역근린공원,송학어린이공원,관악구,봉천동,37.48030402,126.9493668,서울특별시 관악구 봉천동 
지역근린공원,용마폭포공원,중랑구,면목동,37.57381071,127.0901757,서울특별시 중랑구 면목동 용마산로
지역근린공원,범바위공원,강서구,화곡동,37.54311664,126.8414952,서울특별시 강서구 화곡동 강서로34길
지역근린공원,신길근린공원,영등포구,신길동,37.50157161,126.9060129,서울특별시 영등포구 신길동 도림로80길
지역근린공원,희망어린이공원,노원구,상계동,37.67241379,127.0788078,서울특별시 노원구 상계동 
지역근린공원,근린공원,동작구,상도동,37.49984701,126.9353194,서울특별시 동작구 상도동 성대로17길
지역근린공원,근린공원,도봉구,방학동,37.66244824,127.0429435,서울특별시 도봉구 방학동 
지역근린공원,꿩고개근린공원,강서구,방화동,37.57785943,126.817568,서울특별시 강서구 방화동 
지역근린공원,당뒤어린이공원,양천구,신월동,37.5414592,126.8285537,서울특별시 양천구 신월동 화곡로5길
지역근린공원,석촌상상어린이공원,송파구,석촌동,37.50597224,127.0998257,서울특별시 송파구 석촌동 
지역근린공원,횃불어린이공원,서초구,양재동,37.47836117,127.037504,서울특별시 서초구 양재동 
지역근린공원,장미소공원,성동구,송정동,37.55226266,127.0687455,서울특별시 성동구 송정동 
지역근린공원,휴암문화공원,마포구,상암동,37.58310933,126.8804344,서울특별시 마포구 상암동 
지역근린공원,논현무궁화공원,강남구,논현동,37.50667082,127.0307389,서울특별시 강남구 논현동 
지역근린공원,상길례문화공원,성북구,장위동,37.61977499,127.0453343,서울특별시 성북구 장위동 돌곶이로
지역근린공원,중앙공원,관악구,봉천동,37.48448563,126.9482898,서울특별시 관악구 봉천동 봉천로41길
지역근린공원,조마공원,금천구,가산동,37.4756148,126.8955596,서울특별시 금천구 가산동 시흥대로149가길
지역근린공원,남현동광장형휴게공원,관악구,남현동,37.47631392,126.9807704,서울특별시 관악구 남현동 
지역근린공원,망우리공원웰컴센터,중랑구,망우동,37.59869468,127.1144987,서울특별시 중랑구 망우동 망우로
지역근린공원,근린공원,양천구,목동,37.53348604,126.864679,서울특별시 양천구 목동 
지역근린공원,새싹어린이공원,관악구,봉천동,37.48447734,126.9495462,서울특별시 관악구 봉천동 양녕로6다길
지역근린공원,체육공원,은평구,녹번동,37.61018008,126.9422204,서울특별시 은평구 녹번동 진흥로
지역근린공원,큰길어린이공원,마포구,성산동,37.56772842,126.9082514,서울특별시 마포구 성산동 월드컵북로
지역근린공원,체육공원,은평구,신사동,37.59738408,126.9036285,서울특별시 은평구 신사동 가좌로11가길
지역근린공원,일원까치공원,강남구,일원동,37.49207842,127.0881371,서울특별시 강남구 일원동 양재대로55길
지역근린공원,양재어린이공원,서초구,양재동,37.48337757,127.0392932,서울특별시 서초구 양재동 
지역근린공원,근린공원,강남구,대치동,37.4939651,127.0546324,서울특별시 강남구 대치동 선릉로
지역근린공원,동산어린이공원,동대문구,답십리동,37.56697702,127.057535,서울특별시 동대문구 답십리동 
지역근린공원,본마을공원,서초구,신원동,37.45467537,127.053123,서울특별시 서초구 신원동 
지역근린공원,밤섬공원,마포구,신정동,37.54288284,126.9318565,서울특별시 마포구 신정동 
지역근린공원,새마을어린이공원,노원구,상계동,37.67932439,127.0524731,서울특별시 노원구 상계동 
지역근린공원,역삼무궁화공원,강남구,역삼동,37.49395206,127.0323182,서울특별시 강남구 역삼동 역삼로
지역근린공원,꿈나무공원,금천구,독산동,37.46356548,126.9049612,서울특별시 금천구 독산동 
지역근린공원,성북천분수광장,성북구,동소문동2가,37.58823257,127.0067063,서울특별시 성북구 동소문동2가 
지역근린공원,보람공원,성동구,마장동,37.56619002,127.0381819,서울특별시 성동구 마장동 마장로
지역근린공원,우면산도시공원,서초구,방배동,37.47378779,127.0031009,서울특별시 서초구 방배동 
지역근린공원,암벽등반공원,성동구,응봉동,37.54839769,127.0307647,서울특별시 성동구 응봉동 독서당로60길
지역근린공원,체육공원,금천구,독산동,37.46820218,126.9084651,서울특별시 금천구 독산동 독산로54길
지역근린공원,지봉골공원,종로구,창신동,37.57869823,127.014753,서울특별시 종로구 창신동 지봉로13길
지역근린공원,건너말공원,송파구,가락동,37.49181279,127.1240069,서울특별시 송파구 가락동 중대로10길
지역근린공원,백범광장,중구,회현동1가,37.55488328,126.9792527,서울특별시 중구 회현동1가 
지역근린공원,마들근린공원,노원구,상계동,37.64434716,127.0585892,서울특별시 노원구 상계동 덕릉로
지역근린공원,연주대공원,관악구,신림동,37.46924517,126.9419927,서울특별시 관악구 신림동 
지역근린공원,양지공원,중랑구,면목동,37.59036473,127.0890983,서울특별시 중랑구 면목동 면목로78길
지역근린공원,송이공원,송파구,송파동,37.50119706,127.1189488,서울특별시 송파구 송파동 
지역근린공원,삿갓봉근린공원,노원구,중계동,37.65798456,127.0760837,서울특별시 노원구 중계동 한글비석로
지역근린공원,한티근린공원,강남구,대치동,37.49510179,127.0622257,서울특별시 강남구 대치동 
지역근린공원,샛마을근린공원,강동구,명일동,37.55194023,127.1467133,서울특별시 강동구 명일동 
지역근린공원,근린공원,양천구,신정동,37.51375837,126.8457195,서울특별시 양천구 신정동 신정로13가길
지역근린공원,대림3동체육공원,영등포구,대림동,37.50417896,126.8951428,서울특별시 영등포구 대림동 도신로
지역근린공원,답동소공원,서대문구,홍은동,37.59396569,126.9337209,서울특별시 서대문구 홍은동 
지역근린공원,신우어린이공원,영등포구,대림동,37.50329402,126.8992246,서울특별시 영등포구 대림동 대림로44길
지역근린공원,불당골마을마당,강북구,미아동,37.61940323,127.0190396,서울특별시 강북구 미아동 
지역근린공원,세곡천어린이공원,강남구,세곡동,37.46326536,127.1013141,서울특별시 강남구 세곡동 
지역근린공원,선형의숲,마포구,중동,37.57228379,126.9070448,서울특별시 마포구 중동 
지역근린공원,백설어린이공원,관악구,봉천동,37.47613818,126.9536506,서울특별시 관악구 봉천동 관악로6길
지역근린공원,역삼은행나무공원,강남구,역삼동,37.50541876,127.0312427,서울특별시 강남구 역삼동 
지역근린공원,미리내공원,동대문구,장안동,37.58089286,127.0717374,서울특별시 동대문구 장안동 
지역근린공원,신세대공원,양천구,신월동,37.53482918,126.8327689,서울특별시 양천구 신월동 
지역근린공원,역마을공원,은평구,역촌동,37.60111657,126.9185212,서울특별시 은평구 역촌동 진흥로1길
지역근린공원,호박골공원,관악구,신림동,37.4819389,126.9239951,서울특별시 관악구 신림동 
지역근린공원,월천그린공원,도봉구,창동,37.64761079,127.0507041,서울특별시 도봉구 창동 노해로70길
지역근린공원,무궁화공원,송파구,가락동,37.49304679,127.1270035,서울특별시 송파구 가락동 
지역근린공원,뒷말어린이공원,도봉구,방학동,37.66380059,127.0336375,서울특별시 도봉구 방학동 
지역근린공원,푸른동산공원,광진구,구의동,37.54289234,127.0910277,서울특별시 광진구 구의동 광나루로44길
지역근린공원,잔다리공원,마포구,서교동,37.55458854,126.9127316,서울특별시 마포구 서교동 동교로
지역근린공원,흥이어린이공원,송파구,가락동,37.50119513,127.1249074,서울특별시 송파구 가락동 송이로17길
지역근린공원,발음공원,강서구,내발산동,37.55222241,126.8331812,서울특별시 강서구 내발산동 강서로47길
지역근린공원,서원어린이공원,도봉구,도봉동,37.68382592,127.0433044,서울특별시 도봉구 도봉동 
지역근린공원,근린공원,송파구,송파동,37.50816666,127.1093759,서울특별시 송파구 송파동 
지역근린공원,이문둔치공원,동대문구,이문동,37.60421799,127.0716653,서울특별시 동대문구 이문동 
지역근린공원,소귀어린이공원,강북구,수유동,37.63858363,127.0186871,서울특별시 강북구 수유동 
지역근린공원,송죽어린이공원,양천구,신월동,37.53943929,126.8338695,서울특별시 양천구 신월동 
지역근린공원,중대어린이공원,송파구,송파동,37.49976474,127.1154812,서울특별시 송파구 송파동 
지역근린공원,진달래어린이공원,강동구,명일동,37.55133546,127.1514283,서울특별시 강동구 명일동 고덕로62길
지역근린공원,부석공원,강서구,개화동,37.58290648,126.7988987,서울특별시 강서구 개화동 
지역근린공원,구로근린공원,구로구,구로동,37.4968072,126.8897201,서울특별시 구로구 구로동 가마산로25길
지역근린공원,봉화공원,중랑구,중화동,37.59815643,127.077437,서울특별시 중랑구 중화동 중랑역로
지역근린공원,당산나루소공원,영등포구,당산동5가,37.53261029,126.9005922,서울특별시 영등포구 당산동5가 
지역근린공원,푸른공원,서초구,반포동,37.5009373,126.9896793,서울특별시 서초구 반포동 신반포로
지역근린공원,중랑구체육공원,중랑구,중화동,37.60216946,127.0733457,서울특별시 중랑구 중화동 
지역근린공원,중화둔치공원,중랑구,중화동,37.60467386,127.0730501,서울특별시 중랑구 중화동 
지역근린공원,송정공원,강서구,공항동,37.56074861,126.8113172,서울특별시 강서구 공항동 
지역근린공원,무궁화공원,도봉구,방학동,37.66784033,127.0421177,서울특별시 도봉구 방학동 
지역근린공원,배밭골공원,성북구,정릉동,37.60786199,126.9988271,서울특별시 성북구 정릉동 정릉로10길
지역근린공원,벌말어린이공원,송파구,오금동,37.50191211,127.1398935,서울특별시 송파구 오금동 동남로28길
지역근린공원,어린이교통공원,송파구,신천동,37.5158363,127.1020212,서울특별시 송파구 신천동 올림픽로35다길
지역근린공원,궁현어린이공원,서초구,서초동,37.48844393,127.0103148,서울특별시 서초구 서초동 
지역근린공원,용왕산체육공원,양천구,목동,37.54349003,126.8781986,서울특별시 양천구 목동 용왕정길
지역근린공원,역말공원,강서구,화곡동,37.54964728,126.8487834,서울특별시 강서구 화곡동 화곡로44가길
대형시민/도심공원,월드컵공원노을공원,마포구,상암동,37.57496913,126.8749433,서울특별시 마포구 상암동 하늘공원로
지역근린공원,효창공원,용산구,효창동,37.54511212,126.9612547,서울특별시 용산구 효창동 효창원로
지역근린공원,양천공원,양천구,신정동,37.51808397,126.8682054,서울특별시 양천구 신정동 목동동로
지역근린공원,길동생태공원,강동구,길동,37.54078969,127.1549872,서울특별시 강동구 길동 천호대로
지역근린공원,근린공원,관악구,봉천동,37.49146199,126.9521517,서울특별시 관악구 봉천동 성현로
지역근린공원,늘봄어린이공원,송파구,문정동,37.48767369,127.1338393,서울특별시 송파구 문정동 
지역근린공원,뚝섬유수지체육공원,성동구,성수동1가,37.54931687,127.0402233,서울특별시 성동구 성수동1가 서울숲길
지역근린공원,곰돌이어린이공원,강동구,고덕동,37.55617248,127.1549838,서울특별시 강동구 고덕동 고덕로61길
지역근린공원,봉제산근린공원,강서구,화곡동,37.54222179,126.8518893,서울특별시 강서구 화곡동 초록마을로
지역근린공원,양평어린이공원,영등포구,양평동4가,37.53811674,126.8980808,서울특별시 영등포구 양평동4가 
지역근린공원,역삼공원,강남구,역삼동,37.50139653,127.0304014,서울특별시 강남구 역삼동 테헤란로7길
지역근린공원,예술어린이공원,서초구,서초동,37.48322337,127.0146921,서울특별시 서초구 서초동 남부순환로323길
지역근린공원,경의선공원,마포구,대흥동,37.546375,126.9426884,서울특별시 마포구 대흥동 
지역근린공원,교남체육공원,종로구,행촌동,37.57635467,126.9626705,서울특별시 종로구 행촌동 통일로12길
대형시민/도심공원,도곡공원,강남구,도곡동,37.48980723,127.0447522,서울특별시 강남구 도곡동 
지역근린공원,꿀벌어린이공원,양천구,신월동,37.51997447,126.8420098,서울특별시 양천구 신월동 
대형시민/도심공원,선유도공원,영등포구,양화동,37.54373569,126.9003392,서울특별시 영등포구 양화동 선유로
지역근린공원,온달공원,광진구,광장동,37.54595538,127.103788,서울특별시 광진구 광장동 아차산로73길
지역근린공원,일원비둘기공원,강남구,일원동,37.48332927,127.0858461,서울특별시 강남구 일원동 
지역근린공원,수명공원,강서구,화곡동,37.54083731,126.8343559,서울특별시 강서구 화곡동 화곡로15길
지역근린공원,은행공원,금천구,시흥동,37.45210218,126.9069904,서울특별시 금천구 시흥동 금하로
지역근린공원,신월근린공원,양천구,신월동,37.51830376,126.8342316,서울특별시 양천구 신월동 신월로
지역근린공원,새우촌공원,서초구,방배동,37.47973889,126.9879756,서울특별시 서초구 방배동 
대형시민/도심공원,보라매공원,동작구,신대방동,37.4932038,126.9201291,서울특별시 동작구 신대방동 여의대방로20길
지역근린공원,대모산도시자연공원,강남구,일원동,37.47985037,127.0812189,서울특별시 강남구 일원동 
지역근린공원,신이어린이공원,양천구,신정동,37.51256827,126.837432,서울특별시 양천구 신정동 
지역근린공원,염주골어린이공원,강동구,명일동,37.54979817,127.1456623,서울특별시 강동구 명일동 양재대로138길
지역근린공원,은하수어린이공원,강동구,명일동,37.55051912,127.1544705,서울특별시 강동구 명일동 
지역근린공원,가로공원,동대문구,이문동,37.60453847,127.0676502,서울특별시 동대문구 이문동 
지역근린공원,황학어린이공원,중구,황학동,37.567636,127.0181198,서울특별시 중구 황학동 다산로48길
지역근린공원,새말소공원,영등포구,당산동4가,37.53149091,126.8976526,서울특별시 영등포구 당산동4가 
지역근린공원,전관원공원,성동구,행당동,37.55467446,127.0404901,서울특별시 성동구 행당동 살곶이길
지역근린공원,가중나무공원,광진구,화양동,37.54651868,127.0677033,서울특별시 광진구 화양동 동일로28길
지역근린공원,미나리공원,동대문구,장안동,37.56365607,127.0681703,서울특별시 동대문구 장안동 천호대로87길
지역근린공원,동명체육공원,강동구,고덕동,37.5616675,127.1651004,서울특별시 강동구 고덕동 아리수로78길
지역근린공원,개들공원,서초구,양재동,37.47404478,127.0409849,서울특별시 서초구 양재동 
지역근린공원,근린공원,양천구,목동,37.53860157,126.8645341,서울특별시 양천구 목동 목동중앙남로3가길
지역근린공원,늘푸른공원,동대문구,장안동,37.57619133,127.0716114,서울특별시 동대문구 장안동 
지역근린공원,논현개나리공원,강남구,논현동,37.51130334,127.0298542,서울특별시 강남구 논현동 논현로123길
지역근린공원,신화어린이공원,관악구,신림동,37.47673345,126.9356661,서울특별시 관악구 신림동 
지역근린공원,고추말공원,영등포구,도림동,37.51156614,126.9071002,서울특별시 영등포구 도림동 
지역근린공원,등서공원,강서구,등촌동,37.55915731,126.8546353,서울특별시 강서구 등촌동 화곡로68길
지역근린공원,이슬어린이공원,동대문구,장안동,37.56783708,127.0636366,서울특별시 동대문구 장안동 
지역근린공원,들샘공원,강서구,방화동,37.57609321,126.8186361,서울특별시 강서구 방화동 
지역근린공원,새숲어린이공원,관악구,신림동,37.48240626,126.9130449,서울특별시 관악구 신림동 
대형시민/도심공원,잠원한강공원,서초구,잠원동,37.523369,127.0139167,서울특별시 서초구 잠원동 잠원로
대형시민/도심공원,동대문역사문화공원,중구,을지로7가,37.56713726,127.0108816,서울특별시 중구 을지로7가 을지로
지역근린공원,거꾸로소공원,서대문구,북가좌동,37.58523794,126.9132605,서울특별시 서대문구 북가좌동 증가로32길
지역근린공원,광나루어린이공원,강동구,암사동,37.5501971,127.1253089,서울특별시 강동구 암사동 상암로
지역근린공원,삼전근린공원,송파구,삼전동,37.5023227,127.0926711,서울특별시 송파구 삼전동 백제고분로32길
지역근린공원,목3동소공원,양천구,목동,37.54422058,126.8648051,서울특별시 양천구 목동 
지역근린공원,송동어린이공원,서초구,우면동,37.46113229,127.0155595,서울특별시 서초구 우면동 
지역근린공원,코아어린이공원,서초구,잠원동,37.50902012,127.004046,서울특별시 서초구 잠원동 
지역근린공원,맨발공원,관악구,신림동,37.46668057,126.9443545,서울특별시 관악구 신림동 
지역근린공원,매봉산공원,용산구,한남동,37.54346423,127.0076747,서울특별시 용산구 한남동 
지역근린공원,태릉유아숲체험원,노원구,공릉동,37.64250843,127.0990888,서울특별시 노원구 공릉동 화랑로
지역근린공원,서울식물원열린숲정원,강서구,마곡동,37.56941299,126.8350372,서울특별시 강서구 마곡동 마곡동로
지역근린공원,계리공원,서초구,양재동,37.46310998,127.0349002,서울특별시 서초구 양재동 
지역근린공원,돌다리공원,양천구,신월동,37.5320635,126.8357596,서울특별시 양천구 신월동 곰달래로11길
지역근린공원,신사은행나무공원,강남구,신사동,37.52061508,127.0259996,서울특별시 강남구 신사동 
지역근린공원,용머리공원,동대문구,용두동,37.57276044,127.0366284,서울특별시 동대문구 용두동 
지역근린공원,들국화공원,노원구,중계동,37.64420983,127.0613759,서울특별시 노원구 중계동 
지역근린공원,백련근린공원,서대문구,홍은동,37.59618779,126.9340835,서울특별시 서대문구 홍은동 
지역근린공원,신내근린공원,중랑구,신내동,37.61406944,127.0891427,서울특별시 중랑구 신내동 
지역근린공원,햇님공원,중랑구,망우동,37.59356323,127.0951447,서울특별시 중랑구 망우동 봉우재로58길
지역근린공원,넘은들공원,양천구,신정동,37.51305663,126.8404437,서울특별시 양천구 신정동 
지역근린공원,포스동어린이공원,은평구,응암동,37.59805144,126.9193929,서울특별시 은평구 응암동 은평로8길
지역근린공원,불광공원,은평구,불광동,37.61861457,126.9297255,서울특별시 은평구 불광동 통일로78가길
지역근린공원,방잇골어린이공원,송파구,방이동,37.51341003,127.1103239,서울특별시 송파구 방이동 
지역근린공원,독산동마을공원,금천구,독산동,37.46389363,126.8994298,서울특별시 금천구 독산동 
지역근린공원,물빛문화공원,마포구,상암동,37.58011491,126.8931721,서울특별시 마포구 상암동 
지역근린공원,천사어린이공원,강서구,화곡동,37.54682838,126.8330647,서울특별시 강서구 화곡동 
지역근린공원,본동어린이공원,동작구,본동,37.51060623,126.9544066,서울특별시 동작구 본동 
지역근린공원,대현공원,서대문구,대현동,37.55767992,126.9454333,서울특별시 서대문구 대현동 
지역근린공원,샘터근린공원실내배드민턴장,강동구,고덕동,37.5620864,127.1576353,서울특별시 강동구 고덕동 동남로
지역근린공원,성원공원,성동구,성수동1가,37.55019612,127.0499031,서울특별시 성동구 성수동1가 상원10길
지역근린공원,효칭독립100년공원(2024년1월예정),용산구,효창동,37.53997839,126.9607602,서울특별시 용산구 효창동 백범로
지역근린공원,한아름어린이공원,양천구,신월동,37.51978573,126.846719,서울특별시 양천구 신월동 신월로24길
지역근린공원,송원근린공원,강동구,고덕동,37.55557738,127.1538355,서울특별시 강동구 고덕동 고덕로
지역근린공원,안골어린이공원,동대문구,장안동,37.56531938,127.0642564,서울특별시 동대문구 장안동 천호대로77다길
지역근린공원,배봉산근린공원,동대문구,전농동,37.57908102,127.0635567,서울특별시 동대문구 전농동 전농로16길
지역근린공원,대치은행나무공원,강남구,대치동,37.5018674,127.0516037,서울특별시 강남구 대치동 선릉로76길
지역근린공원,호돌이공원,강서구,화곡동,37.52831163,126.8460116,서울특별시 강서구 화곡동 
지역근린공원,참새공원,강서구,화곡동,37.53972904,126.8470818,서울특별시 강서구 화곡동 
대형시민/도심공원,월드컵공원하늘공원,마포구,상암동,37.56778393,126.8855424,서울특별시 마포구 상암동 하늘공원로
지역근린공원,햇님어린이공원,동작구,상도1동,37.5015977,126.9512688,서울특별시 동작구 상도1동 
지역근린공원,공릉가로공원,노원구,공릉동,37.61788613,127.0773381,서울특별시 노원구 공릉동 화랑로
대형시민/도심공원,월드컵공원난지천공원,마포구,상암동,37.57311606,126.8858305,서울특별시 마포구 상암동 월드컵로
지역근린공원,운산공원,강북구,미아동,37.63209663,127.0255686,서울특별시 강북구 미아동 도봉로72길
지역근린공원,활주로어린이공원,강서구,공항동,37.55435694,126.8160016,서울특별시 강서구 공항동 
지역근린공원,꿈나래근린공원,강동구,고덕동,37.5608933,127.1539004,서울특별시 강동구 고덕동 아리수로64길
지역근린공원,송죽소공원,서대문구,홍제동,37.58587457,126.9375946,서울특별시 서대문구 홍제동 
지역근린공원,수락산자연공원,노원구,상계동,37.67559327,127.0809918,서울특별시 노원구 상계동 덕릉로143길
지역근린공원,청송어린이공원,성동구,성수동2가,37.54549627,127.0585416,서울특별시 성동구 성수동2가 
지역근린공원,평화어린이공원,영등포구,여의도동,37.52114256,126.9385127,서울특별시 영등포구 여의도동 63로
지역근린공원,열매공원,중랑구,면목동,37.58868823,127.080973,서울특별시 중랑구 면목동 
지역근린공원,천상병공원,노원구,상계동,37.67436903,127.0592192,서울특별시 노원구 상계동 
지역근린공원,금나래중앙공원,금천구,독산동,37.45769407,126.8948706,서울특별시 금천구 독산동 시흥대로79길
지역근린공원,서낭당공원,강서구,등촌동,37.55886438,126.8499863,서울특별시 강서구 등촌동 공항대로43길
지역근린공원,광나루공원,강동구,암사동,37.55020363,127.1251227,서울특별시 강동구 암사동 상암로
지역근린공원,장수공원,송파구,장지동,37.48109308,127.1308201,서울특별시 송파구 장지동 충민로
지역근린공원,개롱공원,송파구,가락동,37.49366103,127.1307514,서울특별시 송파구 가락동 동남로
지역근린공원,두레근린공원,강동구,고덕동,37.55807798,127.1521093,서울특별시 강동구 고덕동 
지역근린공원,씨알공원,노원구,공릉동,37.62784256,127.0734396,서울특별시 노원구 공릉동 
지역근린공원,파리공원,양천구,목동,37.53446818,126.8771551,서울특별시 양천구 목동 목동동로
지역근린공원,햇살공원,중랑구,면목동,37.58988602,127.0832103,서울특별시 중랑구 면목동 
지역근린공원,고척근린공원,구로구,고척동,37.50502069,126.8522616,서울특별시 구로구 고척동 고척로45길
지역근린공원,사가정공원,중랑구,면목동,37.57990266,127.0949824,서울특별시 중랑구 면목동 
지역근린공원,세일공원,강북구,미아동,37.63354621,127.0252884,서울특별시 강북구 미아동 덕릉로30길
지역근린공원,궁동생태공원,구로구,궁동,37.50148664,126.8284633,서울특별시 구로구 궁동 
지역근린공원,일자산해맞이광장,강동구,둔촌동,37.53442099,127.1520117,서울특별시 강동구 둔촌동 
지역근린공원,은평문화예술공원,은평구,녹번동,37.60393944,126.928535,서울특별시 은평구 녹번동 은평로21길
지역근린공원,상도근린공원,동작구,상도동,37.49315402,126.9354013,서울특별시 동작구 상도동 
지역근린공원,남부어린이공원,양천구,신월동,37.53481966,126.8259977,서울특별시 양천구 신월동 가로공원로56길
지역근린공원,비석골근린공원,노원구,월계동,37.63088129,127.0486421,서울특별시 노원구 월계동 초안산로5길
지역근린공원,상도공원,관악구,봉천동,37.49237578,126.9399256,서울특별시 관악구 봉천동 
지역근린공원,구로구어린이교통공원,구로구,신도림동,37.50858526,126.874572,서울특별시 구로구 신도림동 
지역근린공원,보림어린이공원,동대문구,휘경동,37.59245997,127.0614151,서울특별시 동대문구 휘경동 휘경로12길
지역근린공원,연의체육공원,양천구,신정동,37.51407594,126.8335039,서울특별시 양천구 신정동 
지역근린공원,참새공원,금천구,독산동,37.4568873,126.8868502,서울특별시 금천구 독산동 한내로
지역근린공원,밤골공원,관악구,봉천동,37.47392086,126.9673769,서울특별시 관악구 봉천동 인헌3가길
지역근린공원,트리마제공원,성동구,성수동1가,37.53854789,127.0443903,서울특별시 성동구 성수동1가 왕십리로
지역근린공원,쉼터어린이공원,동대문구,답십리동,37.56485026,127.0595547,서울특별시 동대문구 답십리동 황물로17길
지역근린공원,우리어린이공원,송파구,가락동,37.49653169,127.1193073,서울특별시 송파구 가락동 양재대로62길
지역근린공원,봉림어린이공원,관악구,신림동,37.48272462,126.935651,서울특별시 관악구 신림동 
지역근린공원,무지개공원,강서구,가양동,37.56486232,126.8520128,서울특별시 강서구 가양동 양천로57길
대형시민/도심공원,평화의공원,마포구,상암동,37.56230778,126.8951,서울특별시 마포구 상암동 증산로
지역근린공원,안말어린이공원,강동구,성내동,37.53153543,127.1298824,서울특별시 강동구 성내동 풍성로45길
지역근린공원,살곶이체육공원,성동구,사근동,37.55486341,127.0500216,서울특별시 성동구 사근동 중랑천서자전거길
지역근린공원,길마공원,은평구,갈현동,37.61478668,126.9157769,서울특별시 은평구 갈현동 연서로21길
지역근린공원,뜸부기공원,강서구,화곡동,37.53014628,126.8568855,서울특별시 강서구 화곡동 
지역근린공원,원터공원,강동구,명일동,37.55326576,127.1505909,서울특별시 강동구 명일동 
지역근린공원,계남근린공원,양천구,신정동,37.50971849,126.8563262,서울특별시 양천구 신정동 중앙로17길
지역근린공원,무학봉근린공원,성동구,하왕십리동,37.56250461,127.0259087,서울특별시 성동구 하왕십리동 
지역근린공원,향림공원,성동구,성수동2가,37.54676852,127.0533631,서울특별시 성동구 성수동2가 
지역근린공원,청룡산주민텃밭공원,관악구,봉천동,37.47725409,126.9489203,서울특별시 관악구 봉천동 
지역근린공원,무궁화어린이공원,노원구,상계동,37.66552828,127.0694635,서울특별시 노원구 상계동 
지역근린공원,상명달어린이공원,서초구,서초동,37.48218779,127.0055597,서울특별시 서초구 서초동 
지역근린공원,신중어린이공원,서초구,서초동,37.48232892,127.0107286,서울특별시 서초구 서초동 
지역근린공원,종열어린이공원,서초구,양재동,37.47402204,127.0337274,서울특별시 서초구 양재동 
지역근린공원,늘푸른어린이공원,노원구,상계동,37.6807263,127.0564517,서울특별시 노원구 상계동 
지역근린공원,서남물재생센터공원,강서구,방화동,37.57620704,126.8207,서울특별시 강서구 방화동 
지역근린공원,청담목련공원,강남구,청담동,37.52298898,127.04982,서울특별시 강남구 청담동 
지역근린공원,방죽소공원,강남구,율현동,37.47253037,127.1065983,서울특별시 강남구 율현동 
지역근린공원,구둘공원,광진구,구의동,37.54815266,127.0920771,서울특별시 광진구 구의동 자양로42길
지역근린공원,천왕도시자연공원,구로구,항동,37.47903427,126.831426,서울특별시 구로구 항동 연동로12길
지역근린공원,쌈지공원,중구,신당동,37.54865113,127.0101634,서울특별시 중구 신당동 
지역근린공원,문화어린이공원,양천구,신월동,37.52117037,126.8427041,서울특별시 양천구 신월동 
지역근린공원,만남공원,서초구,반포동,37.502118,126.9848632,서울특별시 서초구 반포동 신반포로
지역근린공원,성내근린공원,강동구,성내동,37.52966247,127.1264643,서울특별시 강동구 성내동 성내로3가길
지역근린공원,학동공원,강남구,논현동,37.51535271,127.0250611,서울특별시 강남구 논현동 강남대로140길
지역근린공원,양마장공원,광진구,자양동,37.53088933,127.0885822,서울특별시 광진구 자양동 
지역근린공원,논현은행나무공원,강남구,논현동,37.51263666,127.0223144,서울특별시 강남구 논현동 
지역근린공원,노을공원,강서구,화곡동,37.53990642,126.8439098,서울특별시 강서구 화곡동 
지역근린공원,한울근린공원,양천구,신월동,37.52001851,126.8326542,서울특별시 양천구 신월동 지양로7길
지역근린공원,응봉공원,성동구,금호동1가,37.55695416,127.0215886,서울특별시 성동구 금호동1가 난계로
대형시민/도심공원,광화문광장,종로구,세종로,37.57264849,126.9768917,서울특별시 종로구 세종로 세종대로
지역근린공원,금천폭포공원,금천구,시흥동,37.44670823,126.9041731,서울특별시 금천구 시흥동 시흥대로38길
지역근린공원,불광어린이공원,은평구,불광동,37.61640012,126.9314535,서울특별시 은평구 불광동 
지역근린공원,송파워터웨이,송파구,마천동,37.50111847,127.1475783,서울특별시 송파구 마천동 
지역근린공원,살구골공원,성동구,행당동,37.55448474,127.0313449,서울특별시 성동구 행당동 고산자로
지역근린공원,동부공원,성동구,성수동1가,37.54533094,127.0476287,서울특별시 성동구 성수동1가 왕십리로6길
지역근린공원,구파발만남의광장,은평구,진관동,37.63711238,126.9195361,서울특별시 은평구 진관동 
지역근린공원,의주로공원,중구,의주로1가,37.56387703,126.9686756,서울특별시 중구 의주로1가 
지역근린공원,신길광장공원,영등포구,신길동,37.49995977,126.9060243,서울특별시 영등포구 신길동 
지역근린공원,늘푸른공원,강남구,일원동,37.48994991,127.077431,서울특별시 강남구 일원동 일원로8길
지역근린공원,태양어린이공원,양천구,신월동,37.52439197,126.8386052,서울특별시 양천구 신월동 오목로3길
지역근린공원,역삼소나무공원,강남구,역삼동,37.49095181,127.0336228,서울특별시 강남구 역삼동 
지역근린공원,백합어린이공원,노원구,중계동,37.64837924,127.0695757,서울특별시 노원구 중계동 
지역근린공원,샘터공원,강동구,고덕동,37.56192506,127.1582244,서울특별시 강동구 고덕동 동남로
지역근린공원,솔뫼공원,강서구,화곡동,37.53789809,126.8384739,서울특별시 강서구 화곡동 가로공원로77길
지역근린공원,이삭어린이공원,동대문구,전농동,37.57880843,127.0495147,서울특별시 동대문구 전농동 
지역근린공원,잠원근린공원,서초구,잠원동,37.52033872,127.0154042,서울특별시 서초구 잠원동 
지역근린공원,동산어린이공원,서초구,양재동,37.47118556,127.0452039,서울특별시 서초구 양재동 동산로12길
지역근린공원,도봉산만남의광장,도봉구,도봉동,37.68711814,127.0392322,서울특별시 도봉구 도봉동 도봉산길
지역근린공원,소월길공원,용산구,이태원동,37.54356486,126.9893692,서울특별시 용산구 이태원동 
지역근린공원,염곡어린이공원,서초구,염곡동,37.4631517,127.0543839,서울특별시 서초구 염곡동 
지역근린공원,새마을공원,종로구,평창동,37.60644952,126.9646779,서울특별시 종로구 평창동 평창길
지역근린공원,남부공원,관악구,신림동,37.48480916,126.9206909,서울특별시 관악구 신림동 남부순환로163가길
지역근린공원,목동마을공원,양천구,목동,37.53054298,126.8647667,서울특별시 양천구 목동 
지역근린공원,모래내공원,관악구,봉천동,37.47786248,126.9555847,서울특별시 관악구 봉천동 관악로12길
지역근린공원,근린공원,강북구,번동,37.63191911,127.0320557,서울특별시 강북구 번동 
지역근린공원,금호공원,성동구,금호동3가,37.54962428,127.0189677,서울특별시 성동구 금호동3가 장터1길
지역근린공원,청룡어린이공원,서초구,반포동,37.49585026,126.9996776,서울특별시 서초구 반포동 
지역근린공원,동산공원,금천구,독산동,37.47275514,126.905936,서울특별시 금천구 독산동 독산로54길
지역근린공원,무지개공원,강서구,화곡동,37.53397048,126.8612477,서울특별시 강서구 화곡동 
지역근린공원,시민체육공원,성북구,정릉동,37.61869571,127.0058063,서울특별시 성북구 정릉동 보국문로30길
지역근린공원,섬들공원,중랑구,면목동,37.59153378,127.0925316,서울특별시 중랑구 면목동 
지역근린공원,한무리공원,노원구,공릉동,37.63057777,127.0735388,서울특별시 노원구 공릉동 공릉로
지역근린공원,너른들공원,서초구,방배동,37.48741979,126.9949185,서울특별시 서초구 방배동 서초대로
지역근린공원,원터가로공원,강동구,상일동,37.54688564,127.156311,서울특별시 강동구 상일동 
지역근린공원,내촌어린이공원,강서구,개화동,37.57762501,126.8013936,서울특별시 강서구 개화동 
지역근린공원,계리어린이공원,서초구,양재동,37.469635,127.040487,서울특별시 서초구 양재동 
지역근린공원,쑥고개어린이공원,관악구,신림동,37.47590381,126.9409494,서울특별시 관악구 신림동 
지역근린공원,앞산어린이공원,양천구,신정동,37.52643269,126.8583045,서울특별시 양천구 신정동 중앙로52길
지역근린공원,장미어린이공원,동작구,상도동,37.49364796,126.9360975,서울특별시 동작구 상도동 
지역근린공원,천사어린이공원,강동구,천호동,37.54402299,127.1284711,서울특별시 강동구 천호동 천중로12길
지역근린공원,비석어린이공원,서초구,양재동,37.47872927,127.041036,서울특별시 서초구 양재동 
지역근린공원,나들목공원,관악구,신림동,37.46915211,126.9444889,서울특별시 관악구 신림동 
지역근린공원,성북우정의공원,성북구,성북동,37.59485253,126.9906715,서울특별시 성북구 성북동 
지역근린공원,서울갤러리파크,노원구,중계동,37.640137,127.067173,서울특별시 노원구 중계동 동일로
지역근린공원,선린공원,강동구,성내동,37.52851477,127.1327283,서울특별시 강동구 성내동 양재대로91길
지역근린공원,상록공원,관악구,남현동,37.47290646,126.9805556,서울특별시 관악구 남현동 승방3나길
대형시민/도심공원,청계산자연공원,서초구,원지동,37.45482634,127.04322,서울특별시 서초구 원지동 양재대로12길
지역근린공원,무궁화어린이공원,금천구,독산동,37.46437994,126.9043507,서울특별시 금천구 독산동 
지역근린공원,새싹어린이공원,강북구,수유동,37.63614793,127.0195893,서울특별시 강북구 수유동 
지역근린공원,능골어린이공원,송파구,가락동,37.4931364,127.1329964,서울특별시 송파구 가락동 동남로14길
지역근린공원,한마음공원,광진구,중곡동,37.55961234,127.0839841,서울특별시 광진구 중곡동 
지역근린공원,개나리공원,광진구,구의동,37.53805327,127.0923151,서울특별시 광진구 구의동 
지역근린공원,참새어린이공원,동작구,대방동,37.49807903,126.9219641,서울특별시 동작구 대방동 여의대방로24길
지역근린공원,채송화공원,노원구,상계동,37.65168857,127.0570558,서울특별시 노원구 상계동 동일로215길
지역근린공원,역삼개나리공원,강남구,역삼동,37.49765607,127.0359899,서울특별시 강남구 역삼동 논현로79길
지역근린공원,광진어린이공원,강동구,천호동,37.54315897,127.1226518,서울특별시 강동구 천호동 구천면로13길
지역근린공원,봉산공원,은평구,역촌동,37.60389964,126.9023564,서울특별시 은평구 역촌동 갈현로7길
지역근린공원,가온문화공원,마포구,상암동,37.58207962,126.8874939,서울특별시 마포구 상암동 
지역근린공원,개나리공원,성동구,응봉동,37.54853501,127.0320255,서울특별시 성동구 응봉동 
지역근린공원,세운초록띠공원,종로구,장사동,37.5699875,126.9951013,서울특별시 종로구 장사동 
지역근린공원,수명산근린공원,강서구,내발산동,37.55042758,126.8271787,서울특별시 강서구 내발산동 강서로45길
지역근린공원,신곡어린이공원,양천구,신월동,37.52619443,126.8450483,서울특별시 양천구 신월동 오목로13길
지역근린공원,필마공원,강서구,화곡동,37.53147792,126.8387675,서울특별시 강서구 화곡동 
지역근린공원,벽오산어린이공원,강북구,미아동,37.62776486,127.0302245,서울특별시 강북구 미아동 
지역근린공원,참새공원,구로구,개봉동,37.50525352,126.8443079,서울특별시 구로구 개봉동 고척로21라길
지역근린공원,보금자리정원,강남구,세곡동,37.4669028,127.0966301,서울특별시 강남구 세곡동 
지역근린공원,도담어린이공원,강남구,세곡동,37.46724868,127.0986248,서울특별시 강남구 세곡동 
지역근린공원,예촌공원,관악구,남현동,37.47453441,126.9768782,서울특별시 관악구 남현동 남현길
지역근린공원,영등포근린공원,영등포구,영등포동,37.51557901,126.9122681,서울특별시 영등포구 영등포동 신길로
지역근린공원,돌곶이공원,성북구,석관동,37.60884358,127.0579248,서울특별시 성북구 석관동 
지역근린공원,수경공원,관악구,남현동,37.47629807,126.9807733,서울특별시 관악구 남현동 
지역근린공원,반석어린이공원,도봉구,창동,37.6470196,127.0410796,서울특별시 도봉구 창동 
지역근린공원,어린이대공원환경공원,광진구,능동,37.55193724,127.0814338,서울특별시 광진구 능동 능동로
지역근린공원,선농단공원,동대문구,제기동,37.58123293,127.0320833,서울특별시 동대문구 제기동 무학로44길
지역근린공원,신흥공원,금천구,시흥동,37.45986144,126.9077611,서울특별시 금천구 시흥동 
지역근린공원,골마을근린공원,노원구,하계동,37.63863249,127.0741589,서울특별시 노원구 하계동 한글비석로
지역근린공원,은행나무공원,강남구,청담동,37.52515438,127.0440605,서울특별시 강남구 청담동 도산대로67길
지역근린공원,한양광장,성동구,행당동,37.55815176,127.0398134,서울특별시 성동구 행당동 
지역근린공원,롯데몰김포공항점스카이파크,강서구,방화동,37.56427988,126.8045065,서울특별시 강서구 방화동 하늘길
지역근린공원,도선마을공원,성동구,홍익동,37.56548758,127.0314746,서울특별시 성동구 홍익동 무학로8길
지역근린공원,서강나루공원,마포구,창전동,37.54524981,126.9310191,서울특별시 마포구 창전동 
지역근린공원,하마터어린이공원,강서구,화곡동,37.52998227,126.8536563,서울특별시 강서구 화곡동 곰달래로36길
지역근린공원,강남그린웨이,강남구,개포동,37.48255922,127.04953,서울특별시 강남구 개포동 논현로22길
지역근린공원,초안산근린공원,도봉구,창동,37.64817007,127.0405714,서울특별시 도봉구 창동 
지역근린공원,송정공원,성동구,송정동,37.55519172,127.0703837,서울특별시 성동구 송정동 동일로
지역근린공원,부장천공원,금천구,시흥동,37.45266803,126.9044062,서울특별시 금천구 시흥동 금하로
지역근린공원,우장공원,강서구,화곡동,37.55274648,126.8438055,서울특별시 강서구 화곡동 우장산로
지역근린공원,역말어린이공원,은평구,역촌동,37.60691666,126.9142523,서울특별시 은평구 역촌동 갈현로14길
지역근린공원,옹기골공원,강서구,방화동,37.57356147,126.8216937,서울특별시 강서구 방화동 양천로
지역근린공원,동래성씨공원,동작구,사당동,37.48627763,126.9657073,서울특별시 동작구 사당동 
지역근린공원,도곡공원,강남구,도곡동,37.48521999,127.0469246,서울특별시 강남구 도곡동 남부순환로378길
지역근린공원,신오어린이공원,양천구,신월동,37.53822236,126.8315844,서울특별시 양천구 신월동 남부순환로33길
지역근린공원,어린이공원,강남구,신사동,37.52288303,127.0257212,서울특별시 강남구 신사동 
지역근린공원,당현천근린공원,노원구,상계동,37.64775751,127.0636915,서울특별시 노원구 상계동 동일로
지역근린공원,동묘공원,종로구,숭인동,37.57314011,127.0182605,서울특별시 종로구 숭인동 난계로27길
지역근린공원,원지어린이상상공원,영등포구,대림동,37.4980526,126.8995163,서울특별시 영등포구 대림동 도림로53길
지역근린공원,세종로공원,종로구,세종로,37.57362698,126.9759552,서울특별시 종로구 세종로 세종대로
대형시민/도심공원,사직공원,종로구,사직동,37.57580528,126.9676201,서울특별시 종로구 사직동 사직로
지역근린공원,말죽거리공원,서초구,양재동,37.47714641,127.0324894,서울특별시 서초구 양재동 
지역근린공원,반달근린공원,강남구,삼성동,37.51626226,127.0428778,서울특별시 강남구 삼성동 
지역근린공원,삼양마을공원,강북구,미아동,37.62276008,127.018397,서울특별시 강북구 미아동 삼양로47길
지역근린공원,서마장어린이공원,성동구,마장동,37.5716903,127.0373246,서울특별시 성동구 마장동 
지역근린공원,한빛어린이공원,강북구,미아동,37.62775934,127.0228735,서울특별시 강북구 미아동 솔매로41길
지역근린공원,구민공원,성동구,행당동,37.55900256,127.0362486,서울특별시 성동구 행당동 
지역근린공원,묵동수림공원,중랑구,묵동,37.61518147,127.0730808,서울특별시 중랑구 묵동 
지역근린공원,상원공원,성동구,성수동1가,37.54753301,127.0483982,서울특별시 성동구 성수동1가 상원길
지역근린공원,금동공원,성동구,금호동2가,37.54935666,127.025604,서울특별시 성동구 금호동2가 무수막길
지역근린공원,쌍룡산어린이공원,마포구,아현동,37.55217266,126.9505161,서울특별시 마포구 아현동 
지역근린공원,개포까치공원,강남구,개포동,37.4838026,127.0611344,서울특별시 강남구 개포동 선릉로12길
지역근린공원,참다래공원,은평구,응암동,37.59539067,126.9173424,서울특별시 은평구 응암동 응암로25길
지역근린공원,중마루공원,영등포구,영등포동2가,37.51989174,126.9111536,서울특별시 영등포구 영등포동2가 영등포로53길
지역근린공원,하계어린이공원,노원구,하계동,37.63223149,127.0690833,서울특별시 노원구 하계동 
지역근린공원,달빛어린이공원,노원구,상계동,37.66318616,127.0597435,서울특별시 노원구 상계동 노원로
지역근린공원,쌍문그린공원,도봉구,쌍문동,37.65361347,127.0296051,서울특별시 도봉구 쌍문동 
지역근린공원,꽃사슴공원,노원구,상계동,37.67255859,127.0846672,서울특별시 노원구 상계동 
지역근린공원,체육공원,강동구,명일동,37.55339358,127.1470471,서울특별시 강동구 명일동 고덕로
지역근린공원,꿈나무공원,강서구,방화동,37.57525972,126.8189451,서울특별시 강서구 방화동 방화대로48길
지역근린공원,금암문화공원,은평구,진관동,37.64432984,126.9179689,서울특별시 은평구 진관동 
지역근린공원,근린공원,구로구,온수동,37.49802873,126.8215758,서울특별시 구로구 온수동 
지역근린공원,역삼장미공원,강남구,역삼동,37.49527754,127.0447409,서울특별시 강남구 역삼동 
지역근린공원,샛별어린이공원,동대문구,장안동,37.56796683,127.0673712,서울특별시 동대문구 장안동 장한로17길
지역근린공원,양재천근린공원,서초구,양재동,37.47434608,127.0377881,서울특별시 서초구 양재동 
지역근린공원,암사둔치생태공원,강동구,암사동,37.55435829,127.1219442,서울특별시 강동구 암사동 
지역근린공원,옥정공원,성동구,옥수동,37.54583301,127.015351,서울특별시 성동구 옥수동 매봉길
지역근린공원,샘물공원,강동구,명일동,37.55106259,127.1447929,서울특별시 강동구 명일동 양재대로
지역근린공원,백설공원,관악구,봉천동,37.47627616,126.9535099,서울특별시 관악구 봉천동 관악로6길
지역근린공원,청계꿈나무공원,성동구,하왕십리동,37.56742237,127.0278891,서울특별시 성동구 하왕십리동 마장로
지역근린공원,남현예술정원,관악구,남현동,37.47633561,126.9804957,서울특별시 관악구 남현동 
지역근린공원,장안근린공원,동대문구,장안동,37.57762943,127.0713368,서울특별시 동대문구 장안동 장한로
지역근린공원,개화산공원,강서구,개화동,37.58196232,126.8053763,서울특별시 강서구 개화동 
지역근린공원,오목공원,양천구,목동,37.52799839,126.8732698,서울특별시 양천구 목동 목동서로
지역근린공원,기린어린이공원,노원구,상계동,37.65196706,127.0592398,서울특별시 노원구 상계동 동일로215길
지역근린공원,금모래공원,광진구,자양동,37.53011312,127.0824024,서울특별시 광진구 자양동 뚝섬로56길
지역근린공원,사랑공원,중랑구,면목동,37.5856307,127.0818675,서울특별시 중랑구 면목동 
지역근린공원,일원장미공원,강남구,일원동,37.48078499,127.0807096,서울특별시 강남구 일원동 광평로10길
지역근린공원,동심어린이공원,영등포구,대림동,37.49843208,126.897342,서울특별시 영등포구 대림동 대림로35길
지역근린공원,성산2체육공원,마포구,성산동,37.56650774,126.9057775,서울특별시 마포구 성산동 
지역근린공원,반포근린공원,서초구,반포동,37.49876479,126.9911479,서울특별시 서초구 반포동 사평대로
지역근린공원,마포어린이공원,마포구,마포동,37.53561366,126.9437487,서울특별시 마포구 마포동 
지역근린공원,고분다리공원,강동구,천호동,37.54550489,127.1317462,서울특별시 강동구 천호동 구천면로39길
지역근린공원,달터근린공원,강남구,개포동,37.47769536,127.0523242,서울특별시 강남구 개포동 개포로28길
지역근린공원,동명근린공원,강동구,고덕동,37.55978296,127.1674942,서울특별시 강동구 고덕동 고덕로83길
지역근린공원,백합어린이공원,강서구,등촌동,37.55922606,126.8449593,서울특별시 강서구 등촌동 
지역근린공원,성삼어린이공원,성동구,성수동2가,37.54202096,127.0601457,서울특별시 성동구 성수동2가 성수이로18길
지역근린공원,원당어린이공원,관악구,봉천동,37.47473617,126.9637367,서울특별시 관악구 봉천동 
지역근린공원,포수동어린이공원,은평구,응암동,37.59810064,126.9195,서울특별시 은평구 응암동 은평로8길
지역근린공원,하왕15구역공원,성동구,하왕십리동,37.56007542,127.0241245,서울특별시 성동구 하왕십리동 무학봉길
지역근린공원,상일공원,강동구,상일동,37.54699594,127.1673811,서울특별시 강동구 상일동 상암로79가길
지역근린공원,당말공원,강동구,천호동,37.53912767,127.133269,서울특별시 강동구 천호동 진황도로29길
지역근린공원,현충공원,동작구,사당동,37.4853871,126.9757292,서울특별시 동작구 사당동 사당로23길
지역근린공원,무학봉공원,중구,신당동,37.5622338,127.0245747,서울특별시 중구 신당동 난계로6길
지역근린공원,우장산공원,강서구,내발산동,37.55417543,126.8454875,서울특별시 강서구 내발산동 공항대로42길
지역근린공원,용답휴식공원,성동구,용답동,37.56976571,127.0477845,서울특별시 성동구 용답동 
지역근린공원,아동어린이공원,양천구,신월동,37.52307216,126.8335126,서울특별시 양천구 신월동 지양로10길
지역근린공원,군자공원,광진구,군자동,37.55436153,127.0729041,서울특별시 광진구 군자동 동일로52길
지역근린공원,능골공원,강서구,화곡동,37.53667329,126.8552167,서울특별시 강서구 화곡동 
지역근린공원,샘터공원,중랑구,면목동,37.57312597,127.0832558,서울특별시 중랑구 면목동 면목로23길
지역근린공원,천마근린공원,송파구,마천동,37.50096958,127.1587898,서울특별시 송파구 마천동 성내천로35길
지역근린공원,상봉공원,중랑구,상봉동,37.59316674,127.0823196,서울특별시 중랑구 상봉동 동일로112길
지역근린공원,구름공원,강서구,화곡동,37.54334921,126.843992,서울특별시 강서구 화곡동 초록마을로4길
지역근린공원,방화근린공원,강서구,방화동,37.58184276,126.8130247,서울특별시 강서구 방화동 금낭화로
지역근린공원,역삼까치공원,강남구,역삼동,37.49726326,127.0307657,서울특별시 강남구 역삼동 
지역근린공원,한마음공원,마포구,망원동,37.5545618,126.9079899,서울특별시 마포구 망원동 월드컵로15길
대형시민/도심공원,반포한강공원,서초구,잠원동,37.51173186,126.9986669,서울특별시 서초구 잠원동 
지역근린공원,태양근린공원,송파구,풍납동,37.52502014,127.1152966,서울특별시 송파구 풍납동 
지역근린공원,보등골어린이공원,강북구,수유동,37.6350664,127.0183704,서울특별시 강북구 수유동 
지역근린공원,우이동만남의광장,강북구,우이동,37.66189788,127.007733,서울특별시 강북구 우이동 
대형시민/도심공원,한강드론공원,강동구,천호동,37.54783124,127.1193123,서울특별시 강동구 천호동 
지역근린공원,까치어린이공원,관악구,봉천동,37.47989759,126.9594357,서울특별시 관악구 봉천동 행운4길
지역근린공원,국지어린이공원,관악구,봉천동,37.48988468,126.940492,서울특별시 관악구 봉천동 국회단지19길
지역근린공원,안골공원,강서구,화곡동,37.53579223,126.8508411,서울특별시 강서구 화곡동 강서로18아길
지역근린공원,코끼리공원,강서구,등촌동,37.56320097,126.8487531,서울특별시 강서구 등촌동 
지역근린공원,명일제1공원,강동구,명일동,37.54550101,127.1448401,서울특별시 강동구 명일동 
지역근린공원,모세미공원,양천구,목동,37.53526942,126.8685567,서울특별시 양천구 목동 
지역근린공원,묵동공원,중랑구,묵동,37.61783647,127.0835236,서울특별시 중랑구 묵동 
지역근린공원,중평공원,노원구,하계동,37.63703046,127.0633365,서울특별시 노원구 하계동 
지역근린공원,송파근린공원,송파구,송파동,37.50638329,127.1099938,서울특별시 송파구 송파동 송파대로42길
지역근린공원,늘봄어린이공원,동대문구,장안동,37.57140194,127.0723876,서울특별시 동대문구 장안동 장한로26나길
지역근린공원,꿈나무어린이공원,송파구,오금동,37.50321857,127.1410876,서울특별시 송파구 오금동 
지역근린공원,근린공원,송파구,풍납동,37.53865947,127.1214882,서울특별시 송파구 풍납동 
지역근린공원,근린공원,성북구,보문동7가,37.57987123,127.0231092,서울특별시 성북구 보문동7가 안암로3길
지역근린공원,마장어린이공원,성동구,마장동,37.56216298,127.0413986,서울특별시 성동구 마장동 
지역근린공원,삼성산시민휴식공원,금천구,시흥동,37.45487168,126.909903,서울특별시 금천구 시흥동 
지역근린공원,식유촌어린이공원,서초구,우면동,37.45819876,127.0136197,서울특별시 서초구 우면동 
지역근린공원,은곡마을공원,강남구,세곡동,37.468034,127.1004468,서울특별시 강남구 세곡동 
지역근린공원,석계역문화공원,노원구,월계동,37.61522742,127.0640531,서울특별시 노원구 월계동 화랑로
지역근린공원,삭새어린이공원,구로구,궁동,37.49616129,126.8255393,서울특별시 구로구 궁동 오리로21길
지역근린공원,효자어린이공원,서초구,우면동,37.47336791,127.0243183,서울특별시 서초구 우면동 바우뫼로7길
지역근린공원,청파어린이공원,용산구,서계동,37.55354838,126.9683123,서울특별시 용산구 서계동 
지역근린공원,동마장공원,성동구,마장동,37.56622846,127.0456954,서울특별시 성동구 마장동 마장로42길
지역근린공원,석관동주민휴식쉼터,성북구,석관동,37.60753144,127.0610256,서울특별시 성북구 석관동 돌곶이로10길
지역근린공원,한수공원,서초구,반포동,37.50337689,126.9830188,서울특별시 서초구 반포동 신반포로
지역근린공원,근린공원,서대문구,홍제동,37.59707641,126.947742,서울특별시 서대문구 홍제동 간호대로4길
지역근린공원,은행공원,강서구,화곡동,37.53581709,126.8405241,서울특별시 강서구 화곡동 
지역근린공원,성산1공원,마포구,성산동,37.56203874,126.9096132,서울특별시 마포구 성산동 
지역근린공원,암산어린이공원,서초구,우면동,37.47332594,127.0257374,서울특별시 서초구 우면동 
지역근린공원,삼밭어린이공원,송파구,삼전동,37.49948268,127.092877,서울특별시 송파구 삼전동 
지역근린공원,동산어린이공원,강동구,천호동,37.54706709,127.1296347,서울특별시 강동구 천호동 
지역근린공원,오솔길근린공원,양천구,신월동,37.52113052,126.8367207,서울특별시 양천구 신월동 남부순환로72길
지역근린공원,솔밭공원,강북구,우이동,37.6530129,127.0118552,서울특별시 강북구 우이동 삼양로
대형시민/도심공원,여의도공원,영등포구,여의도동,37.52593033,126.9221191,서울특별시 영등포구 여의도동 여의공원로
지역근린공원,방배근린공원,서초구,방배동,37.47882326,126.9954696,서울특별시 서초구 방배동 
지역근린공원,국화원공원,동작구,상도동,37.50450666,126.943927,서울특별시 동작구 상도동 상도로30길
지역근린공원,약수암공원,관악구,신림동,37.45957942,126.9329777,서울특별시 관악구 신림동 약수암길
지역근린공원,응삼공원,성동구,응봉동,37.55467719,127.0358202,서울특별시 성동구 응봉동 고산자로
지역근린공원,색동공원,관악구,신림동,37.48657387,126.9325661,서울특별시 관악구 신림동 신림로70길
지역근린공원,분토골공원,서초구,서초동,37.48834836,127.0174063,서울특별시 서초구 서초동 
지역근린공원,목련공원,강남구,일원동,37.49143944,127.0855068,서울특별시 강남구 일원동 
지역근린공원,근린공원,양천구,신월동,37.5386878,126.8283095,서울특별시 양천구 신월동 
지역근린공원,광화문시민열린마당,종로구,세종로,37.57497553,126.9780419,서울특별시 종로구 세종로 종로1길
지역근린공원,난우어린이공원,관악구,신림동,37.46648551,126.9217517,서울특별시 관악구 신림동 난곡로16길
지역근린공원,연화공원,송파구,문정동,37.48511224,127.1287123,서울특별시 송파구 문정동 새말로15길
지역근린공원,서리풀공원,서초구,서초동,37.48933663,127.0008161,서울특별시 서초구 서초동 
지역근린공원,갈원어린이공원,노원구,상계동,37.67007717,127.0832233,서울특별시 노원구 상계동 덕릉로126가길
지역근린공원,근린공원,용산구,이촌동,37.53061059,126.9535105,서울특별시 용산구 이촌동 
지역근린공원,근린공원,송파구,문정동,37.4894192,127.1103425,서울특별시 송파구 문정동 중대로4길
지역근린공원,논현목련공원,강남구,논현동,37.51087226,127.0267051,서울특별시 강남구 논현동 
지역근린공원,새마을어린이공원,송파구,잠실동,37.50822609,127.0866325,서울특별시 송파구 잠실동 석촌호수로12길
지역근린공원,수서목련공원,강남구,수서동,37.49054076,127.1037852,서울특별시 강남구 수서동 
지역근린공원,연의근린공원,양천구,신정동,37.51230091,126.8345091,서울특별시 양천구 신정동 신정이펜1로
지역근린공원,문래소공원,영등포구,문래동6가,37.519794,126.886879,서울특별시 영등포구 문래동6가 
지역근린공원,성수공원,성동구,성수동2가,37.54471134,127.0519043,서울특별시 성동구 성수동2가 연무장3길
지역근린공원,산창어린이공원,양천구,신월동,37.52422994,126.8427594,서울특별시 양천구 신월동 오목로9길
지역근린공원,근린공원,강동구,성내동,37.52702081,127.127046,서울특별시 강동구 성내동 
지역근린공원,누에머리공원,송파구,오금동,37.50298023,127.1423598,서울특별시 송파구 오금동 동남로30길
지역근린공원,새말공원,서초구,방배동,37.4933327,126.9885271,서울특별시 서초구 방배동 
지역근린공원,은행나무공원,강남구,압구정동,37.53065164,127.0313232,서울특별시 강남구 압구정동 
지역근린공원,대무어린이공원,강서구,화곡동,37.53814966,126.8475796,서울특별시 강서구 화곡동 초록마을로32길
지역근린공원,영등포공원,영등포구,영등포동,37.51542854,126.9107434,서울특별시 영등포구 영등포동 신길로
지역근린공원,한강수변공원,성동구,옥수동,37.54137287,127.0312529,서울특별시 성동구 옥수동 
지역근린공원,햇빛어린이공원,노원구,상계동,37.66659274,127.0601994,서울특별시 노원구 상계동 
지역근린공원,사육신공원,동작구,노량진동,37.51378007,126.9489688,서울특별시 동작구 노량진동 노량진로
지역근린공원,생태공원,은평구,진관동,37.64410456,126.9294951,서울특별시 은평구 진관동 
지역근린공원,개포은행나무공원,강남구,개포동,37.47618292,127.0490416,서울특별시 강남구 개포동 개포로20길
지역근린공원,정원소공원,서대문구,홍은동,37.58646597,126.9323666,서울특별시 서대문구 홍은동 
지역근린공원,강서IT밸리광장,강서구,등촌동,37.55748833,126.8586789,서울특별시 강서구 등촌동 화곡로68길
지역근린공원,봉우재마을마당,중랑구,중화동,37.60246077,127.0816773,서울특별시 중랑구 중화동 
지역근린공원,상암문화광장,마포구,상암동,37.58039446,126.8911497,서울특별시 마포구 상암동 성암로
지역근린공원,낙성대야외놀이마당공원,관악구,봉천동,37.47363518,126.9595858,서울특별시 관악구 봉천동 
지역근린공원,신월1동공원,양천구,신월동,37.530633,126.833173,서울특별시 양천구 신월동 곰달래로3길
지역근린공원,열림공원,성동구,성수동2가,37.53962286,127.0567563,서울특별시 성동구 성수동2가 성수이로12길
지역근린공원,성내공원,강동구,성내동,37.52945179,127.1265399,서울특별시 강동구 성내동 성내로3가길
지역근린공원,자매근린공원,영등포구,여의도동,37.51754537,126.9301775,서울특별시 영등포구 여의도동 여의대방로
지역근린공원,묵정공원,중구,충무로5가,37.56379812,126.9997799,서울특별시 중구 충무로5가 퇴계로45길
지역근린공원,양산공원,관악구,신림동,37.47371416,126.932559,서울특별시 관악구 신림동 
지역근린공원,까치공원,중랑구,면목동,37.58341238,127.0873206,서울특별시 중랑구 면목동 사가정로49길
지역근린공원,새말어린이공원,강서구,화곡동,37.55193232,126.8462962,서울특별시 강서구 화곡동 화곡로53길
지역근린공원,금성윗들공원,도봉구,방학동,37.66764582,127.044725,서울특별시 도봉구 방학동 도봉로150마길
지역근린공원,대치목련공원,강남구,대치동,37.49979208,127.0583671,서울특별시 강남구 대치동 도곡로77길
지역근린공원,물빛공원,은평구,갈현동,37.6190038,126.9207208,서울특별시 은평구 갈현동 연서로
지역근린공원,배수지체육공원,서초구,방배동,37.47261301,126.9933504,서울특별시 서초구 방배동 남부순환로296길
지역근린공원,선녀어린이공원,노원구,상계동,37.64664739,127.0585931,서울특별시 노원구 상계동 
지역근린공원,무지개공원,도봉구,도봉동,37.68566084,127.0450058,서울특별시 도봉구 도봉동 
지역근린공원,달마을공원,양천구,목동,37.54334698,126.8680266,서울특별시 양천구 목동 목동중앙본로
지역근린공원,다솔공원,강서구,공항동,37.55456478,126.8183687,서울특별시 강서구 공항동 
지역근린공원,경희궁공원,종로구,신문로2가,37.57054673,126.9690792,서울특별시 종로구 신문로2가 새문안로
지역근린공원,대치근린공원,강남구,대치동,37.49509792,127.0698818,서울특별시 강남구 대치동 
지역근린공원,화곡배수지체육공원,강서구,화곡동,37.54179266,126.8553312,서울특별시 강서구 화곡동 초록마을로15길
지역근린공원,새록어린이공원,은평구,녹번동,37.60405582,126.9236445,서울특별시 은평구 녹번동 은평로13길
지역근린공원,오봉산어린이공원,송파구,석촌동,37.50625564,127.102578,서울특별시 송파구 석촌동 석촌호수로20길
지역근린공원,잔디어린이공원,서초구,양재동,37.4663868,127.0355888,서울특별시 서초구 양재동 매헌로6길
지역근린공원,정문어린이공원,서초구,방배동,37.48107392,126.9996143,서울특별시 서초구 방배동 
지역근린공원,송파구자원순환공원,송파구,장지동,37.47170368,127.1243098,서울특별시 송파구 장지동 헌릉로
지역근린공원,노고산동체육공원,마포구,대흥동,37.55373011,126.9424627,서울특별시 마포구 대흥동 백범로
지역근린공원,발바닥공원,도봉구,방학동,37.65964827,127.0316918,서울특별시 도봉구 방학동 시루봉로6길
지역근린공원,마장공원,성동구,마장동,37.56233463,127.0415003,서울특별시 성동구 마장동 마조로
지역근린공원,새빛공원,관악구,신림동,37.48634696,126.9151644,서울특별시 관악구 신림동 신사로10길
지역근린공원,묘랫재공원,서대문구,홍제동,37.58298106,126.9446327,서울특별시 서대문구 홍제동 
지역근린공원,근린공원,양천구,신정동,37.5241629,126.8577705,서울특별시 양천구 신정동 
지역근린공원,아름공원,강서구,가양동,37.56870372,126.8486826,서울특별시 강서구 가양동 허준로
지역근린공원,미리내공원,강서구,화곡동,37.54765416,126.834768,서울특별시 강서구 화곡동 
지역근린공원,제1근린공원,강서구,가양동,37.57071597,126.8489287,서울특별시 강서구 가양동 강서로80길
지역근린공원,해오라기공원,노원구,공릉동,37.62545838,127.0763043,서울특별시 노원구 공릉동 
지역근린공원,배밭근린공원,강남구,개포동,37.48891429,127.0638525,서울특별시 강남구 개포동 
지역근린공원,해태공원,금천구,시흥동,37.45777287,126.9018673,서울특별시 금천구 시흥동 
지역근린공원,남부어린이공원,관악구,신림동,37.48495446,126.9204341,서울특별시 관악구 신림동 남부순환로163가길
지역근린공원,논현소나무공원,강남구,논현동,37.51577028,127.0373636,서울특별시 강남구 논현동 
지역근린공원,백연공원,강서구,화곡동,37.55065998,126.8518695,서울특별시 강서구 화곡동 
지역근린공원,독서근린공원,양천구,신월동,37.51959311,126.8352176,서울특별시 양천구 신월동 지양로
지역근린공원,금실어린이공원,양천구,신월동,37.5180558,126.8374359,서울특별시 양천구 신월동 지양로
지역근린공원,갓바위공원,노원구,중계동,37.65755537,127.0788094,서울특별시 노원구 중계동 
지역근린공원,동대문성곽공원,종로구,종로6가,37.57237158,127.0088439,서울특별시 종로구 종로6가 
지역근린공원,환구단,중구,소공동,37.56504964,126.9797374,서울특별시 중구 소공동 소공로
지역근린공원,안산어린이공원,양천구,신정동,37.52465501,126.8561931,서울특별시 양천구 신정동 
지역근린공원,고척근린소공원,구로구,고척동,37.5034357,126.8525476,서울특별시 구로구 고척동 고척로52가길
지역근린공원,청구동마을마당,중구,신당동,37.55611886,127.0163185,서울특별시 중구 신당동 
지역근린공원,개봉소공원,구로구,개봉동,37.49961278,126.8495416,서울특별시 구로구 개봉동 
지역근린공원,구의유수지수변공원,광진구,구의동,37.53222968,127.0922309,서울특별시 광진구 구의동 구의강변로
지역근린공원,DMC문화공원,마포구,상암동,37.57808498,126.8922392,서울특별시 마포구 상암동 
지역근린공원,해님공원,광진구,화양동,37.54266002,127.0670227,서울특별시 광진구 화양동 아차산로25길
지역근린공원,명일공원,강동구,상일동,37.55129469,127.1634092,서울특별시 강동구 상일동 구천면로
지역근린공원,마곡중앙광장,강서구,마곡동,37.56617081,126.8271539,서울특별시 강서구 마곡동 마곡중앙5로
지역근린공원,겸재공원,중랑구,면목동,37.58797091,127.0932316,서울특별시 중랑구 면목동 
지역근린공원,까치공원,금천구,시흥동,37.4396415,126.9049874,서울특별시 금천구 시흥동 
지역근린공원,숭인공원,종로구,숭인동,37.57633883,127.0179554,서울특별시 종로구 숭인동 
지역근린공원,메아리공원,강서구,방화동,37.5786758,126.8142607,서울특별시 강서구 방화동 
지역근린공원,홍남어린이공원,서대문구,홍은동,37.57804686,126.9290895,서울특별시 서대문구 홍은동 
지역근린공원,미림어린이공원,관악구,신림동,37.46656354,126.9352578,서울특별시 관악구 신림동 
지역근린공원,건국대학교서울캠퍼스분수대광장,광진구,화양동,37.5430299,127.0724061,서울특별시 광진구 화양동 능동로
지역근린공원,남서울공원,금천구,시흥동,37.44832952,126.9020865,서울특별시 금천구 시흥동 
지역근린공원,성일어린이공원,성동구,성수동1가,37.54998252,127.0460236,서울특별시 성동구 성수동1가 
지역근린공원,한글어린이공원,강서구,화곡동,37.53852162,126.850517,서울특별시 강서구 화곡동 
지역근린공원,이태원부군당역사공원,용산구,이태원동,37.53622381,126.9895998,서울특별시 용산구 이태원동 녹사평대로40다길
지역근린공원,황금내공원,강서구,가양동,37.56178337,126.8641023,서울특별시 강서구 가양동 허준로
지역근린공원,마곡유수지생태공원,강서구,마곡동,37.57381934,126.8361852,서울특별시 강서구 마곡동 
지역근린공원,군인아파트공원,관악구,남현동,37.47189411,126.9788888,서울특별시 관악구 남현동 
지역근린공원,배꽃공원,중랑구,중화동,37.60438203,127.0748544,서울특별시 중랑구 중화동 동일로139라길
지역근린공원,중화리공원,중랑구,중화동,37.60422564,127.0804182,서울특별시 중랑구 중화동 동일로138길
지역근린공원,별빛어린이공원,노원구,공릉동,37.61902869,127.072215,서울특별시 노원구 공릉동 
지역근린공원,샛팽어린이공원,송파구,가락동,37.49680999,127.1339825,서울특별시 송파구 가락동 오금로42길
지역근린공원,새재미공원,금천구,시흥동,37.45898971,126.9041353,서울특별시 금천구 시흥동 독산로39길
지역근린공원,갈대밭공원,도봉구,도봉동,37.67434056,127.0456827,서울특별시 도봉구 도봉동 
지역근린공원,한아름공원,광진구,화양동,37.54436511,127.0705274,서울특별시 광진구 화양동 군자로3길
지역근린공원,안양천둔치,금천구,독산동,37.45835092,126.8898796,서울특별시 금천구 독산동 안양천서자전거길
지역근린공원,백제요지공원,관악구,남현동,37.4745949,126.9794935,서울특별시 관악구 남현동 남현3길
지역근린공원,노량진근린공원,동작구,대방동,37.5075356,126.9272572,서울특별시 동작구 대방동 여의대방로36길
지역근린공원,반남어린이공원,강북구,번동,37.63577784,127.0249775,서울특별시 강북구 번동 오패산로77길
지역근린공원,빙수골마을공원,동작구,상도동,37.4966979,126.9322256,서울특별시 동작구 상도동 
지역근린공원,쌍림어린이공원,중구,광희동1가,37.56421568,127.0051834,서울특별시 중구 광희동1가 
지역근린공원,초안산근린공원,도봉구,창동,37.64821927,127.0455486,서울특별시 도봉구 창동 해등로
지역근린공원,역마을어린이공원,은평구,역촌동,37.60118321,126.918675,서울특별시 은평구 역촌동 진흥로1길
지역근린공원,응봉공원,성동구,금호동1가,37.55374197,127.0273496,서울특별시 성동구 금호동1가 독서당로63길
